OBJECTID,ID,Name,Type,Street,Town,OwnerTyp,ConsType,ConsJuri,Steward,Playground,Ball Field,Soccer Field,Football Field,Multi-use Field,Basketball Court,Tennis,Volleyball Court,Track,Skate Park,IH_Rink,SH_Rink,Golf,Fishing,Boating,Hunting,Trails,Beach,Pool,Active Rec,Rest Room,Walking Path,Bike Path,State Grant,LWCF Grant,Lon,Lat,Short Summary,About Links,Map Links
0,"2,462",Block Island National Wildlife Refuge,Conservation Area,,New Shoreham,Federal,FEE,FED,U.S. Fish & Wildlife Service,0,0,0,0,0,0,0,0,0,0,0,0,0,0,0,0,1,0,0,0,0,1,0,,,-71.57406616,41.21141052,Block Island National Wildlife Refuge is Conservation Area located in New Shoreham,https://www.fws.gov/refuge/Block_Island/about.html,https://www.fws.gov/refuge/Block_Island/map.html
0,?169;604,Ninigret National Wildlife Refuge,Conservation Area,Beach,Charlestown,Federal,FEE,FED,U.S. Fish & Wildlife Service,0,0,0,0,0,0,0,0,0,0,0,0,0,0,0,0,1,0,0,0,0,1,0,,,-71.665916,41.363634,Ninigret National Wildlife Refuge is a Conservation Area located in Charlestown,https://www.fws.gov/refuge/Ninigret/about.html,https://www.fws.gov/refuge/Ninigret/map.html
0,"?611,614",Block Island Greenway,Conservation Area,,New Shoreham,Non-Governmental Org,,,Nature Conservancy,0,0,0,0,0,0,0,0,0,0,0,0,0,0,0,0,1,0,0,0,0,1,,,,"71°33'29.62""W","41°10'11.22""N","Block Island Greenway is a Nature Conservancy located in New Shoreham. There are approximately 25 miles of walking trails on Block Island open to the public, free of charge.",http://www.nature.org/ourinitiatives/regions/northamerica/unitedstates/rhodeisland/placesweprotect/block-island.xml,
0,?882,John H. Chafee National Wildlife Refuge,Conservation Area,Boston Neck Road,Narragansett & South Kingstown,Federal,FEE,FED,U.S. Fish & Wildlife Service,0,0,0,0,0,0,0,0,0,0,0,0,0,1,1,0,1,0,0,0,0,1,0,,,,,John H. Chafee National Wildlife Refuge is a Conservation Area located in Narragansett & South Kingstown,https://www.fws.gov/refuge/John_H_Chafee/about.html,https://www.fws.gov/refuge/John_H_Chafee/map.html
0,1937;545,Sachuest Pt. National Refuge,Conservation Area,Sachuest Point,Middletown,Federal,FEE,FED,U.S. Fish & Wildlife Service,0,0,0,0,0,0,0,0,0,0,0,0,0,0,0,0,1,0,0,0,0,1,0,N,N,-71.242991,41.480525,Sachuest Pt. National Refuge is a Conservation Area located in Middletown,https://www.fws.gov/refuge/Sachuest_Point/about.html,https://www.fws.gov/refuge/Saschuest_Point/map.html
0,2252;589,Trustom Pond National Wildlife Refuge,Conservation Area,Border,South Kingstown,Federal,FEE,FED,U.S. Fish & Wildlife Service,0,0,0,0,0,0,0,0,0,0,0,0,0,0,0,0,1,0,0,0,0,0,0,N,N,-71.585026,41.382958,Trustom Pond National Wildlife Refuge is a Conservation Area located in South Kingstown,https://www.fws.gov/refuge/Trustom_Pond/about.html,https://www.fws.gov/refuge/Trustom_Pond/map.html
0,,Francis Carter Preserve,Conservation Area,Carolina Back Road,Charlestown,Non-Governmental Org,,,Nature Conservancy,0,0,0,0,0,0,0,0,0,0,0,0,0,0,0,1,1,0,0,0,1,1,,,,"71°39'22.70""W","41°26'19.90""N","The Carter Preserve is The Nature Conservancy's best loved sanctuary in South County. Criss-crossed by stone walls, it protects 840 acres of oak and pitch pine forest, with 5 miles of trails to explore.",http://www.nature.org/ourinitiatives/regions/northamerica/unitedstates/rhodeisland/placesweprotect/francis-c-carter-memorial-preserve.xml,http://www.nature.org/ourinitiatives/regions/northamerica/unitedstates/rhodeisland/placesweprotect/carter-final-preserve-guide.pdf
0,,Lime Rock Preserve,Conservation Area,Wilbur Road,Lincoln,Non-Governmental Org,,,Nature Conservancy,0,0,0,0,0,0,0,0,0,0,0,0,0,0,0,0,1,0,0,0,0,1,,,,"71°27'52.00""W","41°55'11.27""N",Ledges of dolomitic marble produce a special calcareous soil that nurtures 30 rare plant species - more than any other site in Rhode Island. Beautiful ferns and wildflowers grow along ridges of recrystallized limestone.,http://www.nature.org/ourinitiatives/regions/northamerica/unitedstates/rhodeisland/placesweprotect/lime-rock-preserve.xml,http://www.nature.org/ourinitiatives/regions/northamerica/unitedstates/rhodeisland/placesweprotect/trail-map-of-lime-rock-2015.pdf
3,3,Spring Grove Beach,Local Park,Spring Grove,Glocester,Municipal,,,Municipal,0,0,0,0,0,0,0,0,0,0,0,0,0,0,0,0,0,1,0,0,0,0,0,N,N,-71.653849,41.913438,Spring Grove Beach is a Local Park located in Glocester,,
4,4,Lime Acres,Local Park,Jenckes Hill,Lincoln,Municipal,,,Municipal,0,2,0,0,0,0,3,0,0,0,0,0,0,0,0,0,0,0,0,1,0,0,0,Y,Y,-71.469891,41.910619,Lime Acres is a Local Park located in Lincoln,,
23,23,Slater Park,Local Park,Pawtucket,Pawtucket,Municipal,,,Municipal,0,9,0,0,1,0,10,0,0,0,0,0,0,1,0,0,0,0,0,1,1,0,0,Y,Y,-71.34633,41.869923,Slater Park is a Local Park located in Pawtucket,,
28,28,Max Read Field,Local Park,Pleasant,Pawtucket,Municipal,,,Municipal,0,0,2,1,2,0,0,0,1,0,0,0,0,1,0,0,0,0,0,1,0,0,0,Y,Y,-71.381124,41.864352,Max Read Field is a Local Park located in Pawtucket,,
33,33,Blackstone Blvd. Park,Local Park,Blackstone,Providence,Municipal,,,Municipal,0,0,0,0,0,0,0,0,0,0,0,0,0,0,0,0,0,0,0,0,0,1,0,N,Y,-71.38779,41.852104,Blackstone Blvd. Park is a Local Park located in Providence,,
34,34,Stephen Olney Park,Local Park,Smithfield,North Providence,Municipal,,,Municipal,2,4,0,0,1,1,4,0,0,1,0,0,0,0,0,0,0,0,0,1,0,1,0,Y,Y,-71.453493,41.855428,Stephen Olney Park is a Local Park located in North Providence,,
38,38,Kimberly Ann Rock Memorial Athletic Complex,Athletic Facility,Ferris,East Providence,Municipal,,,Municipal,0,4,0,0,0,0,0,0,0,0,0,0,0,0,0,0,0,0,0,1,1,0,0,N,N,-71.346472,41.848534,Kimberly Ann Rock Memorial Athletic Complex is a Athletic Facility located in East Providence,,
44,44,Blackstone Park / Patterson Park,Local Park,Parkside,Providence,Municipal,,,Municipal,0,0,0,0,0,0,0,0,0,0,0,0,0,0,0,0,1,0,0,0,0,0,0,N,Y,-71.379488,41.833786,Blackstone Park / Patterson Park is a Local Park located in Providence,,
45,45,Father Lennon Park,School,Camden,Providence,Municipal,,,Municipal,1,0,0,0,0,0,0,0,0,0,0,0,0,0,0,0,0,0,1,1,0,0,0,N,N,-71.427114,41.8379,Father Lennon Park is a School located in Providence,,
56,56,Angelo Zuccolo Pool,Local Park,Gesler,Providence,Municipal,,,Municipal,0,0,0,0,0,0,0,0,0,0,0,0,0,0,0,0,0,0,1,1,1,0,0,N,N,-71.430731,41.82257,Angelo Zuccolo Pool is a Local Park located in Providence,,
57,57,John Donigian Memorial Park,Local Park,Valley,Providence,Municipal,,,Municipal,1,1,0,0,1,1,0,0,0,0,0,0,0,0,0,0,0,0,0,1,0,1,0,N,Y,-71.440826,41.823264,John Donigian Memorial Park is a Local Park located in Providence,,
62,62,India Point Park,Local Park,India,Providence,Municipal,,,Municipal,1,0,1,0,1,0,0,0,0,0,0,0,0,1,0,0,0,0,0,1,0,0,0,Y,Y,-71.392367,41.817845,India Point Park is a Local Park located in Providence,,
71,71,Roger Williams Park,Local Park,Elmwood,Providence,Municipal,,,Municipal,1,4,0,0,2,0,10,0,0,0,0,0,0,0,0,0,1,0,0,1,1,1,0,Y,Y,-71.4123,41.782944,Roger Williams Park is a Local Park located in Providence,,
86,86,Beachmont / Hayes Field,Local Park,Calvin,Cranston,Municipal,,,Municipal,1,2,0,0,0,1,2,0,0,0,0,0,0,0,0,0,0,1,0,1,0,0,0,N,Y,-71.40733,41.775174,Beachmont / Hayes Field is a Local Park located in Cranston,,
87,87,Stillhouse Cove,Local Park,Narragansett,Cranston,State,,,RI DEM,0,0,0,0,0,0,0,0,0,0,0,0,0,1,0,0,0,0,0,0,0,0,0,N,N,-71.389917,41.770139,Stillhouse Cove is a Local Park located in Cranston,,
88,88,Aqueduct Field,Local Park,Aqueduct,Cranston,Municipal,,,Municipal,0,4,0,0,0,2,0,0,0,0,0,0,0,0,0,0,0,0,1,1,0,0,0,N,N,-71.444754,41.770694,Aqueduct Field is a Local Park located in Cranston,,
89,89,Osamequin Nature Trail,Local Park,Wampanoag,Barrington,Municipal,,,Municipal,0,0,0,0,0,0,0,0,0,0,0,0,0,1,0,0,1,0,0,1,0,0,0,N,N,-71.322961,41.77036,Osamequin Nature Trail is a Local Park located in Barrington,,
91,91,Sabin Point Park,Local Park,Shore,East Providence,Municipal,,,Municipal,1,0,0,0,1,1,0,0,0,0,0,0,0,1,1,0,0,0,0,1,0,0,0,Y,Y,-71.367953,41.76564,Sabin Point Park is a Local Park located in East Providence,,
97,97,Crescent Park / Loof Carousel,Local Park,Bullocks Point,East Providence,Municipal,,,Municipal,0,0,0,0,0,0,0,0,0,0,0,0,0,1,1,0,0,0,0,1,1,0,0,N,Y,-71.359192,41.757079,Crescent Park / Loof Carousel is a Local Park located in East Providence,,
99,99,Briggs Farm,Athletic Facility,Hope,Cranston,Municipal,,,Municipal,0,5,5,0,5,0,2,0,0,0,0,0,0,0,0,0,1,0,0,1,1,0,0,Y,Y,-71.511555,41.752075,Briggs Farm is a Athletic Facility located in Cranston,,
100,100,Latham Ave. Park,Local Park,Shore,Barrington,Municipal,,,Municipal,1,0,0,0,0,0,0,0,0,0,0,0,0,1,0,0,0,0,0,1,0,0,0,Y,N,-71.352122,41.745801,Latham Ave. Park is a Local Park located in Barrington,,
107,107,Mickey Stevens Sports Center,Local Park,Sandy,Warwick,Municipal,,,Municipal,0,3,0,0,0,2,8,0,0,1,1,0,0,0,0,0,0,0,1,1,1,0,0,N,Y,-71.414576,41.709954,Mickey Stevens Sports Center is a Local Park located in Warwick,,
109,109,Little Pond Beach,Local Park,Albert,Warwick,School,,,School,0,0,0,0,0,0,0,0,0,0,0,0,0,0,0,0,0,1,0,0,0,0,0,N,N,-71.407682,41.704952,Little Pond Beach is a Local Park located in Warwick,,
110,110,Upper Dam Pond,Local Park,Knotty Oak,Coventry,Municipal,,,Municipal,0,0,0,0,0,0,0,0,0,0,0,0,0,1,1,0,0,0,0,1,0,0,0,N,Y,-71.554188,41.70462,Upper Dam Pond is a Local Park located in Coventry,,
120,120,Briar Point Beach Area,Local Park,Briar Point,Coventry,Municipal,,,Municipal,1,0,0,0,0,0,0,0,0,0,0,0,0,0,0,0,0,1,0,0,1,0,0,Y,Y,-71.549679,41.674302,Briar Point Beach Area is a Local Park located in Coventry,,
121,121,Independence Park,Local Park,Thames,Bristol,Municipal,,,Municipal,0,0,0,0,0,0,0,0,0,0,0,0,0,1,1,0,0,0,0,1,1,1,1,Y,N,-71.279487,41.673785,Independence Park is a Local Park located in Bristol,,
127,127,Wilson Park,Local Park,Roosevelt,North Kingstown,Municipal,,,Municipal,1,3,10,0,10,2,2,0,0,0,0,0,0,1,1,0,0,0,0,1,1,0,0,Y,Y,-71.459231,41.574637,Wilson Park is a Local Park located in North Kingstown,,
140,140,Battery Park / Fort Greene,Local Park,Washington,Newport,Municipal,,,Municipal,0,0,0,0,0,0,0,0,0,0,0,0,0,1,0,0,0,0,0,0,0,0,0,N,N,-71.321638,41.496831,Battery Park / Fort Greene is a Local Park located in Newport,,
152,152,Third Beach,Local Park,Third Beach,Middletown,Municipal,,,Municipal,0,0,0,0,0,0,0,0,0,0,0,0,0,1,1,0,0,1,0,1,0,0,0,N,N,-71.245631,41.486537,Third Beach is a Local Park located in Middletown,,
160,160,Tri-Pond Park,Local Park,Asa Pond,South Kingstown,Municipal,,,Municipal,0,0,0,0,0,0,0,0,0,0,0,0,0,1,1,0,1,0,0,1,0,0,0,N,Y,-71.510929,41.456362,Tri-Pond Park is a Local Park located in South Kingstown,,
163,163,Tuckertown Recreation Area,Local Park,Tuckertown Park,South Kingstown,Municipal,,,Municipal,1,2,4,0,1,1,2,0,0,0,0,0,0,0,0,0,1,0,0,1,1,0,0,N,Y,-71.556846,41.426759,Tuckertown Recreation Area is a Local Park located in South Kingstown,,
168,168,Wilcox Park,Local Park,Grove,Westerly,Municipal,,,Municipal,0,0,0,0,1,0,0,0,0,0,0,0,0,0,0,0,0,0,0,0,1,1,0,Y,N,-71.828134,41.378604,Wilcox Park is a Local Park located in Westerly,,
169,169,Ninigret Park,Local Park,Park,Charlestown,Municipal,,,Municipal,1,1,1,0,2,1,4,0,0,0,0,0,0,1,0,0,0,0,1,1,1,0,0,Y,Y,-71.665937,41.370021,Ninigret Park is a Local Park located in Charlestown,,
172,172,Coventry Greenway And Bike Path,Local Park,Main,Coventry,Municipal,,,Municipal,0,0,0,0,0,0,0,0,0,0,0,0,0,0,0,0,0,0,0,1,0,0,0,N,N,-71.57399,41.69507,Coventry Greenway And Bike Path is a Local Park located in Coventry,,
174,174,South Kingstown Town Beach,Local Park,Matunuck Beach,South Kingstown,Municipal,,,Municipal,0,0,0,0,0,0,0,0,0,0,0,0,0,0,0,0,0,1,0,0,1,0,0,Y,Y,-71.550589,41.375552,South Kingstown Town Beach is a Local Park located in South Kingstown,,
177,177,Britto's Park,Local Park,Unnamed,Warren,Municipal,,,Municipal,0,1,1,1,1,0,0,0,0,0,0,0,0,0,0,0,0,0,0,0,0,0,0,N,N,-71.261173,41.725052,Britto's Park is a Local Park located in Warren,,
178,178,Cole Avenue Field,Local Park,Hugh Cole,Warren,Municipal,,,Municipal,0,1,1,0,0,0,0,0,1,0,0,0,0,0,0,0,0,0,0,1,1,0,0,N,N,-71.257112,41.727364,Cole Avenue Field is a Local Park located in Warren,,
194,194,Doreen Tomlinson Complex,Athletic Facility,Daggett,Pawtucket,State,,,RI DEM,0,5,1,0,1,0,0,0,0,0,0,0,0,0,0,0,0,0,0,1,1,0,0,N,Y,-71.345288,41.886393,Doreen Tomlinson Complex is a Athletic Facility located in Pawtucket,,
195,195,Turner Reservoir,Local Park,Hunts Mill,East Providence,Municipal,,,Municipal,0,0,0,0,0,0,0,0,0,0,0,0,0,1,0,0,1,0,0,0,0,0,0,N,N,-71.343446,41.829768,Turner Reservoir is a Local Park located in East Providence,,
199,199,Veterans Memorial Park,Local Park,Veterans Park,Barrington,Municipal,,,Municipal,0,1,0,0,0,0,0,0,0,0,0,0,0,1,1,0,1,0,0,1,0,0,0,N,N,-71.313157,41.735869,Veterans Memorial Park is a Local Park located in Barrington,,
200,200,Higginson Avenue Sports Complex,Local Park,Crow Point,Central Falls,Municipal,,,Municipal,0,1,1,1,1,2,0,0,1,0,0,0,0,0,0,0,0,0,0,1,1,0,0,Y,Y,-71.402455,41.885192,Higginson Avenue Sports Complex is a Local Park located in Central Falls,,
202,202,Herbert F. Paine Memorial Park,Local Park,Main,Coventry,Municipal,,,Municipal,1,4,0,0,0,2,4,0,0,1,0,0,0,0,0,0,0,0,0,1,0,1,1,Y,Y,-71.569691,41.692763,Herbert F. Paine Memorial Park is a Local Park located in Coventry,,
204,204,Brayton Ave. Field,Local Park,Unnamed,Cranston,Municipal,,,Municipal,1,4,0,0,0,0,0,0,0,0,0,0,0,0,0,0,0,0,0,1,1,1,0,N,N,-71.472299,41.746813,Brayton Ave. Field is a Local Park located in Cranston,,
205,205,Park View Field,Local Park,Park View,Cranston,Municipal,,,Municipal,1,3,0,0,1,1,4,0,0,0,0,0,0,0,0,0,0,0,0,1,1,1,0,Y,N,-71.414537,41.772213,Park View Field is a Local Park located in Cranston,,
210,210,Pierce Field Athletic Complex,Athletic Facility,Mercer,East Providence,Municipal,,,Municipal,1,4,0,0,1,2,2,0,1,0,0,0,0,0,0,0,0,0,0,1,1,0,0,Y,N,-71.382405,41.810602,Pierce Field Athletic Complex is a Athletic Facility located in East Providence,,
216,216,King Park,Local Park,Wellington,Newport,Municipal,,,Municipal,1,2,0,0,0,0,0,0,0,0,0,0,0,1,1,0,0,0,0,1,1,0,0,Y,N,-71.319806,41.47655,King Park is a Local Park located in Newport,,
219,219,Fairlawn Veterans' Park,Local Park,Legion,Pawtucket,Municipal,,,Municipal,1,3,1,0,1,1,4,0,0,0,0,0,0,0,0,0,0,0,1,1,1,0,0,Y,Y,-71.410258,41.867437,Fairlawn Veterans' Park is a Local Park located in Pawtucket,,
224,224,Joslin Playground,Local Park,Kossuth,Providence,Municipal,,,Municipal,1,1,0,0,0,1,0,0,0,0,0,0,0,0,0,0,0,0,1,0,0,0,0,N,N,-71.44671,41.821175,Joslin Playground is a Local Park located in Providence,,
226,226,Neutaconkanut Park,Local Park,Killingly,Providence,Municipal,,,Municipal,1,2,0,0,0,1,0,0,0,1,0,0,0,0,0,0,1,0,1,1,0,0,0,Y,Y,-71.463318,41.814191,Neutaconkanut Park is a Local Park located in Providence,,
227,227,Old Mountain Field,Local Park,Kingstown,South Kingstown,Municipal,,,Municipal,1,2,0,0,0,0,4,0,0,1,0,1,0,1,0,0,1,0,0,1,0,0,0,Y,N,-71.488434,41.44621,Old Mountain Field is a Local Park located in South Kingstown,,
229,229,Town Farm Recreation Area,Local Park,Main,Tiverton,Municipal,,,Municipal,1,3,1,0,2,0,4,0,0,0,0,0,0,0,0,0,0,0,0,1,0,1,0,Y,N,-71.192116,41.582928,Town Farm Recreation Area is a Local Park located in Tiverton,,
232,232,Oakland Beach Park,Local Park,Burr,Warwick,Municipal,,,Municipal,1,1,0,0,1,1,0,0,0,0,0,0,0,1,1,0,0,1,0,1,1,0,0,Y,Y,-71.396434,41.685134,Oakland Beach Park is a Local Park located in Warwick,,
234,234,City Park,Local Park,Warwick Park,Warwick,Municipal,,,Municipal,1,4,2,0,0,2,0,0,0,0,0,0,0,0,0,0,0,0,0,1,1,1,1,Y,Y,-71.412482,41.692601,City Park is a Local Park located in Warwick,,
237,237,Natick Fields,Local Park,Crossland,West Warwick,Municipal,,,Municipal,0,3,0,0,0,0,1,0,0,0,0,0,0,0,0,0,0,0,0,1,0,0,0,N,N,-71.495264,41.726277,Natick Fields is a Local Park located in West Warwick,,
238,238,Riverpoint Park,Athletic Facility,Hay,West Warwick,Municipal,,,Municipal,20,5,3,0,0,2,0,0,0,0,0,0,0,1,0,0,0,0,0,1,1,1,1,Y,Y,-71.515249,41.717512,Riverpoint Park is a Athletic Facility located in West Warwick,,
245,245,Black Hut Management Area,Management Area,Glen Meadow,Burrillville,State,,,RI DEM,0,0,0,0,0,0,0,0,0,0,0,0,0,0,0,1,1,0,0,1,0,0,0,N,N,-71.648676,41.98721,Black Hut Management Area is a Management Area located in Burrillville,,
248,248,Doric Ave / Osler Field,Local Park,Doric,Cranston,Municipal,,,Municipal,1,0,1,0,1,2,1,0,0,0,0,0,0,0,0,0,0,0,0,1,1,1,0,Y,Y,-71.429907,41.770684,Doric Ave / Osler Field is a Local Park located in Cranston,,
262,262,Carl's Pond,Fishing / Boating,Jencks,Cumberland,State,,,RI DEM,0,0,0,0,0,0,0,0,0,0,0,0,0,1,1,0,0,0,0,1,0,0,0,N,N,-71.446601,42.013129,Carl's Pond is a Fishing / Boating located in Cumberland,,
263,263,St Paul / Waterford Playground,Local Park,Saint Paul,North Smithfield,Municipal,,,Municipal,1,0,0,0,0,0,0,0,0,0,0,0,0,0,0,0,0,0,0,0,0,0,0,N,Y,-71.540628,42.013987,St Paul / Waterford Playground is a Local Park located in North Smithfield,,
264,264,Buck Hill Management Area,Management Area,Benson Mountain,Burrillville,State,,,RI DEM,0,0,0,0,0,0,0,0,0,0,0,0,0,1,0,1,1,0,0,0,0,0,0,N,N,-71.787284,41.997063,Buck Hill Management Area is a Management Area located in Burrillville,,
265,265,Kendrick Ave. Playlot,Local Park,Kendrick,Woonsocket,Municipal,,,Municipal,1,0,0,0,0,1,0,0,0,0,0,0,0,0,0,0,0,0,0,1,0,0,0,N,N,-71.499965,42.007067,Kendrick Ave. Playlot is a Local Park located in Woonsocket,,
266,266,Cass Park,Local Park,Newland,Woonsocket,Municipal,,,Municipal,1,2,3,0,3,1,5,0,1,0,0,0,0,1,0,0,0,0,0,1,0,1,0,Y,Y,-71.489637,42.003844,Cass Park is a Local Park located in Woonsocket,,
267,267,Diamond Hill Park,Local Park,Diamond Hill,Cumberland,Municipal,,,Municipal,0,2,2,0,2,0,0,0,0,0,0,0,0,0,0,0,1,0,0,1,0,0,0,Y,Y,-71.418047,41.999597,Diamond Hill Park is a Local Park located in Cumberland,,
277,277,Barry Memorial Field,Local Park,Smithfield,Woonsocket,Municipal,,,Municipal,0,3,2,1,2,0,0,0,0,0,0,0,0,0,0,0,0,0,0,1,1,0,0,N,N,-71.518701,41.986057,Barry Memorial Field is a Local Park located in Woonsocket,,
289,289,Monastery,Local Park,Diamond Hill,Cumberland,Municipal,,,Municipal,1,0,0,0,0,0,0,0,0,0,0,0,0,0,0,0,1,0,0,0,0,0,0,N,Y,-71.409732,41.935707,Monastery is a Local Park located in Cumberland,,
290,290,Blackstone Bikeway,State Park,Farnworth,Lincoln,State,,,RI DEM,0,0,0,0,0,0,0,0,0,0,0,0,0,0,0,0,0,0,0,1,0,1,0,N,N,-71.408355,41.911626,Blackstone Bikeway is a State Park located in Lincoln,,
291,291,George Washington Management Area,Management Area,Richardson,Burrillville,State,,,RI DEM,0,0,0,0,0,0,0,0,0,0,0,0,0,1,0,1,1,0,0,1,0,0,0,N,Y,-71.768508,41.942661,George Washington Management Area is a Management Area located in Burrillville,,
294,294,Washington Grove,State Park,Washington,Smithfield,State,,,RI DEM,0,0,0,0,0,0,0,0,0,0,0,0,0,0,0,0,0,0,0,0,0,0,0,N,Y,-71.538179,41.912813,Washington Grove is a State Park located in Smithfield,,
296,296,Woonasquatucket Reservoir,Fishing / Boating,Farnum Pike,Smithfield,State,,,RI DEM,0,0,0,0,0,0,0,0,0,0,0,0,0,1,0,0,0,0,0,0,0,0,0,N,Y,-71.541017,41.907611,Woonasquatucket Reservoir is a Fishing / Boating located in Smithfield,,
298,298,Durfee Hill Management Area,Management Area,Willie Woodhead,Glocester,State,,,RI DEM,0,0,0,0,0,0,0,0,0,0,0,0,0,0,0,1,1,0,0,0,0,0,0,N,Y,-71.747452,41.904398,Durfee Hill Management Area is a Management Area located in Glocester,,
299,299,Chase Farm Conservation Area,Conservation Area,Hollywood,Lincoln,Municipal,,,Municipal,0,0,0,0,0,0,0,0,0,0,0,0,0,0,0,0,1,0,0,0,0,1,0,Y,Y,-71.425167,41.909222,Chase Farm Conservation Area is a Conservation Area located in Lincoln,,
304,304,Georgiaville Beach,Local Park,Stillwater,Smithfield,Municipal,,,Municipal,0,0,0,0,0,0,0,0,0,0,0,0,0,1,1,0,0,1,0,1,1,0,0,N,N,-71.508516,41.890536,Georgiaville Beach is a Local Park located in Smithfield,,
306,306,Lincoln Woods,State Park,Lincoln Woods,Lincoln,State,,,RI DEM,0,1,0,0,1,0,0,0,0,0,0,0,0,1,1,0,1,0,0,1,1,1,0,N,Y,-71.431397,41.897262,Lincoln Woods is a State Park located in Lincoln,,
312,312,Marion Irons Beach,Local Park,Snake Hill,Glocester,Municipal,,,Municipal,0,0,0,0,0,0,0,0,0,0,0,0,0,0,0,0,0,1,0,0,0,0,0,N,N,-71.625818,41.879615,Marion Irons Beach is a Local Park located in Glocester,,
322,322,Greenlake Beach,Local Park,Bayou,Smithfield,Municipal,,,Municipal,0,0,0,0,0,0,0,0,0,0,0,0,0,1,0,0,0,1,0,0,1,0,0,N,N,-71.551839,41.865265,Greenlake Beach is a Local Park located in Smithfield,,
323,323,McCarthy Park,Local Park,School,Pawtucket,Municipal,,,Municipal,1,2,1,0,1,1,3,0,0,0,0,1,0,1,0,0,0,0,0,1,0,0,0,Y,N,-71.376462,41.863003,McCarthy Park is a Local Park located in Pawtucket,,
327,327,Snake Den State Park,Conservation Area,Hartford,Johnston,State,,,RI DEM,0,0,0,0,0,0,0,0,0,0,0,0,0,0,0,1,1,0,0,0,0,0,0,N,Y,-71.532001,41.8413,Snake Den State Park is a Conservation Area located in Johnston,,
328,328,Lippitt Park,Local Park,Hope,Providence,Municipal,,,Municipal,1,0,0,0,0,0,0,0,0,0,0,0,0,0,0,0,0,0,0,0,0,1,0,N,Y,-71.391451,41.854711,Lippitt Park is a Local Park located in Providence,,
333,333,Iola French Park,Local Park,Stansbury,Providence,Municipal,,,Municipal,0,1,0,0,1,0,0,0,0,0,0,0,0,0,0,0,0,0,0,1,0,1,0,N,N,-71.43287,41.851359,Iola French Park is a Local Park located in Providence,,
334,334,Ricci School Athletic Complex,Athletic Facility,Intervale,North Providence,Municipal,,,Municipal,0,0,3,0,3,0,4,0,1,0,0,0,0,0,0,0,0,0,0,1,0,0,0,N,N,-71.471598,41.848203,Ricci School Athletic Complex is a Athletic Facility located in North Providence,,
340,340,Mount Pleasant H. S. Fields,School,Rialto,Providence,School,,,School,0,1,2,1,2,1,2,0,1,0,0,0,0,0,0,0,0,0,0,1,0,0,0,Y,N,-71.453569,41.83822,Mount Pleasant H. S. Fields is a School located in Providence,,
345,345,Johnston Sr High School,School,Cherry Hill,Johnston,School,,,School,0,0,1,1,2,0,0,0,1,0,0,0,0,0,0,0,0,0,0,1,0,0,0,N,N,-71.501006,41.833013,Johnston Sr High School is a School located in Johnston,,
348,348,Shippee Sawmill Pond,Fishing / Boating,Willoughby Young,Foster,State,,,RI DEM,0,0,0,0,0,0,0,0,0,0,0,0,0,1,1,0,0,0,0,1,0,0,0,N,N,-71.752366,41.833792,Shippee Sawmill Pond is a Fishing / Boating located in Foster,,
352,352,Dean Andrews Memorial Field,Local Park,Battey Meetinghouse,Scituate,State,,,RI DEM,1,1,0,0,1,0,0,0,0,0,0,0,0,1,0,0,0,0,0,1,0,0,0,N,N,-71.604893,41.829299,Dean Andrews Memorial Field is a Local Park located in Scituate,,
355,355,Roger Williams National Park,Local Park,Main,Providence,Federal,FEE,FED,,0,0,0,0,0,0,0,0,0,0,0,0,0,0,0,0,0,0,0,0,0,1,0,N,N,-71.410546,41.830008,Roger Williams National Park is a Local Park located in Providence,,
356,356,Scituate Jr.-Sr. High School,School,Rockland,Scituate,School,,,School,0,0,1,1,1,0,4,0,1,0,0,0,0,0,0,0,0,0,0,1,0,0,0,N,N,-71.618977,41.824622,Scituate Jr.-Sr. High School is a School located in Scituate,,
363,363,Central / Classical  High Schools,School,Broad,Providence,School,,,School,0,1,1,1,1,0,0,0,0,0,0,0,0,0,0,0,0,0,0,1,0,0,0,N,N,-71.41935,41.81696,Central / Classical  High Schools is a School located in Providence,,
368,368,Bold Point Park,Local Park,Pier,East Providence,Municipal,,,Municipal,0,0,0,0,0,0,0,0,0,0,0,0,0,1,1,0,0,0,0,1,0,0,0,Y,Y,-71.390973,41.815222,Bold Point Park is a Local Park located in East Providence,,
371,371,Davey Lopes Park,Local Park,Prairie,Providence,Municipal,,,Municipal,1,0,0,0,0,1,1,0,0,0,0,0,0,0,0,0,0,0,1,1,0,0,0,N,N,-71.415963,41.810352,Davey Lopes Park is a Local Park located in Providence,,
379,379,Bucklin St. Park / McCrane Pool,Local Park,Bucklin,Providence,Municipal,,,Municipal,1,1,1,0,1,2,0,0,0,0,0,0,0,0,0,0,0,0,1,1,0,0,0,N,N,-71.428647,41.805194,Bucklin St. Park / McCrane Pool is a Local Park located in Providence,,
386,386,Squantum Woods Grove,Local Park,Veterans Memorial,East Providence,Municipal,,,Municipal,0,0,0,0,0,0,0,0,0,0,0,0,0,1,0,0,1,0,0,0,0,0,0,N,N,-71.369868,41.79452,Squantum Woods Grove is a Local Park located in East Providence,,
387,387,JT Owens Park,Local Park,Niantic,Providence,State,,,RI DEM,1,3,0,0,0,0,2,0,0,0,0,0,0,1,1,0,0,0,0,1,0,0,0,N,Y,-71.436846,41.793388,JT Owens Park is a Local Park located in Providence,,
392,392,Fay Memorial Field,Local Park,Dallas,Cranston,State,,,RI DEM,0,3,0,0,0,0,0,0,0,0,0,0,0,0,0,0,0,0,0,1,0,0,0,N,N,-71.400307,41.770825,Fay Memorial Field is a Local Park located in Cranston,,
393,393,Meshanticut Park,State Park,Lakeview,Cranston,State,,,RI DEM,0,0,0,0,0,0,0,0,0,0,0,0,0,1,0,0,0,0,0,0,0,0,0,N,N,-71.476043,41.768705,Meshanticut Park is a State Park located in Cranston,,
397,397,Walker Farm,Fishing / Boating,Wampanoag,Barrington,Municipal,,,Municipal,0,0,0,0,0,0,0,0,0,0,0,0,0,1,1,0,0,0,0,1,0,0,0,N,Y,-71.321676,41.753035,Walker Farm is a Fishing / Boating located in Barrington,,
400,400,Adams Playground,Local Park,Adams,Warwick,Municipal,,,Municipal,1,0,0,0,0,1,0,0,0,0,0,0,0,0,0,0,0,0,0,1,0,1,0,N,Y,-71.397801,41.75852,Adams Playground is a Local Park located in Warwick,,
404,404,Haines Park,State Park,Haines Park,Barrington,State,,,RI DEM,0,3,1,0,1,0,0,0,0,0,0,0,0,1,1,0,0,0,0,1,0,0,0,N,Y,-71.346137,41.752324,Haines Park is a State Park located in Barrington,,
405,405,Salter Grove,Local Park,Narragansett,Warwick,State,,,RI DEM,1,0,0,0,0,0,0,0,0,0,0,0,0,1,1,0,0,0,0,1,0,0,0,N,N,-71.383462,41.752861,Salter Grove is a Local Park located in Warwick,,
407,407,Hampdem Meadows Greenbelt,Conservation Area,Lafayette,Barrington,Municipal,,,Municipal,0,0,0,0,0,0,0,0,0,0,0,0,0,0,0,0,1,0,0,0,0,0,0,Y,N,-71.299988,41.748182,Hampdem Meadows Greenbelt is a Conservation Area located in Barrington,,
416,416,Woody Lowden Recreation Center,Athletic Facility,Howard Hill,Foster,Municipal,,,Municipal,1,1,1,0,1,0,0,0,0,0,0,0,0,0,0,0,0,0,0,1,0,1,0,Y,N,-71.718447,41.732505,Woody Lowden Recreation Center is a Athletic Facility located in Foster,,
425,425,Barrington Town Beach,Local Park,Bay,Barrington,Municipal,,,Municipal,0,0,0,0,0,0,0,0,0,0,0,0,0,0,0,0,0,1,0,0,1,0,0,Y,N,-71.310193,41.722868,Barrington Town Beach is a Local Park located in Barrington,,
426,426,Warren Town Beach,Local Park,Water,Warren,Municipal,,,Municipal,1,0,0,0,0,0,0,0,0,0,0,0,0,0,0,0,0,1,0,0,0,0,0,N,N,-71.284957,41.722958,Warren Town Beach is a Local Park located in Warren,,
429,429,Conimicut Pt. Beach,Local Park,Point,Warwick,Municipal,,,Municipal,0,0,0,0,0,0,0,0,0,0,0,0,0,0,0,0,0,1,0,0,1,0,0,Y,Y,-71.359739,41.716653,Conimicut Pt. Beach is a Local Park located in Warwick,,
438,438,Nicholas Farm,Management Area,Plainfield Pike,Coventry,State,,,RI DEM,0,0,0,0,0,0,0,0,0,0,0,0,0,1,0,1,1,0,0,0,0,0,0,N,N,-71.772735,41.693422,Nicholas Farm is a Management Area located in Coventry,,
441,441,Gorton's Pond Beach,Local Park,Veterans Memorial,Warwick,Municipal,,,Municipal,1,0,0,0,0,0,0,0,0,0,0,0,0,1,0,0,0,1,0,0,0,0,0,Y,Y,-71.454803,41.703251,Gorton's Pond Beach is a Local Park located in Warwick,,
451,451,Bristol Junior-Senior High Sch.,School,Chestnut,Bristol,School,,,School,0,1,2,1,2,0,6,0,1,0,0,0,0,0,0,0,0,0,0,1,0,0,0,N,N,-71.271656,41.688008,Bristol Junior-Senior High Sch. is a School located in Bristol,,
457,457,Colt State Park,State Park,Asylum,Bristol,State,,,RI DEM,0,0,0,0,4,0,0,0,0,0,0,0,0,1,1,0,0,0,0,1,1,1,0,N,N,-71.297466,41.677091,Colt State Park is a State Park located in Bristol,,
461,461,Big River Reservoir,Management Area,Burnt Sawmill,West Greenwich,State,,,RI DEM,0,0,0,0,0,0,0,0,0,0,0,0,0,0,0,1,1,0,0,1,0,0,0,N,N,-71.603853,41.634724,Big River Reservoir is a Management Area located in West Greenwich,,
464,464,Goddard Park,State Park,Ives,Warwick,State,,,RI DEM,0,0,0,0,0,0,0,0,0,0,0,0,1,1,1,0,1,0,0,1,1,1,0,N,Y,-71.437224,41.659248,Goddard Park is a State Park located in Warwick,,
467,467,North Prudence Island,Management Area,Neck Farm,Portsmouth,State,,,RI DEM,0,0,0,0,0,0,0,0,0,0,0,0,0,0,0,1,1,0,0,0,0,0,0,N,N,-71.343163,41.655907,North Prudence Island is a Management Area located in Portsmouth,,
469,469,Patience Island,Management Area,Neck Farm,Portsmouth,State,,,RI DEM,0,0,0,0,0,0,0,0,0,0,0,0,0,0,0,1,1,0,0,0,0,0,0,N,N,-71.360034,41.655659,Patience Island is a Management Area located in Portsmouth,,
473,473,East Greenwich Town Boat Launch,Local Park,Crompton,East Greenwich,Municipal,,,Municipal,0,0,0,0,0,0,0,0,0,0,0,0,0,1,1,0,0,0,0,1,0,0,0,Y,Y,-71.448945,41.656709,East Greenwich Town Boat Launch is a Local Park located in East Greenwich,,
477,477,Boyds Marsh,Management Area,Bay View,Portsmouth,State,,,RI DEM,0,0,0,0,0,0,0,0,0,0,0,0,0,0,0,0,0,0,0,0,0,0,0,N,N,-71.243644,41.635719,Boyds Marsh is a Management Area located in Portsmouth,,
484,484,Teddy's Beach,Local Park,Point,Portsmouth,Municipal,,,Municipal,0,0,0,0,0,0,0,0,0,0,0,0,0,1,1,0,0,1,0,1,0,0,0,N,N,-71.219832,41.625416,Teddy's Beach is a Local Park located in Portsmouth,,
489,489,Portsmouth High School,School,Memorial,Portsmouth,School,,,School,0,4,2,1,4,3,8,0,1,0,0,0,0,0,0,0,0,0,0,1,0,0,0,N,N,-71.251017,41.610826,Portsmouth High School is a School located in Portsmouth,,
490,490,Lehigh Hill Grove,State Park,Main,Portsmouth,State,,,RI DEM,0,0,0,0,0,0,0,0,0,0,0,0,0,0,0,0,0,0,0,0,0,0,0,N,N,-71.260299,41.611387,Lehigh Hill Grove is a State Park located in Portsmouth,,
495,495,Black Regiment Memorial Park,State Park,Musselbed Shoal,Portsmouth,State,,,RI DEM,0,0,0,0,0,0,0,0,0,0,0,0,0,0,0,0,0,0,0,0,0,0,0,N,N,-71.255141,41.633578,Black Regiment Memorial Park is a State Park located in Portsmouth,,
496,496,Devil's Foot Rock,Conservation Area,Post,North Kingstown,State,,,RI DEM,0,0,0,0,0,0,0,0,0,0,0,0,0,0,0,0,0,0,0,0,0,0,0,N,N,-71.456466,41.602625,Devil's Foot Rock is a Conservation Area located in North Kingstown,,
497,497,South Prudence Island,Management Area,Bunker,Portsmouth,State,,,RI DEM,0,0,0,0,0,0,0,0,0,0,0,0,0,0,0,1,1,0,0,0,0,0,0,N,Y,-71.323576,41.587923,South Prudence Island is a Management Area located in Portsmouth,,
500,500,Queen's Fort Historic Site,State Park,Lantern,Exeter,State,,,RI DEM,0,0,0,0,0,0,0,0,0,0,0,0,0,0,0,0,0,0,0,0,0,0,0,N,N,-71.522012,41.590329,Queen's Fort Historic Site is a State Park located in Exeter,,
501,501,Cocumscussoc Park,Conservation Area,Post Road,North Kingstown,State,,,RI DEM,0,0,0,0,0,0,0,0,0,0,0,0,0,0,0,1,1,0,0,0,0,0,0,N,Y,-71.473153,41.58142,Cocumscussoc Park is a Conservation Area located in North Kingstown,,
502,502,Seapowet Marsh,Fishing / Boating,Seapowet,Tiverton,State,,,RI DEM,0,0,0,0,0,0,0,0,0,0,0,0,0,1,1,0,0,0,0,1,0,0,0,N,N,-71.209411,41.582185,Seapowet Marsh is a Fishing / Boating located in Tiverton,,
504,504,Beach Pond State Park,Fishing / Boating,Ten Rod,Exeter,State,,,RI DEM,0,0,0,0,0,0,0,0,0,0,0,0,0,1,0,1,1,0,0,0,0,0,0,N,Y,-71.786376,41.574058,Beach Pond State Park is a Fishing / Boating located in Exeter,,
505,505,North Kingstown Town Boat Launch,Local Park,Flat Fish,North Kingstown,Municipal,,,Municipal,0,0,0,0,0,0,0,0,0,0,0,0,0,1,1,0,0,0,0,1,0,0,0,N,N,-71.4528,41.577877,North Kingstown Town Boat Launch is a Local Park located in North Kingstown,,
509,509,North Kingstown Town Beach,Local Park,Beach,North Kingstown,Municipal,,,Municipal,1,0,0,0,0,0,0,0,0,0,0,0,0,0,0,0,0,1,0,0,1,0,0,N,N,-71.443978,41.566693,North Kingstown Town Beach is a Local Park located in North Kingstown,,
510,510,Fogland Beach,Local Park,Three Rod,Tiverton,Municipal,,,Municipal,0,0,0,0,0,0,0,0,0,0,0,0,0,1,1,0,0,1,0,1,1,0,0,N,N,-71.21317,41.556254,Fogland Beach is a Local Park located in Tiverton,,
512,512,North Kingstown High School,School,Fairway,North Kingstown,School,,,School,0,2,3,1,3,0,6,0,1,0,0,0,0,0,0,0,0,0,0,1,0,0,0,N,N,-71.446609,41.557092,North Kingstown High School is a School located in North Kingstown,,
513,513,Arcadia Management Area,Management Area,Ten Rod,Exeter,State,,,RI DEM,0,0,0,0,0,0,0,0,0,0,0,0,0,0,0,1,1,0,0,2,0,0,0,N,N,-71.724199,41.580835,Arcadia Management Area is a Management Area located in Exeter,,
515,515,Sandy Point Beach,Local Park,Sandy Point,Portsmouth,Municipal,,,Municipal,0,0,0,0,0,0,0,0,0,0,0,0,0,0,0,0,0,1,0,0,1,0,0,Y,Y,-71.236275,41.553326,Sandy Point Beach is a Local Park located in Portsmouth,,
516,516,John H Chafee Rome Point Preserve,State Park,Boston Neck Road,North Kingstown,State,,,RI DEM,0,0,0,0,0,0,0,0,0,0,0,0,0,1,0,0,1,0,0,0,0,0,0,N,N,-71.431251,41.540186,John H Chafee Rome Point Preserve is a State Park located in North Kingstown,,
517,517,May C. Donovan Marsh,Conservation Area,Francis,Little Compton,State,,,RI DEM,0,0,0,0,0,0,0,0,0,0,0,0,0,0,0,0,0,0,0,0,0,0,0,N,N,-71.20302,41.544938,May C. Donovan Marsh is a Conservation Area located in Little Compton,,
520,520,Shady Lea,Conservation Area,Colonel Rodman,North Kingstown,State,,,RI DEM,0,0,0,0,0,0,0,0,0,0,0,0,0,1,1,0,0,0,0,1,0,0,0,N,N,-71.470316,41.540675,Shady Lea is a Conservation Area located in North Kingstown,,
522,522,Silver Spring Lake Fishing Area,Fishing / Boating,Silver Spring,North Kingstown,State,,,RI DEM,0,0,0,0,0,0,0,0,0,0,0,0,0,1,1,0,0,0,0,1,0,0,0,N,N,-71.470075,41.538213,Silver Spring Lake Fishing Area is a Fishing / Boating located in North Kingstown,,
523,523,Jamestown Shores Beach,Local Park,Seaside,Jamestown,Municipal,,,Municipal,0,0,0,0,0,0,0,0,0,0,0,0,0,1,0,0,0,1,0,0,0,0,0,N,N,-71.38578,41.538237,Jamestown Shores Beach is a Local Park located in Jamestown,,
527,527,Rockville Management,Management Area,Canonchet,Hopkinton,State,,,RI DEM,0,0,0,0,0,0,0,0,0,0,0,0,0,1,0,1,1,0,0,0,0,0,0,N,N,-71.757047,41.505938,Rockville Management is a Management Area located in Hopkinton,,
535,535,Van Zandt Pier,Local Park,Van Zandt,Newport,Municipal,,,Municipal,0,0,0,0,0,0,0,0,0,0,0,0,0,1,0,0,0,0,0,0,0,0,0,Y,N,-71.322508,41.498414,Van Zandt Pier is a Local Park located in Newport,,
540,540,Hannah Robinson Tower,State Park,Bridgetown,South Kingstown,State,,,RI DEM,0,0,0,0,0,0,0,0,0,0,0,0,0,0,0,0,0,0,0,0,0,0,0,N,N,-71.455886,41.495048,Hannah Robinson Tower is a State Park located in South Kingstown,,
541,541,Little Compton Town Beach,Local Park,Shore,Little Compton,Municipal,,,Municipal,0,0,0,0,0,0,0,0,0,0,0,0,0,0,0,0,0,1,0,0,0,0,0,N,N,-71.137782,41.493858,Little Compton Town Beach is a Local Park located in Little Compton,,
546,546,Carolina Management  Area,Management Area,Meadowbrook,Richmond,State,,,RI DEM,0,0,0,0,0,0,0,0,0,0,0,0,0,0,0,1,1,0,0,1,0,0,0,N,N,-71.688523,41.469084,Carolina Management  Area is a Management Area located in Richmond,,
547,547,Second Beach,Local Park,Sachuest Point,Middletown,Municipal,,,Municipal,0,0,0,0,0,0,0,0,0,0,0,0,0,0,0,0,0,1,0,0,1,0,0,N,Y,-71.257453,41.487652,Second Beach is a Local Park located in Middletown,,
548,548,Easton's Beach,Local Park,Memorial,Newport,Municipal,,,Municipal,0,0,0,0,0,0,0,0,0,0,0,0,0,0,0,0,0,1,0,0,0,0,0,Y,Y,-71.291835,41.487953,Easton's Beach is a Local Park located in Newport,,
549,549,Jamestown Town Beach,Local Park,Beavertail,Jamestown,Municipal,,,Municipal,0,0,0,0,0,0,0,0,0,0,0,0,0,0,0,0,0,1,0,0,0,0,0,N,N,-71.384106,41.488918,Jamestown Town Beach is a Local Park located in Jamestown,,
550,550,Purgatory Chasm,State Park,Tuckerman,Middletown,State,,,RI DEM,0,0,0,0,0,0,0,0,0,0,0,0,0,0,0,0,0,0,0,0,0,0,0,N,N,-71.268419,41.486814,Purgatory Chasm is a State Park located in Middletown,,
552,552,Great Swamp Management Area,Management Area,Great Neck,South Kingstown,State,,,RI DEM,0,0,0,0,0,0,0,0,0,0,0,0,0,0,0,1,1,0,0,0,0,0,0,N,N,-71.578053,41.464671,Great Swamp Management Area is a Management Area located in South Kingstown,,
553,553,Cliff Walk,Local Park,Narragansett,Newport,Municipal,,,Municipal,0,0,0,0,0,0,0,0,0,0,0,0,0,0,0,0,0,0,0,0,0,1,0,N,Y,-71.297308,41.475895,Cliff Walk is a Local Park located in Newport,,
554,554,Fort Adams State Park,State Park,Fort Adams,Newport,State,,,RI DEM,0,0,3,0,3,0,0,0,0,0,0,0,0,1,1,0,0,0,0,1,1,1,0,N,Y,-71.338285,41.475328,Fort Adams State Park is a State Park located in Newport,,
555,555,Fort Wetherill,State Park,Fort Wetherill,Jamestown,State,,,RI DEM,0,0,0,0,0,0,0,0,0,0,0,0,0,1,1,0,0,0,0,1,1,0,0,N,Y,-71.365277,41.480219,Fort Wetherill is a State Park located in Jamestown,,
557,557,Rogers High School,School,Wickham,Newport,School,,,School,0,0,1,0,0,0,6,0,1,0,0,0,0,0,0,0,0,0,0,1,0,0,0,N,N,-71.32054,41.46978,Rogers High School is a School located in Newport,,
560,560,Beavertail State Park,State Park,Beavertail,Jamestown,State,,,RI DEM,0,0,0,0,0,0,0,0,0,0,0,0,0,1,0,0,0,0,0,0,1,0,0,N,Y,-71.397029,41.456776,Beavertail State Park is a State Park located in Jamestown,,
561,561,Brenton Point Park,State Park,Atlantic,Newport,State,,,RI DEM,0,0,0,0,1,0,0,0,0,0,0,0,0,1,0,0,0,0,0,0,1,0,0,N,Y,-71.354434,41.451964,Brenton Point Park is a State Park located in Newport,,
562,562,Kings Beach,Fishing / Boating,Price's Neck,Newport,State,,,RI DEM,0,0,0,0,0,0,0,0,0,0,0,0,0,1,0,0,0,1,0,0,0,0,0,N,Y,-71.342353,41.45436,Kings Beach is a Fishing / Boating located in Newport,,
563,563,Frank Fagan Park,Local Park,Dam,South Kingstown,Municipal,,,Municipal,1,0,0,0,0,1,0,0,0,0,0,0,0,0,0,0,0,0,0,1,0,1,0,Y,Y,-71.506856,41.453247,Frank Fagan Park is a Local Park located in South Kingstown,,
564,564,Chariho High School,School,Switch,Richmond,School,,,School,0,4,2,1,2,0,4,0,1,0,0,0,0,0,0,0,0,0,0,1,0,0,0,N,N,-71.697339,41.450793,Chariho High School is a School located in Richmond,,
569,569,East Greenwich High School,Athletic Facility,Avenger,East Greenwich,Municipal,,,Municipal,1,3,4,2,4,0,6,0,1,1,0,0,0,0,0,0,0,0,0,1,0,0,0,N,Y,-71.483664,41.637105,East Greenwich High School is a Athletic Facility located in East Greenwich,,
570,570,World War II Park,Local Park,School,Woonsocket,Municipal,,,Municipal,1,0,0,0,0,0,4,0,0,0,0,0,0,0,0,0,0,0,0,1,1,0,0,N,Y,-71.509527,42.010035,World War II Park is a Local Park located in Woonsocket,,
571,571,Dunn Park,Local Park,Mason,Woonsocket,Municipal,,,Municipal,1,1,1,0,1,2,3,0,0,0,0,1,0,0,0,0,0,0,0,1,0,1,0,N,Y,-71.530589,41.997742,Dunn Park is a Local Park located in Woonsocket,,
574,574,Canonchet Farm,Conservation Area,Anne Hoxsie,Narragansett,Municipal,,,Municipal,0,0,0,0,0,0,0,0,0,0,0,0,0,0,0,0,1,0,0,0,1,0,0,N,Y,-71.460917,41.439648,Canonchet Farm is a Conservation Area located in Narragansett,,
576,576,Meadow Brook Pond,Fishing / Boating,Church,Richmond,State,,,RI DEM,0,0,0,0,0,0,0,0,0,0,0,0,0,1,0,0,1,0,0,1,0,0,0,N,N,-71.690172,41.438401,Meadow Brook Pond is a Fishing / Boating located in Richmond,,
577,577,Narragansett Town Beach,Local Park,Beach,Narragansett,Municipal,,,Municipal,0,0,0,0,0,0,0,0,0,0,0,0,0,0,0,0,0,1,0,0,1,0,0,N,N,-71.455254,41.435606,Narragansett Town Beach is a Local Park located in Narragansett,,
580,580,Marina Park,Local Park,Salt Pond,South Kingstown,Municipal,,,Municipal,0,0,0,0,1,0,0,0,0,0,0,0,0,1,0,0,0,0,0,0,1,1,0,Y,N,-71.497271,41.428043,Marina Park is a Local Park located in South Kingstown,,
581,581,Narragansett High School,School,Pier,Narragansett,School,,,School,0,2,3,1,3,0,0,0,1,0,0,0,0,0,0,0,0,0,0,1,0,0,0,N,N,-71.470566,41.429777,Narragansett High School is a School located in Narragansett,,
585,585,Scarborough State Beach,State Park,Ocean,Narragansett,State,,,RI DEM,0,0,0,0,0,0,0,0,0,0,0,0,0,0,0,0,0,1,0,0,1,0,0,N,Y,-71.472679,41.389702,Scarborough State Beach is a State Park located in Narragansett,,
586,586,Woody Hill Area,Management Area,Woody Hillension,Westerly,State,,,RI DEM,0,0,0,0,0,0,0,0,0,0,0,0,0,0,0,1,1,0,0,1,0,0,0,N,N,-71.745806,41.377377,Woody Hill Area is a Management Area located in Westerly,,
587,587,Newton Swamp,Management Area,Westerly-Bradford,Westerly,State,,,RI DEM,0,0,0,0,0,0,0,0,0,0,0,0,0,0,0,1,1,0,0,0,0,0,0,N,N,-71.775346,41.381553,Newton Swamp is a Management Area located in Westerly,,
591,591,Fort Ninigret,State Park,Fort Ninigret,Charlestown,State,,,RI DEM,0,0,0,0,0,0,0,0,0,0,0,0,0,0,0,0,0,0,0,0,0,0,0,N,N,-71.647867,41.381112,Fort Ninigret is a State Park located in Charlestown,,
592,592,Burlingame Management Area,Management Area,Unnamed,Charlestown,State,,,RI DEM,0,0,0,0,0,0,0,0,0,0,0,0,0,0,0,1,1,0,0,0,0,0,0,N,N,-71.707536,41.404769,Burlingame Management Area is a Management Area located in Charlestown,,
595,595,Babcock Hall,Local Park,Ward,Westerly,School,,,School,0,1,0,1,1,0,0,0,1,0,0,0,0,0,0,0,0,0,0,1,0,0,0,N,N,-71.820431,41.376328,Babcock Hall is a Local Park located in Westerly,,
596,596,East Matunuck State Beach,State Park,Succotash,South Kingstown,State,,,RI DEM,0,0,0,0,0,0,0,0,0,0,0,0,0,0,0,0,0,1,0,0,1,0,0,N,Y,-71.52599,41.377811,East Matunuck State Beach is a State Park located in South Kingstown,,
597,597,Roger Wheeler State Beach,State Park,Sand Hill Cove,Narragansett,State,,,RI DEM,1,0,0,0,0,0,0,0,0,0,0,0,0,0,0,0,0,1,0,0,1,0,0,N,Y,-71.499466,41.373315,Roger Wheeler State Beach is a State Park located in Narragansett,,
600,600,Camp Cronin,Fishing / Boating,Ocean,Narragansett,State,,,RI DEM,0,0,0,0,0,0,0,0,0,0,0,0,0,1,0,0,0,0,0,0,0,0,0,N,Y,-71.485847,41.362218,Camp Cronin is a Fishing / Boating located in Narragansett,,
601,601,Charlestown Town Beach,Local Park,Brown Hill,Charlestown,Municipal,,,Municipal,0,0,0,0,0,0,0,0,0,0,0,0,0,0,0,0,0,1,0,0,1,0,0,N,N,-71.625667,41.361211,Charlestown Town Beach is a Local Park located in Charlestown,,
602,602,Charlestown Breachway Campground,State Park,Charlestown Beach,Charlestown,State,,,RI DEM,0,0,0,0,0,0,0,0,0,0,0,0,0,1,1,0,0,0,0,1,1,0,0,N,Y,-71.638085,41.358216,Charlestown Breachway Campground is a State Park located in Charlestown,,
604,604,Ninigret Conservation Area,Conservation Area,Beach,Charlestown,State,,,RI DEM,0,0,0,0,0,0,0,0,0,0,0,0,0,1,0,1,0,1,0,0,0,0,0,N,Y,-71.675443,41.348071,Ninigret Conservation Area is a Conservation Area located in Charlestown,,
605,605,Quonochontaug Fishing Area,Fishing / Boating,Beach,Charlestown,State,,,RI DEM,0,0,0,0,0,0,0,0,0,0,0,0,0,1,1,0,0,0,0,1,0,0,0,N,N,-71.722246,41.336573,Quonochontaug Fishing Area is a Fishing / Boating located in Charlestown,,
606,606,Misquamicut State Beach,State Park,Atlantic,Westerly,State,,,RI DEM,1,0,0,0,0,0,0,0,0,0,0,0,0,0,0,0,0,1,0,0,1,0,0,N,N,-71.803578,41.323164,Misquamicut State Beach is a State Park located in Westerly,,
607,607,Westerly Town Beach,Local Park,Atlantic,Westerly,Municipal,,,Municipal,0,0,0,0,0,0,0,0,0,0,0,0,0,0,0,0,0,1,0,0,1,0,0,Y,N,-71.790545,41.325007,Westerly Town Beach is a Local Park located in Westerly,,
609,609,Settler's Rock,Local Park,Corn Neck,New Shoreham,Municipal,,,Municipal,0,0,0,0,0,0,0,0,0,0,0,0,0,1,0,0,0,0,0,0,0,0,0,N,N,-71.567455,41.2246,Settler's Rock is a Local Park located in New Shoreham,,
611,611,Clay Head,Conservation Area,Clayhead,New Shoreham,Non-Governmental Org,,,,0,0,0,0,0,0,0,0,0,0,0,0,0,0,0,0,1,0,0,0,0,0,0,N,Y,-71.562078,41.208542,Clay Head is a Conservation Area located in New Shoreham,,
614,614,Rodman's Hollow,Conservation Area,Black Rock,New Shoreham,State,,,RI DEM,0,0,0,0,0,0,0,0,0,0,0,0,0,0,0,0,1,0,0,0,0,0,0,N,Y,-71.59079,41.152571,Rodman's Hollow is a Conservation Area located in New Shoreham,,
616,616,Chepiwanoxet,Local Park,John Wickes,Warwick,Municipal,,,Municipal,0,0,0,0,0,0,0,0,0,0,0,0,0,1,0,0,1,0,0,0,0,0,0,N,N,-71.4421,41.673582,Chepiwanoxet is a Local Park located in Warwick,,
617,617,Lincoln Park,Local Park,Kentucky,Warwick,Municipal,,,Municipal,1,0,0,0,0,0,0,0,0,0,0,0,0,0,0,0,0,0,0,0,0,1,0,N,N,-71.436914,41.73703,Lincoln Park is a Local Park located in Warwick,,
621,621,Merrill S. Whipple Conservation,Management Area,Sandy Bottom,Coventry,State,,,RI DEM,0,0,0,0,0,0,0,0,0,0,0,0,0,1,0,1,1,0,0,0,0,0,0,N,N,-71.556304,41.688168,Merrill S. Whipple Conservation is a Management Area located in Coventry,,
624,624,East Bay Bike Path,State Park,Franklin,Warren,State,,,RI DEM,0,0,0,0,0,0,0,0,0,0,0,0,0,0,0,0,0,0,0,1,0,1,1,N,N,-71.28067,41.725813,East Bay Bike Path is a State Park located in Warren,,
627,627,Buttonhole Golf Course,Local Park,King Philip,Johnston,State,,,RI DEM,0,0,0,0,0,0,0,0,0,0,0,0,1,0,0,0,0,0,0,1,1,0,0,N,Y,-71.46351,41.825323,Buttonhole Golf Course is a Local Park located in Johnston,,
628,628,Waterplace Park,Local Park,Finance,Providence,Municipal,,,Municipal,0,0,0,0,0,0,0,0,0,0,0,0,0,0,0,0,0,0,0,0,0,1,0,N,N,-71.41397,41.827199,Waterplace Park is a Local Park located in Providence,,
635,635,St. Andrew's Farm,Athletic Facility,Middle,Barrington,Municipal,,,Municipal,0,0,1,0,1,0,0,0,0,0,0,0,0,0,0,0,0,0,0,1,0,1,0,Y,N,-71.331377,41.748697,St. Andrew's Farm is a Athletic Facility located in Barrington,,
636,636,Salty Brine State Beach,State Park,Sand Hill Cove,Narragansett,State,,,RI DEM,0,0,0,0,0,0,0,0,0,0,0,0,0,0,0,0,0,1,0,0,1,0,0,N,Y,-71.512802,41.375436,Salty Brine State Beach is a State Park located in Narragansett,,
640,640,Barrington High School,School,Lincoln,Barrington,School,,,School,0,3,3,1,4,0,0,0,1,0,0,0,0,0,0,0,0,0,0,1,0,0,0,N,N,-71.320014,41.747694,Barrington High School is a School located in Barrington,,
641,641,Coventry High School,School,Club House,Coventry,School,,,School,0,1,1,1,2,0,6,0,1,0,0,0,0,0,0,0,0,0,0,1,0,0,0,N,N,-71.594567,41.684571,Coventry High School is a School located in Coventry,,
642,642,Cranston High School West,School,Phoenix,Cranston,School,,,School,0,1,1,1,1,0,6,0,1,0,0,0,0,0,0,0,0,0,0,1,0,0,0,Y,N,-71.478998,41.773368,Cranston High School West is a School located in Cranston,,
644,644,Tucker Field,Athletic Facility,Mendon,Cumberland,Municipal,,,Municipal,0,2,1,1,2,0,4,0,1,0,0,0,0,0,0,0,0,0,0,1,0,0,0,Y,N,-71.443601,41.963694,Tucker Field is a Athletic Facility located in Cumberland,,
646,646,East Providence High School,School,Pawtucket,East Providence,School,,,School,0,3,6,1,6,0,4,0,1,0,0,0,0,0,0,0,0,0,0,1,0,0,0,N,N,-71.352663,41.819228,East Providence High School is a School located in East Providence,,
648,648,Ponagansett School,School,Anan Wade,Glocester,School,,,School,0,2,2,1,2,0,4,0,1,0,0,0,0,0,0,0,0,0,0,1,0,0,0,Y,Y,-71.714499,41.867309,Ponagansett School is a School located in Glocester,,
650,650,Lincoln Junior / Senior High,School,Old River,Lincoln,School,,,School,0,2,2,1,2,0,8,0,1,0,0,0,0,0,0,0,0,0,0,1,0,0,0,N,N,-71.451391,41.937735,Lincoln Junior / Senior High is a School located in Lincoln,,
655,655,Notte Memorial Park,Local Park,Douglas,North Providence,Municipal,,,Municipal,0,1,0,0,0,0,2,0,0,0,0,0,0,1,0,0,0,0,0,1,0,0,0,Y,Y,-71.46276,41.871503,Notte Memorial Park is a Local Park located in North Providence,,
657,657,North Smithfield High School,School,Greenville,North Smithfield,School,,,School,0,2,1,1,1,2,4,0,1,0,0,0,0,0,0,0,0,0,0,1,0,0,0,N,Y,-71.544471,41.951657,North Smithfield High School is a School located in North Smithfield,,
658,658,Hope High School,School,Brown,Providence,School,,,School,1,2,1,1,2,1,8,0,1,0,0,0,0,0,0,0,0,0,0,1,0,0,0,Y,N,-71.403795,41.834295,Hope High School is a School located in Providence,,
660,660,Smithfield High School,School,Rosewood,Smithfield,School,,,School,0,2,1,1,1,0,4,0,1,0,0,0,0,0,0,0,0,0,0,1,0,0,0,N,N,-71.544006,41.879808,Smithfield High School is a School located in Smithfield,,
664,664,Gorton School,School,Draper,Warwick,School,,,School,0,0,2,0,2,0,2,0,0,0,0,0,0,0,0,0,0,0,0,1,0,1,0,N,N,-71.377782,41.70619,Gorton School is a School located in Warwick,,
666,666,Father Tirocchi Playground,Local Park,Pontiac,Warwick,Municipal,,,Municipal,1,1,0,0,0,2,0,0,0,0,0,0,0,0,0,0,0,0,0,1,0,1,1,N,Y,-71.48526,41.723669,Father Tirocchi Playground is a Local Park located in Warwick,,
667,667,Pilgrim High School,School,Pilgrim,Warwick,School,,,School,0,1,2,1,2,0,0,0,1,0,0,0,0,0,0,0,0,0,0,1,0,0,0,N,N,-71.409104,41.746083,Pilgrim High School is a School located in Warwick,,
669,669,West Warwick School Complex,School,Webster Knight,West Warwick,School,,,School,0,1,3,1,3,0,3,0,1,0,0,0,0,0,0,0,0,0,0,1,0,0,0,N,N,-71.515731,41.708819,West Warwick School Complex is a School located in West Warwick,,
670,670,Cold Spring Park,Local Park,Katherine,Woonsocket,Municipal,,,Municipal,1,2,0,0,0,1,2,0,0,0,0,0,0,1,1,0,0,0,0,1,0,0,0,Y,Y,-71.525199,42.009141,Cold Spring Park is a Local Park located in Woonsocket,,
672,672,Exeter / West Greenwich Soccer,Athletic Facility,Victory,West Greenwich,Municipal,,,Municipal,0,0,7,0,1,0,0,0,0,0,0,0,0,0,0,0,1,0,0,1,0,0,0,N,N,-71.68619,41.6393,Exeter / West Greenwich Soccer is a Athletic Facility located in West Greenwich,,
673,673,Exeter / West Greenwich Jr-Sr High,School,Nooseneck Hill,West Greenwich,School,,,School,0,2,2,1,3,0,4,0,1,0,0,0,0,0,0,0,0,0,0,1,0,0,0,Y,N,-71.637134,41.605827,Exeter / West Greenwich Jr-Sr High is a School located in West Greenwich,,
675,675,Broad Rock Middle School,School,Broad Rock,South Kingstown,School,,,School,0,0,2,0,2,0,6,0,0,0,0,0,0,0,0,0,0,0,0,1,0,1,0,N,N,-71.484544,41.455342,Broad Rock Middle School is a School located in South Kingstown,,
679,679,Burrillville Middle School,School,Broncos,Burrillville,School,,,School,1,2,1,0,1,2,2,0,1,0,0,0,0,0,0,0,0,0,0,1,0,0,0,Y,N,-71.623386,41.980544,Burrillville Middle School is a School located in Burrillville,,
688,688,Mt. Hope Farm,Local Park,Metacom,Bristol,Municipal,,,Municipal,0,0,0,0,0,0,0,0,0,0,0,0,0,0,0,0,1,0,0,0,0,0,0,N,N,-71.254936,41.667625,Mt. Hope Farm is a Local Park located in Bristol,,
689,689,Waypoyset Preserve / Bristol Narrows,Conservation Area,Narrows,Bristol,Non-Governmental Org,,,,0,0,0,0,0,0,0,0,0,0,0,0,0,1,1,0,1,0,0,1,0,0,0,N,N,-71.246395,41.697129,Waypoyset Preserve / Bristol Narrows is a Conservation Area located in Bristol,,
691,691,Blue Beach,Local Park,Quonset,North Kingstown,Municipal,,,Municipal,0,0,0,0,0,0,0,0,0,0,0,0,0,1,0,0,0,1,0,0,0,0,0,N,N,-71.415686,41.586811,Blue Beach is a Local Park located in North Kingstown,,
692,692,Killingly Pond,Management Area,Cook Estate,Glocester,State,,,RI DEM,0,0,0,0,0,0,0,0,0,0,0,0,0,0,0,1,1,0,0,0,0,0,0,N,N,-71.780548,41.86516,Killingly Pond is a Management Area located in Glocester,,
701,701,Mccoy Stadium Annex,Athletic Facility,Division,Pawtucket,Municipal,,,Municipal,0,0,1,1,1,0,0,0,1,0,0,0,0,0,0,0,0,0,0,1,1,0,0,Y,Y,-71.368438,41.87415,Mccoy Stadium Annex is a Athletic Facility located in Pawtucket,,
702,702,Town Landing,Local Park,Taft,Pawtucket,Municipal,,,Municipal,0,0,0,0,0,0,0,0,0,0,0,0,0,1,1,0,0,0,0,1,0,0,0,Y,N,-71.384035,41.871768,Town Landing is a Local Park located in Pawtucket,,
705,705,Thunder Mist Overlook,Local Park,River,Woonsocket,Municipal,,,Municipal,0,0,0,0,0,0,0,0,0,0,0,0,0,1,0,0,0,0,0,0,0,0,0,N,N,-71.517583,42.000012,Thunder Mist Overlook is a Local Park located in Woonsocket,,
706,706,Blackstone River Park,Local Park,High,Central Falls,Municipal,,,Municipal,0,0,1,0,1,0,1,0,0,0,0,0,0,0,0,0,0,0,0,0,1,1,0,Y,N,-71.386793,41.898635,Blackstone River Park is a Local Park located in Central Falls,,
709,709,Curtis Corner Playfields,Athletic Facility,Curtis Corner,South Kingstown,Municipal,,,Municipal,1,2,1,0,2,0,0,0,1,0,0,0,0,0,0,0,0,0,0,1,0,1,1,Y,N,-71.521948,41.463874,Curtis Corner Playfields is a Athletic Facility located in South Kingstown,,
716,716,Union Pond Fishing Access,Fishing / Boating,Reservoir,Burrillville,State,,,RI DEM,0,0,0,0,0,0,0,0,0,0,0,0,0,1,1,0,0,0,0,1,1,0,0,N,N,-71.703954,41.951807,Union Pond Fishing Access is a Fishing / Boating located in Burrillville,,
717,717,Spring Lake Beach,Local Park,Hillside,Burrillville,Municipal,,,Municipal,0,0,0,0,0,0,0,0,0,0,0,0,0,0,0,0,0,1,0,0,1,0,0,Y,N,-71.657436,41.986826,Spring Lake Beach is a Local Park located in Burrillville,,
718,718,Slatersville Pond Fishing Access,Fishing / Boating,Victory Highway,North Smithfield,State,,,RI DEM,0,0,0,0,0,0,0,0,0,0,0,0,0,0,1,0,0,0,0,0,0,0,0,N,N,-71.600883,41.987087,Slatersville Pond Fishing Access is a Fishing / Boating located in North Smithfield,,
720,720,Manville Memorial Park,Local Park,High,Lincoln,Municipal,,,Municipal,1,2,0,0,1,1,0,0,0,0,0,0,0,1,0,0,0,0,0,1,0,1,0,N,N,-71.47804,41.965877,Manville Memorial Park is a Local Park located in Lincoln,,
721,721,Great Road Gateway,Local Park,Front,Lincoln,Municipal,,,Municipal,0,0,0,0,0,0,0,0,0,0,0,0,0,0,0,0,0,0,0,0,0,1,0,N,N,-71.419502,41.903537,Great Road Gateway is a Local Park located in Lincoln,,
722,722,Tasca Field,Athletic Facility,Washington Highway,Scituate,Municipal,,,Municipal,0,0,4,0,1,0,0,0,0,0,0,0,0,0,0,0,0,0,0,1,0,1,0,Y,N,-71.571273,41.836305,Tasca Field is a Athletic Facility located in Scituate,,
729,729,Jamestown Town Pier,Local Park,Conanicus,Jamestown,Municipal,,,Municipal,0,0,0,0,0,0,0,0,0,0,0,0,0,1,0,0,0,0,0,0,0,0,0,N,Y,-71.366792,41.496434,Jamestown Town Pier is a Local Park located in Jamestown,,
731,731,Potter Cove Access,Fishing / Boating,Bayview,Jamestown,Municipal,,,Municipal,0,0,0,0,0,0,0,0,0,0,0,0,0,1,0,0,0,0,0,0,0,0,0,N,N,-71.359749,41.510201,Potter Cove Access is a Fishing / Boating located in Jamestown,,
735,735,Rocky Point Park,Local Park,Rocky Point,Warwick,State,,,RI DEM,0,0,0,0,0,0,0,0,0,0,0,0,0,1,0,0,1,0,0,0,1,1,0,N,N,-71.366789,41.688344,Rocky Point Park is a Local Park located in Warwick,,
748,748,Rose Larisa Memorial Park,Local Park,Bullocks Point,East Providence,Municipal,,,Municipal,0,0,0,0,0,0,0,0,0,0,0,0,0,1,0,0,0,0,0,0,0,1,0,N,Y,-71.360932,41.756741,Rose Larisa Memorial Park is a Local Park located in East Providence,,
750,750,Riverside Square Park,Local Park,Bullocks Point,East Providence,Municipal,,,Municipal,0,0,0,0,0,0,0,0,0,0,0,0,0,0,0,0,0,0,0,0,0,1,1,N,N,-71.362021,41.771786,Riverside Square Park is a Local Park located in East Providence,,
752,752,Rovensky Park,Local Park,Bellevue,Newport,Municipal,,,Municipal,0,0,0,0,0,0,0,0,0,0,0,0,0,0,0,0,0,0,0,0,0,1,0,N,N,-71.30728,41.460061,Rovensky Park is a Local Park located in Newport,,
754,754,South County Bike Path,Local Park,Ministerial,South Kingstown,Municipal,,,Municipal,0,0,0,0,0,0,0,0,0,0,0,0,0,0,0,0,0,0,0,1,0,1,1,N,N,-71.554322,41.474304,South County Bike Path is a Local Park located in South Kingstown,,
756,756,Allen Harbor,Local Park,Alllen,North Kingstown,Municipal,,,Municipal,0,0,0,0,0,0,0,0,0,0,0,0,0,1,1,0,0,0,0,1,0,0,0,N,N,-71.411861,41.620384,Allen Harbor is a Local Park located in North Kingstown,,
758,758,Town Dock Park,Local Park,Brown,North Kingstown,Municipal,,,Municipal,0,0,0,0,0,0,0,0,0,0,0,0,0,1,0,0,0,0,0,0,1,0,0,N,N,-71.451216,41.570169,Town Dock Park is a Local Park located in North Kingstown,,
761,761,Mystic Woods,Conservation Area,South,East Greenwich,Municipal,,,Municipal,0,0,0,0,0,0,0,0,0,0,0,0,0,0,0,0,0,0,0,0,0,0,0,N,N,-71.528934,41.607042,Mystic Woods is a Conservation Area located in East Greenwich,,
764,764,Weetamo Woods,Local Park,Lake,Tiverton,Municipal,,,Municipal,0,0,0,0,0,0,0,0,0,0,0,0,0,0,0,0,1,0,0,0,0,0,0,N,N,-71.163022,41.587203,Weetamo Woods is a Local Park located in Tiverton,,
765,765,Grinnells Beach,Local Park,Main,Tiverton,Municipal,,,Municipal,0,0,0,0,0,0,0,0,0,0,0,0,0,0,0,0,0,1,0,0,1,0,0,Y,N,-71.213713,41.62505,Grinnells Beach is a Local Park located in Tiverton,,
770,770,Blue Shutters Beach,Local Park,Beach,Charlestown,Municipal,,,Municipal,0,0,0,0,0,0,0,0,0,0,0,0,0,0,0,0,0,1,0,0,1,0,0,N,N,-71.694925,41.341662,Blue Shutters Beach is a Local Park located in Charlestown,,
771,771,Fish Hill Ball Fields,Athletic Facility,Fish Hill,Coventry,State,,,RI DEM,0,2,3,0,1,0,0,0,0,0,0,0,0,0,0,0,0,0,0,1,1,0,0,N,N,-71.625332,41.665882,Fish Hill Ball Fields is a Athletic Facility located in Coventry,,
773,773,North Glen Boat Launch,Local Park,North Glen,Coventry,Municipal,,,Municipal,0,0,0,0,0,0,0,0,0,0,0,0,0,1,1,0,0,0,0,1,0,0,0,N,N,-71.548344,41.670119,North Glen Boat Launch is a Local Park located in Coventry,,
774,774,Hope Pond Recreation Area & Beach,Local Park,Ryefield,Scituate,Municipal,,,Municipal,0,0,0,0,1,0,1,0,0,0,0,0,0,1,0,0,0,1,0,1,0,0,0,N,N,-71.565549,41.735306,Hope Pond Recreation Area & Beach is a Local Park located in Scituate,,
778,778,Chariho Athletic Association,Local Park,Nooseneck Hill,Hopkinton,State,,,RI DEM,0,3,0,0,0,0,0,0,0,0,0,0,0,1,1,0,0,0,0,1,1,0,0,N,N,-71.70586,41.513082,Chariho Athletic Association is a Local Park located in Hopkinton,,
779,779,Big River / Nooseneck Hill Road Fishing Access,Fishing / Boating,Nooseneck Hill,West Greenwich,State,,,RI DEM,0,0,0,0,0,0,0,0,0,0,0,0,0,1,0,1,1,0,0,0,0,0,0,N,N,-71.613731,41.644436,Big River / Nooseneck Hill Road Fishing Access is a Fishing / Boating located in West Greenwich,,
780,780,Nannaquaket Bridge,Fishing / Boating,Main,Tiverton,Municipal,,,Municipal,0,0,0,0,0,0,0,0,0,0,0,0,0,1,0,0,0,0,0,1,0,0,0,N,N,-71.207597,41.617481,Nannaquaket Bridge is a Fishing / Boating located in Tiverton,,
783,783,Round Top,Management Area,Round Top,Burrillville,State,,,RI DEM,0,0,0,0,0,0,0,0,0,0,0,0,0,1,0,1,1,0,0,1,0,0,0,N,N,-71.699347,42.00394,Round Top is a Management Area located in Burrillville,,
785,785,Blue Pond,Fishing / Boating,Canonchet,Hopkinton,State,,,RI DEM,0,0,0,0,0,0,0,0,0,0,0,0,0,1,0,0,1,0,0,0,0,0,0,N,N,-71.752874,41.50234,Blue Pond is a Fishing / Boating located in Hopkinton,,
786,786,Long Pond,Fishing / Boating,North,Hopkinton,Non-Governmental Org,,,,0,0,0,0,0,0,0,0,0,0,0,0,0,1,0,0,1,0,0,1,0,0,0,N,N,-71.779158,41.508668,Long Pond is a Fishing / Boating located in Hopkinton,,
788,788,Carr Pond,Fishing / Boating,Hopkins Hill,West Greenwich,State,,,RI DEM,0,0,0,0,0,0,0,0,0,0,0,0,0,1,0,0,1,0,0,1,1,0,0,N,N,-71.571107,41.631134,Carr Pond is a Fishing / Boating located in West Greenwich,,
791,791,State Pier # 4,Fishing / Boating,Succotash,Narragansett,State,,,RI DEM,0,0,0,0,0,0,0,0,0,0,0,0,0,1,0,0,0,0,0,1,0,0,0,N,N,-71.514997,41.378828,State Pier # 4 is a Fishing / Boating located in Narragansett,,
794,794,Peck Pond / Pulaski Park,State Park,Unnamed,Burrillville,State,,,RI DEM,0,0,0,0,0,0,0,0,0,0,0,0,0,1,0,0,1,1,0,1,1,0,0,N,Y,-71.796807,41.932786,Peck Pond / Pulaski Park is a State Park located in Burrillville,,
797,797,Olney Pond Fishing Access,Fishing / Boating,Stump Hill,Lincoln,State,,,RI DEM,0,0,0,0,0,0,0,0,0,0,0,0,0,1,0,0,0,0,0,1,0,0,0,N,N,-71.426597,41.894694,Olney Pond Fishing Access is a Fishing / Boating located in Lincoln,,
798,798,Bucks Horn Brook,Fishing / Boating,Lewis Farm,Coventry,State,,,RI DEM,0,0,0,0,0,0,0,0,0,0,0,0,0,1,0,0,0,0,0,1,0,0,0,N,N,-71.75683,41.695362,Bucks Horn Brook is a Fishing / Boating located in Coventry,,
800,800,Deep Pond,Fishing / Boating,Deep Pond,Exeter,State,,,RI DEM,0,0,0,0,0,0,0,0,0,0,0,0,0,1,0,0,0,0,0,1,0,0,0,N,N,-71.717771,41.561757,Deep Pond is a Fishing / Boating located in Exeter,,
801,801,Falls River - Austin Farm,Fishing / Boating,Plain,Exeter,State,,,RI DEM,0,0,0,0,0,0,0,0,0,0,0,0,0,1,0,0,1,0,0,1,0,0,0,N,N,-71.745796,41.598336,Falls River - Austin Farm is a Fishing / Boating located in Exeter,,
802,802,Lower Fall River,Fishing / Boating,Midway Rail,Exeter,State,,,RI DEM,0,0,0,0,0,0,0,0,0,0,0,0,0,1,0,0,1,0,0,1,0,0,0,N,N,-71.720783,41.580259,Lower Fall River is a Fishing / Boating located in Exeter,,
803,803,Simon Jordan Fishing Access,Fishing / Boating,Brookie,Exeter,State,,,RI DEM,0,0,0,0,0,0,0,0,0,0,0,0,0,1,0,0,1,0,0,1,0,0,0,N,N,-71.731013,41.587382,Simon Jordan Fishing Access is a Fishing / Boating located in Exeter,,
804,804,Upper Flat River,Fishing / Boating,Plain,Exeter,State,,,RI DEM,0,0,0,0,0,0,0,0,0,0,0,0,0,1,0,0,1,0,0,1,0,0,0,N,N,-71.720311,41.595625,Upper Flat River is a Fishing / Boating located in Exeter,,
805,805,Lower Flat River,Fishing / Boating,Arcadia Man Area,Exeter,State,,,RI DEM,0,0,0,0,0,0,0,0,0,0,0,0,0,1,0,0,1,0,0,1,0,0,0,N,N,-71.718994,41.579508,Lower Flat River is a Fishing / Boating located in Exeter,,
806,806,Frosty Hollow Pond,Fishing / Boating,Camp E-hun-tee,Exeter,State,,,RI DEM,0,0,0,0,0,0,0,0,0,0,0,0,0,1,0,0,1,0,0,1,0,0,0,N,N,-71.709033,41.587687,Frosty Hollow Pond is a Fishing / Boating located in Exeter,,
807,807,Paris Brook,Fishing / Boating,Mount Tom,Exeter,State,,,RI DEM,0,0,0,0,0,0,0,0,0,0,0,0,0,1,0,0,1,0,0,1,0,0,0,N,N,-71.72914,41.564669,Paris Brook is a Fishing / Boating located in Exeter,,
808,808,Step Stone Falls,Fishing / Boating,Falls River,West Greenwich,State,,,RI DEM,0,0,0,0,0,0,0,0,0,0,0,0,0,1,0,0,1,0,0,1,0,0,0,N,N,-71.76063,41.61255,Step Stone Falls is a Fishing / Boating located in West Greenwich,,
809,809,Ponagansett,Fishing / Boating,Pine Tree,Foster,State,,,RI DEM,0,0,0,0,0,0,0,0,0,0,0,0,0,1,0,0,0,0,0,1,0,0,0,N,N,-71.743199,41.845366,Ponagansett is a Fishing / Boating located in Foster,,
810,810,Mechanic St,Fishing / Boating,Mechanic,Hopkinton,State,,,RI DEM,0,0,0,0,0,0,0,0,0,0,0,0,0,1,0,0,0,0,0,1,0,0,0,N,N,-71.716734,41.503187,Mechanic St is a Fishing / Boating located in Hopkinton,,
811,811,Simmons Mill Pond,Management Area,Colebrook,Little Compton,State,,,RI DEM,0,0,0,0,0,0,0,0,0,0,0,0,0,1,0,1,1,0,0,1,0,0,0,N,N,-71.154378,41.539705,Simmons Mill Pond is a Management Area located in Little Compton,,
812,812,Carolina Trout Pond,Fishing / Boating,Coondog,Richmond,State,,,RI DEM,0,0,0,0,0,0,0,0,0,0,0,0,0,1,0,0,1,0,0,1,0,0,0,N,N,-71.701844,41.485767,Carolina Trout Pond is a Fishing / Boating located in Richmond,,
813,813,Meadow Brook At Carolina,Fishing / Boating,Pine Hill,Richmond,State,,,RI DEM,0,0,0,0,0,0,0,0,0,0,0,0,0,1,0,0,0,0,0,1,0,0,0,N,N,-71.6902,41.466357,Meadow Brook At Carolina is a Fishing / Boating located in Richmond,,
814,814,Deep Hole,Fishing / Boating,Matunuck Beach,South Kingstown,State,,,RI DEM,0,0,0,0,0,0,0,0,0,0,0,0,0,1,0,0,0,0,0,1,0,0,0,N,N,-71.538333,41.373502,Deep Hole is a Fishing / Boating located in South Kingstown,,
816,816,Weekapaug Breachway,Fishing / Boating,Wawaloam,Westerly,State,,,RI DEM,0,0,0,0,0,0,0,0,0,0,0,0,0,1,0,0,0,0,0,1,0,0,0,N,N,-71.763492,41.330429,Weekapaug Breachway is a Fishing / Boating located in Westerly,,
817,817,East Beach,Fishing / Boating,Beach,Charlestown,State,,,RI DEM,0,0,0,0,0,0,0,0,0,0,0,0,0,1,0,0,0,1,0,1,1,0,0,N,Y,-71.690076,41.344485,East Beach is a Fishing / Boating located in Charlestown,,
818,818,Black Point,Fishing / Boating,Ocean,Narragansett,State,,,RI DEM,0,0,0,0,0,0,0,0,0,0,0,0,0,1,0,0,1,0,0,1,0,0,0,N,N,-71.464501,41.400036,Black Point is a Fishing / Boating located in Narragansett,,
819,819,Adamsville Brook,Conservation Area,Crandall,Tiverton,Utility,,,,0,0,0,0,0,0,0,0,0,0,0,0,0,1,0,0,0,0,0,1,0,0,0,N,N,-71.13353,41.562312,Adamsville Brook is a Conservation Area located in Tiverton,,
826,826,Old Harbor Breakwater,Fishing / Boating,Water,New Shoreham,State,,,RI DEM,0,0,0,0,0,0,0,0,0,0,0,0,0,1,0,0,0,0,0,1,0,0,0,N,N,-71.554625,41.174157,Old Harbor Breakwater is a Fishing / Boating located in New Shoreham,,
827,827,East Beach,Local Park,Beach,New Shoreham,Municipal,,,Municipal,0,0,0,0,0,0,0,0,0,0,0,0,0,1,0,0,0,1,0,1,1,0,0,N,N,-71.566676,41.182544,East Beach is a Local Park located in New Shoreham,,
828,828,Mohegan Bluffs / South East Light Stairway,State Park,Spring,New Shoreham,State,,,RI DEM,0,0,0,0,0,0,0,0,0,0,0,0,0,1,0,0,0,0,0,1,0,0,0,N,Y,-71.555077,41.152419,Mohegan Bluffs / South East Light Stairway is a State Park located in New Shoreham,,
829,829,Burlingame Reservoir,Fishing / Boating,Elbow Rock,Glocester,State,,,RI DEM,0,0,0,0,0,0,0,0,0,0,0,0,0,1,0,0,0,0,0,1,0,0,0,N,Y,-71.742533,41.914481,Burlingame Reservoir is a Fishing / Boating located in Glocester,,
830,830,Eight Rod Farm,Management Area,Eight Rod,Tiverton,State,,,RI DEM,0,0,0,0,0,0,0,0,0,0,0,0,0,1,0,1,1,0,0,1,0,0,0,N,N,-71.171292,41.558958,Eight Rod Farm is a Management Area located in Tiverton,,
832,832,Annawanscutt Fishing & Boating Access,Fishing / Boating,Viking,Bristol,State,,,RI DEM,0,0,0,0,0,0,0,0,0,0,0,0,0,1,1,0,0,0,0,1,1,0,0,N,N,-71.242412,41.687582,Annawanscutt Fishing & Boating Access is a Fishing / Boating located in Bristol,,
833,833,Barberville Fishing And Boating Access,Fishing / Boating,Arcadia,Hopkinton,Non-Governmental Org,,,,0,0,0,0,0,0,0,0,0,0,0,0,0,1,1,0,0,0,0,1,1,0,0,N,N,-71.696316,41.540901,Barberville Fishing And Boating Access is a Fishing / Boating located in Hopkinton,,
834,834,Gaspee Point,Fishing / Boating,Bay Shore,Warwick,State,,,RI DEM,0,0,0,0,0,0,0,0,0,0,0,0,0,1,1,0,0,0,0,1,0,0,0,N,N,-71.383061,41.748606,Gaspee Point is a Fishing / Boating located in Warwick,,
835,835,Locustville Pond,Fishing / Boating,Unnamed,Hopkinton,State,,,RI DEM,0,0,0,0,0,0,0,0,0,0,0,0,0,1,1,0,0,0,0,1,0,0,0,N,N,-71.717153,41.515677,Locustville Pond is a Fishing / Boating located in Hopkinton,,
836,836,Longmeadow Fishing And Boating Access,Fishing / Boating,Dorr,Warwick,Municipal,,,Municipal,0,0,0,0,0,0,0,0,0,0,0,0,0,1,1,0,0,0,0,1,0,0,0,N,N,-71.364691,41.704419,Longmeadow Fishing And Boating Access is a Fishing / Boating located in Warwick,,
837,837,Stump Pond,Fishing / Boating,Log,Smithfield,State,,,RI DEM,0,0,0,0,0,0,0,0,0,0,0,0,0,1,1,0,0,0,0,1,0,0,0,N,N,-71.546361,41.900902,Stump Pond is a Fishing / Boating located in Smithfield,,
838,838,Gull Cove Fishing & Boating Access,Fishing / Boating,State 138,Portsmouth,State,,,RI DEM,0,0,0,0,0,0,0,0,0,0,0,0,0,1,1,0,0,0,0,1,0,0,0,N,N,-71.230813,41.63385,Gull Cove Fishing & Boating Access is a Fishing / Boating located in Portsmouth,,
839,839,Festival Pier,Fishing / Boating,Tim Healey,Pawtucket,Municipal,,,Municipal,0,0,0,0,0,0,0,0,0,0,0,0,0,1,1,0,0,0,0,1,0,0,0,Y,N,-71.379854,41.868938,Festival Pier is a Fishing / Boating located in Pawtucket,,
840,840,Zeke's Bridge,Fishing / Boating,Harkney Hill,Coventry,State,,,RI DEM,0,0,0,0,0,0,0,0,0,0,0,0,0,1,1,0,0,0,0,1,0,0,0,N,N,-71.618878,41.665228,Zeke's Bridge is a Fishing / Boating located in Coventry,,
842,842,Clarkville Pond,Fishing / Boating,Shepard,Glocester,State,,,RI DEM,0,0,0,0,0,0,0,0,0,0,0,0,0,1,1,0,1,0,0,1,0,0,0,N,Y,-71.7878,41.924522,Clarkville Pond is a Fishing / Boating located in Glocester,,
843,843,Pascoag Reservoir Fishing Access,Fishing / Boating,Brandy Brook,Glocester,State,,,RI DEM,0,0,0,0,0,0,0,0,0,0,0,0,0,1,1,0,0,0,0,1,0,0,0,N,N,-71.71816,41.927233,Pascoag Reservoir Fishing Access is a Fishing / Boating located in Glocester,,
844,844,Lake Washington,Fishing / Boating,Lake Washington,Glocester,State,,,RI DEM,0,0,0,0,0,0,0,0,0,0,0,0,0,1,1,0,0,0,0,1,0,0,0,N,N,-71.758357,41.917302,Lake Washington is a Fishing / Boating located in Glocester,,
845,845,Moscow Pond,Fishing / Boating,Woody Hill,Hopkinton,State,,,RI DEM,0,0,0,0,0,0,0,0,0,0,0,0,0,1,1,0,0,0,0,1,0,0,0,N,N,-71.741826,41.523295,Moscow Pond is a Fishing / Boating located in Hopkinton,,
846,846,Olney Pond,Fishing / Boating,Les Pawson Loop,Lincoln,State,,,RI DEM,0,0,0,0,0,0,0,0,0,0,0,0,0,1,1,0,0,0,0,1,0,0,0,N,Y,-71.427737,41.88948,Olney Pond is a Fishing / Boating located in Lincoln,,
847,847,Carbuncle Pond,Fishing / Boating,Plainfield Pike,Coventry,State,,,RI DEM,0,0,0,0,0,0,0,0,0,0,0,0,0,1,1,0,0,1,0,1,0,0,0,N,N,-71.770045,41.697442,Carbuncle Pond is a Fishing / Boating located in Coventry,,
848,848,JL Curran,State Park,Seven Mile,Cranston,State,,,RI DEM,0,0,0,0,0,0,0,0,0,0,0,0,0,1,1,1,1,0,0,1,0,0,0,N,N,-71.551199,41.750729,JL Curran is a State Park located in Cranston,,
849,849,Alton Pond Landing,Fishing / Boating,Alton Bradford,Hopkinton,State,,,RI DEM,0,0,0,0,0,0,0,0,0,0,0,0,0,1,1,0,0,0,0,1,0,0,0,N,N,-71.722437,41.438109,Alton Pond Landing is a Fishing / Boating located in Hopkinton,,
850,850,Ashville Pond,Fishing / Boating,Canonchet,Hopkinton,State,,,RI DEM,0,0,0,0,0,0,0,0,0,0,0,0,0,1,1,0,0,0,0,1,0,0,0,N,N,-71.751404,41.499298,Ashville Pond is a Fishing / Boating located in Hopkinton,,
851,851,Tefft River Access,Fishing / Boating,Mechanic,Hopkinton,State,,,RI DEM,0,0,0,0,0,0,0,0,0,0,0,0,0,1,1,0,0,0,0,1,0,0,0,N,N,-71.71664,41.498423,Tefft River Access is a Fishing / Boating located in Hopkinton,,
852,852,Beaver River Fishing Access,Fishing / Boating,Kingstown,Richmond,State,,,RI DEM,0,0,0,0,0,0,0,0,0,0,0,0,0,1,0,0,0,0,0,1,0,0,0,N,N,-71.628268,41.49234,Beaver River Fishing Access is a Fishing / Boating located in Richmond,,
853,853,Richmond Landing,Fishing / Boating,Church,Richmond,State,,,RI DEM,0,0,0,0,0,0,0,0,0,0,0,0,0,1,1,0,0,0,0,1,0,0,0,N,N,-71.681354,41.445251,Richmond Landing is a Fishing / Boating located in Richmond,,
854,854,Asa Pond,Local Park,Galway,South Kingstown,Municipal,,,Municipal,0,0,0,0,0,0,0,0,0,0,0,0,0,1,1,0,0,0,0,1,0,0,0,N,Y,-71.515232,41.457903,Asa Pond is a Local Park located in South Kingstown,,
855,855,Barber Pond,Fishing / Boating,Barber's Pond,South Kingstown,State,,,RI DEM,0,0,0,0,0,0,0,0,0,0,0,0,0,1,1,0,0,0,0,1,0,0,0,N,N,-71.564402,41.499138,Barber Pond is a Fishing / Boating located in South Kingstown,,
856,856,Narrow River,Fishing / Boating,Pollock,South Kingstown,State,,,RI DEM,0,0,0,0,0,0,0,0,0,0,0,0,0,1,1,0,0,0,0,1,0,0,0,N,N,-71.450199,41.466995,Narrow River is a Fishing / Boating located in South Kingstown,,
857,857,Potowomut Pond,Fishing / Boating,Potowomut,Warwick,State,,,RI DEM,0,0,0,0,0,0,0,0,0,0,0,0,0,1,1,0,0,0,0,1,0,0,0,N,N,-71.453793,41.630947,Potowomut Pond is a Fishing / Boating located in Warwick,,
858,858,Chapman Pond,Fishing / Boating,Town Landfill,Westerly,Municipal,,,Municipal,0,0,0,0,0,0,0,0,0,0,0,0,0,1,1,0,0,0,0,1,1,0,0,N,N,-71.800366,41.381821,Chapman Pond is a Fishing / Boating located in Westerly,,
859,859,White Rock,Fishing / Boating,State 78,Westerly,Municipal,,,Municipal,0,0,0,0,0,0,0,0,0,0,0,0,0,1,1,0,0,0,0,1,0,0,0,N,N,-71.841044,41.394513,White Rock is a Fishing / Boating located in Westerly,,
860,860,Breakhart Pond,Fishing / Boating,Austin Farm,Exeter,State,,,RI DEM,0,0,0,0,0,0,0,0,0,0,0,0,0,1,1,0,1,0,0,1,0,0,0,N,N,-71.703776,41.595722,Breakhart Pond is a Fishing / Boating located in Exeter,,
861,861,Bradford Landing,Fishing / Boating,Main,Westerly,State,,,RI DEM,0,0,0,0,0,0,0,0,0,0,0,0,0,1,1,0,0,0,0,1,0,0,0,N,N,-71.748283,41.406297,Bradford Landing is a Fishing / Boating located in Westerly,,
862,862,Pleasant St Boat Launch,Fishing / Boating,Pleasant,North Kingstown,Municipal,,,Municipal,0,0,0,0,0,0,0,0,0,0,0,0,0,1,1,0,0,0,0,1,0,0,0,N,N,-71.447792,41.576842,Pleasant St Boat Launch is a Fishing / Boating located in North Kingstown,,
865,865,South Ferry Rd,Local Park,Ferry,Narragansett,Municipal,,,Municipal,0,0,0,0,0,0,0,0,0,0,0,0,0,1,1,0,0,1,0,1,0,0,0,N,N,-71.42051,41.492559,South Ferry Rd is a Local Park located in Narragansett,,
866,866,Brickyard Pond,Fishing / Boating,Legion,Barrington,Municipal,,,Municipal,0,0,0,0,0,0,0,0,0,0,0,0,0,1,1,0,0,0,0,1,0,0,0,N,N,-71.325263,41.735358,Brickyard Pond is a Fishing / Boating located in Barrington,,
869,869,Tarkiln Pond,Fishing / Boating,Mowry,Burrillville,Municipal,,,Municipal,0,0,0,0,0,0,0,0,0,0,0,0,0,1,1,0,0,0,0,1,0,0,0,N,N,-71.59771,41.965025,Tarkiln Pond is a Fishing / Boating located in Burrillville,,
870,870,Wallum Lake,Fishing / Boating,Shore,Burrillville,State,,,RI DEM,0,0,0,0,0,0,0,0,0,0,0,0,0,1,1,0,0,0,0,1,0,0,0,N,N,-71.761792,42.000801,Wallum Lake is a Fishing / Boating located in Burrillville,,
871,871,Spring Lake,Fishing / Boating,Black Hut,Burrillville,State,,,RI DEM,0,0,0,0,0,0,0,0,0,0,0,0,0,1,1,0,0,0,0,1,0,0,0,N,N,-71.665116,41.978992,Spring Lake is a Fishing / Boating located in Burrillville,,
872,872,Wakefield Pond,Fishing / Boating,Lee,Burrillville,State,,,RI DEM,0,0,0,0,0,0,0,0,0,0,0,0,0,1,1,0,0,0,0,1,0,0,0,N,N,-71.788525,41.966212,Wakefield Pond is a Fishing / Boating located in Burrillville,,
873,873,Wilson Reservoir,Fishing / Boating,Wallum Lake,Burrillville,State,,,RI DEM,0,0,0,0,0,0,0,0,0,0,0,0,0,1,1,0,0,0,0,1,0,0,0,N,N,-71.723298,41.970002,Wilson Reservoir is a Fishing / Boating located in Burrillville,,
874,874,Barton C. Hurley Landing,Fishing / Boating,Sanctuary,Charlestown,State,,,RI DEM,0,0,0,0,0,0,0,0,0,0,0,0,0,1,1,0,0,0,0,1,0,0,0,N,Y,-71.679795,41.378575,Barton C. Hurley Landing is a Fishing / Boating located in Charlestown,,
875,875,Roaring Brook Pond,Fishing / Boating,Teft Hill,Exeter,State,,,RI DEM,0,0,0,0,0,0,0,0,0,0,0,0,0,1,1,0,0,0,0,1,0,0,0,N,N,-71.680504,41.560422,Roaring Brook Pond is a Fishing / Boating located in Exeter,,
876,876,Wood River @ Route 165,Fishing / Boating,Ten Rod,Exeter,State,,,RI DEM,0,0,0,0,0,0,0,0,0,0,0,0,0,1,1,1,0,0,0,1,1,0,0,N,N,-71.721066,41.572958,Wood River @ Route 165 is a Fishing / Boating located in Exeter,,
877,877,Keech Pond,Fishing / Boating,Indian,Glocester,State,,,RI DEM,0,0,0,0,0,0,0,0,0,0,0,0,0,1,1,0,0,0,0,1,0,0,0,N,N,-71.690726,41.875632,Keech Pond is a Fishing / Boating located in Glocester,,
878,878,Smith & Sayles Reservoir,Fishing / Boating,Point,Glocester,State,,,RI DEM,0,0,0,0,0,0,0,0,0,0,0,0,0,1,1,0,0,0,0,1,0,0,0,N,N,-71.677695,41.896927,Smith & Sayles Reservoir is a Fishing / Boating located in Glocester,,
879,879,Switch Rd Canoe Access,Fishing / Boating,Hope Valley,Hopkinton,Municipal,,,Municipal,0,0,0,0,0,0,0,0,0,0,0,0,0,1,1,0,0,0,0,1,0,0,0,N,N,-71.715897,41.493468,Switch Rd Canoe Access is a Fishing / Boating located in Hopkinton,,
880,880,Sakonnet Point,Fishing / Boating,Sakonnet Point,Little Compton,State,,,RI DEM,0,0,0,0,0,0,0,0,0,0,0,0,0,1,1,0,0,0,0,1,0,0,0,N,N,-71.193132,41.463383,Sakonnet Point is a Fishing / Boating located in Little Compton,,
881,881,Galilee Boat Ramp,Fishing / Boating,Great Island,Narragansett,State,,,RI DEM,0,0,0,0,0,0,0,0,0,0,0,0,0,1,1,0,0,0,0,1,0,0,0,N,N,-71.507484,41.383199,Galilee Boat Ramp is a Fishing / Boating located in Narragansett,,
882,882,Narrow River Canoe Access,Fishing / Boating,Boston Neck Road,Narragansett,Federal,FEE,FED,,0,0,0,0,0,0,0,0,0,0,0,0,0,1,1,0,0,0,0,1,0,0,0,N,N,-71.449815,41.44941,Narrow River Canoe Access is a Fishing / Boating located in Narragansett,,
883,883,Pettaquamscutt Pond,Fishing / Boating,Gilbert Stuart,North Kingstown,Municipal,,,Municipal,0,0,0,0,0,0,0,0,0,0,0,0,0,1,1,0,0,0,0,1,0,0,0,N,N,-71.444583,41.51961,Pettaquamscutt Pond is a Fishing / Boating located in North Kingstown,,
884,884,Wyoming Dam,Fishing / Boating,Bridge,Richmond,State,,,RI DEM,0,0,0,0,0,0,0,0,0,0,0,0,0,1,1,0,0,0,0,1,0,0,0,N,N,-71.702832,41.515653,Wyoming Dam is a Fishing / Boating located in Richmond,,
885,885,Indian Lake Boat Ramp,Fishing / Boating,Indian,South Kingstown,Municipal,,,Municipal,0,0,0,0,0,0,0,0,0,0,0,0,0,1,1,0,0,0,0,1,0,0,0,N,N,-71.469534,41.474108,Indian Lake Boat Ramp is a Fishing / Boating located in South Kingstown,,
886,886,Biscuit City,Fishing / Boating,Biscuit City,Richmond,State,,,RI DEM,0,0,0,0,0,0,0,0,0,0,0,0,0,1,1,0,0,0,0,1,0,0,0,N,N,-71.615799,41.450823,Biscuit City is a Fishing / Boating located in Richmond,,
887,887,Taylors Landing,Fishing / Boating,Kingstown,South Kingstown,State,,,RI DEM,0,0,0,0,0,0,0,0,0,0,0,0,0,1,1,0,0,0,0,1,0,0,0,N,N,-71.551269,41.482549,Taylors Landing is a Fishing / Boating located in South Kingstown,,
888,888,Tucker Pond,Fishing / Boating,Tuckertown,South Kingstown,State,,,RI DEM,0,0,0,0,0,0,0,0,0,0,0,0,0,1,1,0,0,0,0,1,0,0,0,N,N,-71.549085,41.426088,Tucker Pond is a Fishing / Boating located in South Kingstown,,
889,889,Worden Pond Boat Launch,Fishing / Boating,Worden's Pond,South Kingstown,State,,,RI DEM,0,0,0,0,0,0,0,0,0,0,0,0,0,1,1,0,0,0,0,1,0,0,0,N,N,-71.567816,41.429521,Worden Pond Boat Launch is a Fishing / Boating located in South Kingstown,,
890,890,Stafford Pond,Fishing / Boating,Old Stafford Rd,Tiverton,State,,,RI DEM,0,0,0,0,0,0,0,0,0,0,0,0,0,1,1,0,0,0,0,1,0,0,0,N,N,-71.148775,41.633614,Stafford Pond is a Fishing / Boating located in Tiverton,,
891,891,Main Street Boat Ramp,Fishing / Boating,Main,Westerly,State,,,RI DEM,0,0,0,0,0,0,0,0,0,0,0,0,0,1,1,0,0,0,0,1,0,0,0,N,N,-71.832141,41.374984,Main Street Boat Ramp is a Fishing / Boating located in Westerly,,
892,892,Haines Park Boat Ramp,Fishing / Boating,Beach Point,East Providence,State,,,RI DEM,0,0,0,0,0,0,0,0,0,0,0,0,0,1,1,0,0,0,0,1,1,0,0,N,Y,-71.35273,41.753795,Haines Park Boat Ramp is a Fishing / Boating located in East Providence,,
893,893,Browning Mill Pond,Fishing / Boating,K And G Ranch,Richmond,State,,,RI DEM,0,0,0,0,0,0,0,0,0,0,0,0,0,1,1,0,0,0,0,1,0,0,0,N,N,-71.685275,41.556027,Browning Mill Pond is a Fishing / Boating located in Richmond,,
894,894,Monahan's Dock Fishing And Boating Access,Fishing / Boating,Ocean,Narragansett,State,,,RI DEM,0,0,0,0,0,0,0,0,0,0,0,0,0,1,1,0,0,0,0,1,0,0,0,N,N,-71.455354,41.422153,Monahan's Dock Fishing And Boating Access is a Fishing / Boating located in Narragansett,,
895,895,Big River @ Burnt Saw Mill Rd,Fishing / Boating,Burnt Sawmill,West Greenwich,State,,,RI DEM,0,0,0,0,0,0,0,0,0,0,0,0,0,1,1,0,0,0,0,1,0,0,0,N,N,-71.607758,41.643268,Big River @ Burnt Saw Mill Rd is a Fishing / Boating located in West Greenwich,,
896,896,Big River@ Weaver Hill Road,Fishing / Boating,Weaver Hill Road,West Greenwich,State,,,RI DEM,0,0,0,0,0,0,0,0,0,0,0,0,0,1,1,0,0,0,0,1,0,0,0,N,N,-71.61435,41.649413,Big River@ Weaver Hill Road is a Fishing / Boating located in West Greenwich,,
897,897,Tarbox Pond,Fishing / Boating,Hopkins Hill,West Greenwich,State,,,RI DEM,0,0,0,0,0,0,0,0,0,0,0,0,0,1,1,0,0,0,0,1,0,0,0,N,N,-71.57355,41.636377,Tarbox Pond is a Fishing / Boating located in West Greenwich,,
898,898,Hopkins Mill Pond,Fishing / Boating,Winsor,Foster,Municipal,,,Municipal,0,0,0,0,0,0,0,0,0,0,0,0,0,1,1,0,0,0,0,1,0,0,0,N,N,-71.70737,41.82413,Hopkins Mill Pond is a Fishing / Boating located in Foster,,
899,899,Wood River Fishing Access @ Chariho Little League,Fishing / Boating,Nooseneck Hill,Hopkinton,Municipal,,,Municipal,0,0,0,0,0,0,0,0,0,0,0,0,0,1,1,0,0,0,0,1,0,0,0,N,N,-71.706463,41.512103,Wood River Fishing Access @ Chariho Little League is a Fishing / Boating located in Hopkinton,,
900,900,Pawtuxet River Fishing Access,Fishing / Boating,Hope Furnace,Scituate,Municipal,,,Municipal,0,0,0,0,0,0,0,0,0,0,0,0,0,1,1,0,0,0,0,1,0,0,0,N,N,-71.565359,41.731086,Pawtuxet River Fishing Access is a Fishing / Boating located in Scituate,,
902,902,Harrisville Pond Fishing Access,Fishing / Boating,Sherman Farm,Burrillville,State,,,RI DEM,0,0,0,0,0,0,0,0,0,0,0,0,0,1,1,0,0,0,0,1,0,0,0,N,N,-71.678794,41.970855,Harrisville Pond Fishing Access is a Fishing / Boating located in Burrillville,,
903,903,Bellville Pond,Fishing / Boating,Oak Hill,North Kingstown,Municipal,,,Municipal,0,0,0,0,0,0,0,0,0,0,0,0,0,1,1,0,1,0,0,1,0,0,0,N,Y,-71.475683,41.560435,Bellville Pond is a Fishing / Boating located in North Kingstown,,
904,904,Weaver Cove,Fishing / Boating,Unnamed,Portsmouth,Municipal,,,Municipal,0,0,0,0,0,0,0,0,0,0,0,0,0,1,1,0,0,0,0,1,0,0,0,Y,N,-71.287929,41.573816,Weaver Cove is a Fishing / Boating located in Portsmouth,,
906,906,State Street Boat Launch,Fishing / Boating,State,Bristol,Municipal,,,Municipal,0,0,0,0,0,0,0,0,0,0,0,0,0,1,1,0,0,0,0,1,0,0,0,N,N,-71.278334,41.670008,State Street Boat Launch is a Fishing / Boating located in Bristol,,
907,907,Town Dock,Fishing / Boating,Water,Warren,Municipal,,,Municipal,0,0,0,0,0,0,0,0,0,0,0,0,0,1,1,0,0,0,0,1,0,0,0,N,N,-71.28568,41.726292,Town Dock is a Fishing / Boating located in Warren,,
910,910,Central Falls Landing,Local Park,Broad,Central Falls,Municipal,,,Municipal,0,0,0,0,0,0,0,0,0,0,0,0,0,1,1,0,0,0,0,1,0,0,0,Y,N,-71.390318,41.89884,Central Falls Landing is a Local Park located in Central Falls,,
911,911,Willet Pond,Fishing / Boating,Willett,East Providence,Municipal,,,Municipal,0,0,0,0,0,0,0,0,0,0,0,0,0,1,1,0,0,0,0,1,0,0,0,N,Y,-71.355935,41.775514,Willet Pond is a Fishing / Boating located in East Providence,,
912,912,Homestead Boat Ramp,Fishing / Boating,Narragansett,Portsmouth,Municipal,,,Municipal,0,0,0,0,0,0,0,0,0,0,0,0,0,1,1,0,0,0,0,1,0,0,0,N,N,-71.305022,41.619805,Homestead Boat Ramp is a Fishing / Boating located in Portsmouth,,
913,913,Charlestown Beach Kayak Launch,Fishing / Boating,Charlestown Beach,Charlestown,Municipal,,,Municipal,0,0,0,0,0,0,0,0,0,0,0,0,0,1,1,0,0,0,0,1,0,0,0,N,N,-71.626689,41.363721,Charlestown Beach Kayak Launch is a Fishing / Boating located in Charlestown,,
914,914,High Banks,Fishing / Boating,Summit,Exeter,State,,,RI DEM,0,0,0,0,0,0,0,0,0,0,0,0,0,1,1,0,0,0,0,1,0,0,0,N,N,-71.715356,41.565288,High Banks is a Fishing / Boating located in Exeter,,
915,915,Simmons Mill Pond,Fishing / Boating,Colebrook,Little Compton,State,,,RI DEM,0,0,0,0,0,0,0,0,0,0,0,0,0,1,1,0,0,0,0,1,0,0,0,N,N,-71.150545,41.543541,Simmons Mill Pond is a Fishing / Boating located in Little Compton,,
916,916,Corliss Landing,Local Park,Water,Providence,Municipal,,,Municipal,0,0,0,0,0,0,0,0,0,0,0,0,0,1,1,0,0,0,0,1,0,0,0,Y,N,-71.405509,41.8215,Corliss Landing is a Local Park located in Providence,,
918,918,Tillinghast Pond,Fishing / Boating,Plain,West Greenwich,State,,,RI DEM,0,0,0,0,0,0,0,0,0,0,0,0,0,1,1,0,0,0,0,1,1,0,0,N,N,-71.75689,41.645099,Tillinghast Pond is a Fishing / Boating located in West Greenwich,,
919,919,High Rocks Gorge,Conservation Area,Harkness,North Smithfield,State,,,RI DEM,0,0,0,0,0,0,0,0,0,0,0,0,0,1,0,1,0,0,0,0,0,0,0,N,N,-71.552728,42.010987,High Rocks Gorge is a Conservation Area located in North Smithfield,,
920,920,Oakland Forest,Conservation Area,Oakland Farm,Portsmouth,Non-Governmental Org,,,,0,0,0,0,0,0,0,0,0,0,0,0,0,0,0,0,1,0,0,0,0,0,0,Y,N,-71.26147,41.555915,Oakland Forest is a Conservation Area located in Portsmouth,,
921,921,Rose Nulman Memorial Park,Local Park,Ocean,Narragansett,State,,,RI DEM,0,0,0,0,0,0,0,0,0,0,0,0,0,1,0,0,0,1,0,0,0,0,0,N,N,-71.480785,41.362051,Rose Nulman Memorial Park is a Local Park located in Narragansett,,
927,927,Briggs/Boesch Farm,Conservation Area,South,East Greenwich,Municipal,,,Municipal,0,0,0,0,0,0,0,0,0,0,0,0,0,0,0,0,1,0,0,0,0,0,0,N,N,-71.506456,41.608263,Briggs/Boesch Farm is a Conservation Area located in East Greenwich,,
929,929,Ten Mile River Greenway,Local Park,Ferris,East Providence,Municipal,,,Municipal,0,0,0,0,0,0,0,0,0,0,0,0,0,0,0,0,0,0,0,0,1,1,1,N,N,-71.345577,41.84781,Ten Mile River Greenway is a Local Park located in East Providence,,
932,932,Paradise Valley ParK,Local Park,Prospect,Middletown,Municipal,,,Municipal,0,0,0,0,0,0,0,0,0,0,0,0,0,0,0,0,0,0,0,0,0,1,0,N,N,-71.269562,41.500759,Paradise Valley ParK is a Local Park located in Middletown,,
939,939,Lee Romano Field,Athletic Facility,Greystone,North Providence,Municipal,,,Municipal,1,1,0,0,0,0,0,0,0,0,0,0,0,1,1,0,0,0,0,1,0,1,0,N,N,-71.492929,41.865644,Lee Romano Field is a Athletic Facility located in North Providence,,
947,947,Hodgson Rotary Park,Local Park,Roosevelt,Pawtucket,Municipal,,,Municipal,0,0,0,0,0,0,0,0,0,0,0,0,0,0,0,0,0,0,0,0,0,0,0,N,N,-71.383024,41.877178,Hodgson Rotary Park is a Local Park located in Pawtucket,,
948,948,Bank of Americal City Center,Local Park,Kennedy Plaza,Providence,Municipal,,,Municipal,0,0,0,0,0,0,0,0,0,0,1,0,0,0,0,0,0,0,0,1,1,0,0,N,N,-71.412885,41.825078,Bank of Americal City Center is a Local Park located in Providence,,
964,964,South Kingstown Dog Park,Local Park,Broad Rock,South Kingstown,Municipal,,,Municipal,0,0,0,0,0,0,0,0,0,0,0,0,0,0,0,0,0,0,0,0,0,0,0,N,N,-71.480899,41.451303,South Kingstown Dog Park is a Local Park located in South Kingstown,,
969,969,Washington Secondary Bikepath,Local Park,Log Bridge,Coventry,State,,,RI DEM,0,0,0,0,0,0,0,0,0,0,0,0,0,0,0,0,0,0,0,1,0,1,1,N,N,-71.699211,41.690819,Washington Secondary Bikepath is a Local Park located in Coventry,,
971,971,Riverside Park,Local Park,Aleppo,Providence,Municipal,,,Municipal,1,0,0,0,0,0,0,0,0,0,0,0,0,1,0,0,0,0,0,0,1,1,1,N,N,-71.448957,41.819753,Riverside Park is a Local Park located in Providence,,
972,972,South County Bike Path,Local Park,Main,South Kingstown,Municipal,,,Municipal,0,0,0,0,0,0,0,0,0,0,0,0,0,0,0,0,0,0,0,0,1,1,1,N,N,-71.498831,41.439366,South County Bike Path is a Local Park located in South Kingstown,,
973,973,South County Bike Path,Local Park,Railroad,South Kingstown,Municipal,,,Municipal,0,0,0,0,0,0,0,0,0,0,0,0,0,0,0,0,0,0,0,0,1,1,1,N,N,-71.562305,41.483037,South County Bike Path is a Local Park located in South Kingstown,,
974,974,Blackstone Bikeway,State Park,John,Lincoln,State,,,RI DEM,0,0,0,0,0,0,0,0,0,0,0,0,0,0,0,0,0,0,0,0,0,1,1,N,N,-71.400897,41.90716,Blackstone Bikeway is a State Park located in Lincoln,,
975,975,Blackstone Bikeway,State Park,Lower River,Lincoln,State,,,RI DEM,0,0,0,0,0,0,0,0,0,0,0,0,0,0,0,0,0,0,0,0,0,1,1,N,N,-71.43433,41.937642,Blackstone Bikeway is a State Park located in Lincoln,,
976,976,Blackstone Bikeway,State Park,Rte 295,Lincoln,State,,,RI DEM,0,0,0,0,0,0,0,0,0,0,0,0,0,0,0,0,0,0,0,0,1,1,1,N,N,-71.444167,41.939541,Blackstone Bikeway is a State Park located in Lincoln,,
977,977,Blackstone Bikeway,State Park,School,Lincoln,State,,,RI DEM,0,0,0,0,0,0,0,0,0,0,0,0,0,0,0,0,0,0,0,0,0,1,1,N,N,-71.452944,41.953101,Blackstone Bikeway is a State Park located in Lincoln,,
978,978,Blackstone Bikeway,State Park,New River,Lincoln,State,,,RI DEM,0,0,0,0,0,0,0,0,0,0,0,0,0,0,0,0,0,0,0,0,0,1,1,N,N,-71.466971,41.96827,Blackstone Bikeway is a State Park located in Lincoln,,
979,979,Blackstone Bikeway,State Park,Davison Ext,Woonsocket,State,,,RI DEM,0,0,0,0,0,0,0,0,0,0,0,0,0,0,0,0,0,0,0,0,1,1,1,N,N,-71.494231,41.996131,Blackstone Bikeway is a State Park located in Woonsocket,,
980,980,Ten Mile River Greenway,Local Park,Slater Memorial Park,Pawtucket,Municipal,,,Municipal,0,0,0,0,0,0,0,0,0,0,0,0,0,0,0,0,0,0,0,0,1,1,1,N,N,-71.343168,41.868313,Ten Mile River Greenway is a Local Park located in Pawtucket,,
981,981,East Bay Bike Path,State Park,Veterans Parkway,East Providence,State,,,RI DEM,0,0,0,0,0,0,0,0,0,0,0,0,0,0,0,0,0,0,0,0,0,1,1,N,N,-71.388393,41.813305,East Bay Bike Path is a State Park located in East Providence,,
982,982,East Bay Bike Path,State Park,Bullocks Point,East Providence,State,,,RI DEM,0,0,0,0,0,0,0,0,0,0,0,0,0,0,0,0,0,0,0,0,0,1,1,N,N,-71.362556,41.772503,East Bay Bike Path is a State Park located in East Providence,,
983,983,East Bay Bike Path,Local Park,Metropolitan Park,Barrington,State,,,RI DEM,0,0,0,0,0,0,0,0,0,0,0,0,0,0,0,0,0,0,0,0,1,1,1,N,N,-71.349008,41.753904,East Bay Bike Path is a Local Park located in Barrington,,
984,984,East Bay Bike Path,State Park,Asylum,Bristol,State,,,RI DEM,0,0,0,0,0,0,0,0,0,0,0,0,0,0,0,0,0,0,0,0,0,1,1,N,N,-71.283955,41.68691,East Bay Bike Path is a State Park located in Bristol,,
985,985,Washington Secondary Bikepath,Local Park,Depot,Cranston,Municipal,,,Municipal,0,0,0,0,0,0,0,0,0,0,0,0,0,0,0,0,0,0,0,0,0,1,1,N,N,-71.44332,41.801425,Washington Secondary Bikepath is a Local Park located in Cranston,,
986,986,Washington Secondary Bikepath,Local Park,Oak,Cranston,Municipal,,,Municipal,0,0,0,0,0,0,0,0,0,0,0,0,0,0,0,0,0,0,0,0,0,1,1,N,N,-71.454052,41.788599,Washington Secondary Bikepath is a Local Park located in Cranston,,
987,987,Washington Secondary Bikepath,Local Park,Sherman,Cranston,Municipal,,,Municipal,0,0,0,0,0,0,0,0,0,0,0,0,0,0,0,0,0,0,0,0,0,1,1,N,N,-71.475857,41.758592,Washington Secondary Bikepath is a Local Park located in Cranston,,
988,988,Washington Secondary Bikepath,Local Park,West Natick,Warwick,Municipal,,,Municipal,0,0,0,0,0,0,0,0,0,0,0,0,0,0,0,0,0,0,0,0,0,1,1,N,N,-71.484724,41.728942,Washington Secondary Bikepath is a Local Park located in Warwick,,
989,989,Washington Secondary Bikepath,Local Park,Hay,West Warwick,Municipal,,,Municipal,0,0,0,0,0,0,0,0,0,0,0,0,0,0,0,0,0,0,0,0,0,1,1,N,N,-71.514932,41.715489,Washington Secondary Bikepath is a Local Park located in West Warwick,,
990,990,Washington Secondary Bikepath,Local Park,Pilgrim,Coventry,Municipal,,,Municipal,0,0,0,0,0,0,0,0,0,0,0,0,0,0,0,0,0,0,0,0,0,1,1,N,N,-71.547552,41.694669,Washington Secondary Bikepath is a Local Park located in Coventry,,
991,991,Washington Secondary Bikepath,Local Park,Pinehaven,Coventry,State,,,RI DEM,0,0,0,0,0,0,0,0,0,0,0,0,0,0,0,0,0,0,0,0,0,1,1,N,N,-71.618978,41.704143,Washington Secondary Bikepath is a Local Park located in Coventry,,
992,992,Quonset Bike Path,Local Park,Newcomb,North Kingstown,State,,,RI DEM,0,0,0,0,0,0,0,0,0,0,0,0,0,0,0,0,0,0,0,0,0,1,1,N,N,-71.422128,41.620192,Quonset Bike Path is a Local Park located in North Kingstown,,
993,993,Fred Lippitt Woonasquatucket River Greenway,Local Park,Valley,Providence,Municipal,,,Municipal,0,0,0,0,0,0,0,0,0,0,0,0,0,0,0,0,0,0,0,0,0,1,1,N,N,-71.440098,41.822726,Fred Lippitt Woonasquatucket River Greenway is a Local Park located in Providence,,
994,994,Fred Lippitt Woonasquatucket River Greenway,Local Park,Aleppo,Providence,Municipal,,,Municipal,0,0,0,0,0,0,0,0,0,0,0,0,0,0,0,0,0,0,0,0,0,1,1,N,N,-71.448103,41.819654,Fred Lippitt Woonasquatucket River Greenway is a Local Park located in Providence,,
995,995,Fred Lippitt Woonasquatucket River Greenway,Local Park,Manton,Providence,Municipal,,,Municipal,0,0,0,0,0,0,0,0,0,0,0,0,0,0,0,0,0,0,0,0,0,1,1,N,N,-71.460442,41.826505,Fred Lippitt Woonasquatucket River Greenway is a Local Park located in Providence,,
996,996,Fred Lippitt Woonasquatucket River Greenway,Local Park,Goldsmith,Johnston,Municipal,,,Municipal,0,0,0,0,0,0,0,0,0,0,0,0,0,0,0,0,0,0,0,0,0,1,1,N,N,-71.472959,41.834547,Fred Lippitt Woonasquatucket River Greenway is a Local Park located in Johnston,,
