ADA,About_Links,Acres_Miles,Active Rec,Additional_Names,Ball Field,Basketball Court,Beach,Bike Path,Boating,C_Name,ConsJuri,ConsType,Contact_Info,Contact_Info_Seasonal,Description,Dogs_Allowed,Fishing,Football Field,GoRI_Incude_Suggestion,GoRI_TestFlag,GoRI_subset,GoRI_subset2,Golf,Hunting,Ice Hockey Rink,LWCFGrant,Lat,Lon,Map_Links,Multi-use Field,Name,NoGoRI_Incude_Why,OBJECTID,OwnerTyp,Picnic_Area,Playground,Pool,RestRoom,Short_Description,Skate Park,Soccer Field,StateGrant,Steward,Street,Street Hockey Rink,Stroller_Friendly,Tennis,Town,Track,Trails,Type,Volleyball Court,Walking Path,KeyID
,,,0,,0,1,0,0,0,,,,,,,,0,0,,,N,,0,0,0,N,41.92974988,-71.43224028,,0,Quinnville Playground,,1,MUN,,1,0,0,,0,0,Y,,Martin,0,,0,Lincoln,0,0,LP,0,0,1
,,,1,,1,0,0,0,0,,,,,,,,0,0,,,N,,0,0,0,N,41.92677475,-71.42845791,,0,Berkeley Oval,,2,MUN,,0,0,0,,0,0,N,,Martin,0,,0,Cumberland,0,0,LP,0,0,2
,,,0,,0,0,1,0,0,,,,,,,,0,0,,,Y,,0,0,0,N,41.91343805,-71.65384876,,0,Spring Grove Beach,,3,MUN,,0,0,0,,0,0,N,,Spring Grove,0,,0,Glocester,0,0,LP,0,0,3
,,,1,,2,0,0,0,0,,,,,,,,0,0,,,Y,,0,0,0,Y,41.91061853,-71.46989147,,0,Lime Acres,,4,MUN,,0,0,0,,0,0,Y,,Jenckes Hill,0,,3,Lincoln,0,0,LP,0,0,4
,,,1,,2,0,0,0,0,,,,,,,,0,0,,,N,,0,0,0,Y,41.90876809,-71.41774877,,0,Lonsdale Park / Sam Moore Field,,5,MUN,,1,0,0,,0,0,N,,River,0,,0,Lincoln,0,0,LP,0,0,5
,,,1,,1,0,0,0,0,,,,,,,,0,0,,,N,,0,0,0,N,41.90167976,-71.40453505,,0,Lincoln Almond Little League,,6,MUN,,0,0,0,,0,0,N,,Lonsdale,0,,0,Lincoln,0,0,LP,0,0,6
,,,0,,0,0,0,0,0,,,,,,,,0,0,,,N,,0,0,0,Y,41.89097753,-71.62888628,,0,Heritage Park,,7,MUN,,0,0,0,,0,0,Y,,Chestnut Oak,0,,0,Glocester,0,0,CA,0,0,7
,,,0,,0,0,0,0,0,,,,,,,,0,0,,,N,,0,0,0,N,41.89399436,-71.51606104,,0,Russell Lane Field,,8,MUN,,0,0,0,,0,0,N,,Russell,0,,0,Smithfield,0,0,LP,0,0,8
,,,0,,0,0,0,0,0,,,,,,,,0,0,,,N,,0,0,0,Y,41.88861258,-71.40091105,,0,Crossman St. Playground,,9,MUN,,1,0,0,,0,0,Y,,Crossman,0,,0,Central Falls,0,0,LP,0,0,9
,,,1,,0,1,0,0,0,,,,,,,,0,0,,,N,,0,0,0,N,41.88868246,-71.38453125,,0,Sacred Heart Avenue Playground,,10,MUN,,1,0,0,,0,0,N,,High Street,0,,0,Central Falls,0,0,LP,0,0,10
,,,0,,0,0,0,0,0,,,,,,,,0,0,,,N,,0,0,0,Y,41.88765423,-71.38881589,,0,Jenks Park,,11,MUN,,1,0,0,,0,0,Y,,Summit,0,,0,Central Falls,0,1,LP,0,0,11
,,,1,,1,0,0,0,0,,,,,,,,0,0,,,N,,0,0,0,N,41.88407273,-71.50958565,,0,Mendes Field,,12,MUN,,0,0,0,,0,0,N,,Louise Ann,0,,0,Smithfield,0,0,LP,0,0,12
,,,1,,0,1,0,0,0,,,,,,,,0,0,,,N,,0,0,0,Y,41.87969664,-71.40334571,,1,Galego Court Field,,13,MUN,,1,0,0,,0,1,Y,,Leonard Jenard,0,,0,Pawtucket,0,0,LP,0,0,13
,,,0,,0,0,0,0,0,,,,,,,,0,0,,,N,,0,0,0,N,41.87887119,-71.50165929,,0,Esmond / War Memorial Park,,14,MUN,,0,0,0,,0,0,Y,,Farnum Pike,0,,0,Smithfield,0,0,LP,0,0,14
,,,1,,1,1,0,0,0,,,,,,,,0,0,,,N,,0,0,0,Y,41.87687266,-71.60377837,,0,Byron-Winsor Park,,15,MUN,,1,0,0,,0,1,Y,,Winsor Park,1,,2,Glocester,0,0,LP,0,0,15
,,,0,,0,0,0,0,0,,,,,,,,0,0,,,N,,0,0,0,Y,41.87782517,-71.40009413,,0,Laurel Hill Playground,,16,MUN,,1,0,0,,0,0,N,,Lonsdale,0,,0,Pawtucket,0,0,LP,0,0,16
,,,1,,1,0,0,0,0,,,,,,,,0,0,,,N,,0,0,0,N,41.87600694,-71.54843114,,0,Burgess Field,,17,MUN,,0,0,0,,0,0,N,,Albert,0,,0,Smithfield,0,0,LP,0,0,17
,,,0,,0,0,0,0,0,,,,,,,,0,0,,,N,,0,0,0,N,41.87669966,-71.38701827,,0,Wilkinson Park,,18,MUN,,0,0,0,,0,0,N,,Park,0,,0,Pawtucket,0,0,LP,0,0,18
,,,0,,0,0,0,0,0,,,,,,,,0,0,,,N,,0,0,0,N,41.87513764,-71.39251251,,0,Collyer Park,,19,MUN,,0,0,0,,0,0,N,,Main,0,,0,Pawtucket,0,0,LP,0,0,19
,,,1,,1,0,0,0,0,,,,,,,,0,0,,,N,,0,0,0,N,41.87305749,-71.36999668,,0,Mccoy Stadium,,20,MUN,,0,0,0,,0,0,N,,Bend,0,,0,Pawtucket,0,0,AF,0,0,20
,,,0,,0,0,0,0,0,,,,,,,,0,0,,,N,,0,0,0,N,41.87416644,-71.39860939,,0,John Santos Park,,21,MUN,,0,0,0,,0,0,N,,Mineral Spring,0,,0,Pawtucket,0,0,LP,0,0,21
,,,0,,0,0,0,0,0,,,,,,,,0,0,,,N,,0,0,0,Y,41.87229164,-71.38524858,,0,Pleasant St. Park,,22,MUN,,0,0,0,,0,0,N,,Division,0,,0,Pawtucket,0,0,LP,0,0,22
,,,1,,9,0,0,0,0,,,,,,,,1,0,,,Y,,0,0,0,Y,41.86992267,-71.34632972,,1,Slater Park,,23,MUN,,0,0,1,,0,0,Y,,Pawtucket,0,,10,Pawtucket,0,0,LP,0,0,23
,,,1,,0,2,0,0,0,,,,,,,,0,0,,,N,,0,0,0,Y,41.86948988,-71.39183233,,0,Payne Park,,24,MUN,,1,0,0,,0,0,Y,,Randall,0,,0,Pawtucket,0,0,LP,0,0,24
,,,0,,0,0,0,0,0,,,,,,,,0,0,,,N,,0,0,0,N,41.86953855,-71.39422205,,0,Randall St. Park,,25,MUN,,0,0,0,,0,0,N,,Randall,0,,0,Pawtucket,0,0,LP,0,0,25
,,,1,,1,0,0,0,0,,,,,,,,0,0,,,N,,0,0,0,N,41.86827217,-71.49775314,,0,Dean Ave. Field,,26,MUN,,0,0,0,,0,0,N,,Adams,0,,0,Johnston,0,0,LP,0,0,26
,,,0,,0,0,0,0,0,,,,,,,,0,0,,,N,,0,0,0,Y,41.8673236,-71.36744643,,0,Berkeley Park,,27,MUN,,0,0,0,,0,0,Y,,Polo,0,,0,Pawtucket,0,0,LP,0,0,27
,,,1,,0,0,0,0,0,,,,,,,,1,1,,,Y,,0,0,0,Y,41.86435228,-71.38112414,,2,Max Read Field,,28,MUN,,0,0,0,,0,2,Y,,Pleasant,0,,0,Pawtucket,1,0,LP,0,0,28
,,,1,,1,0,0,0,0,,,,,,,,0,0,,,N,,0,0,0,N,41.8618832,-71.44906701,,0,Deninno Memorial Field,,30,MUN,,0,0,0,,0,0,N,,Alexander,0,,0,North Providence,0,0,LP,0,0,30
,,,0,,0,0,0,0,0,,,,,,,,0,0,,,N,,0,0,0,N,41.85990704,-71.43247577,,0,Wanskuck Park,,31,MUN,,0,0,0,,0,0,Y,,Woodward,0,,0,Providence,0,0,LP,0,0,31
,,,1,,2,0,0,0,0,,,,,,,,0,0,,,N,,0,0,0,Y,41.85880098,-71.40298774,,2,Morley Field,,32,MUN,,0,0,0,,0,2,Y,,Moshassuck,0,,0,Pawtucket,0,0,LP,0,0,32
,,,0,,0,0,0,0,0,,,,,,,,0,0,,,Y,,0,0,0,Y,41.85210415,-71.38779002,,0,Blackstone Blvd. Park,,33,MUN,,0,0,0,,0,0,N,,Blackstone,0,,0,Providence,0,0,LP,0,1,33
,,,1,,4,1,0,0,0,,,,,,,,0,0,,,Y,,0,0,0,Y,41.85542754,-71.45349281,,1,Stephen Olney Park,,34,MUN,,2,0,0,,1,0,Y,,Smithfield,0,,4,North Providence,0,0,LP,0,1,34
,,,1,,0,2,0,0,0,,,,,,,,0,0,,,N,,0,0,0,N,41.85417626,-71.35774456,,0,Lynne Bourne Memorial Park,,35,MUN,,0,0,0,,0,0,N,,Alma,0,,1,East Providence,0,0,LP,0,0,35
,,,0,,0,0,0,0,0,,,,,,,,0,0,,,N,,0,0,0,Y,41.85085045,-71.42041171,,0,Hopkins Square,,36,MUN,,0,0,0,,0,0,N,,Charles,0,,0,Providence,0,0,LP,0,0,36
,,,1,,3,0,0,0,0,,,,,,,,0,0,,,N,,0,0,0,N,41.8495148,-71.42098093,,0,Prete-Metcalf Field,,37,MUN,,0,0,0,,0,0,N,,Charles,0,,0,Providence,0,0,LP,0,0,37
,,,1,,4,0,0,0,0,,,,,,,,0,0,,,Y,,0,0,0,N,41.84853354,-71.34647216,,0,Kimberly Ann Rock Memorial Athletic Complex,,38,MUN,,0,0,1,,0,0,N,,Ferris,0,,0,East Providence,0,0,AF,0,0,38
,,,1,,1,2,0,0,0,,,,,,,,0,0,,,N,,0,0,0,N,41.84790582,-71.42949905,,0,Corliss Park,,39,MUN,,1,0,0,,0,0,N,,Fernando,0,,2,Providence,0,0,LP,0,0,39
,,,0,,0,1,0,0,0,,,,,,,,0,0,,,N,,0,0,0,Y,41.85287283,-71.44428081,,1,General St. Playground,,40,MUN,,1,0,0,,0,0,N,,General,0,,0,Providence,0,0,LP,0,0,40
,,,1,,3,0,0,0,0,,,,,,,,0,0,,,N,,0,0,0,Y,41.83829857,-71.64837259,,1,Gorham Field,,41,MUN,,0,0,0,,0,0,N,,Hartford Pike,0,,2,Scituate,0,0,LP,0,0,41
,,,0,,0,0,0,0,0,,,,,,,,0,0,,,N,,0,0,0,N,41.84172041,-71.4044631,,0,Mount Hope Community Garden,,42,MUN,,0,0,0,,0,0,N,,Knowles,0,,0,Providence,0,0,LP,0,0,42
,,,1,,0,0,0,0,0,,,,,,,,0,0,,,N,,0,0,0,N,41.84134085,-71.41949519,,0,Hopkins Park,,43,MUN,,1,0,0,,0,1,N,,Admiral,0,,0,Providence,0,0,LP,0,0,43
,,,0,,0,0,0,0,0,,,,,,,,0,0,,,Y,,0,0,0,Y,41.83378567,-71.37948814,,0,Blackstone Park / Patterson Park,,44,MUN,,0,0,0,,0,0,N,,Parkside,0,,0,Providence,0,1,LP,0,0,44
,,,1,,0,0,0,0,0,,,,,,,,0,0,,,Y,,0,0,0,N,41.83789995,-71.42711446,,0,Father Lennon Park,,45,MUN,,1,1,0,,0,0,N,,Camden,0,,0,Providence,0,0,SC,0,0,45
,,,1,,3,1,0,0,0,,,,,,,,0,0,,,N,,0,0,0,N,41.83305666,-71.43086529,,0,Davis Park,,47,MUN,,0,0,0,,0,0,Y,,Chalkstone,0,,0,Providence,0,0,LP,0,0,47
,,,0,,1,0,0,0,0,,,,,,,,0,0,,,N,,0,0,0,Y,41.83184798,-71.45046094,,1,West Park,,48,MUN,,1,0,0,,0,0,Y,,Mount Pleasant,0,,0,Providence,0,0,LP,0,0,48
,,,1,,4,2,0,0,0,,,,,,,,1,0,,,N,,0,0,0,Y,41.82824667,-71.50493071,,0,Johnston Memorial Park,,49,MUN,,1,0,0,,0,0,Y,,Memorial,0,,3,Johnston,0,0,LP,0,0,49
,,,0,,0,0,0,0,0,,,,,,,,0,0,,,N,,0,0,0,N,41.82993051,-71.43712308,,0,Regent Ave. Playground,,50,MUN,,1,0,0,,0,0,N,,Regent,0,,0,Providence,0,0,LP,0,0,50
,,,0,,0,0,0,0,0,,,,,,,,0,0,,,N,,0,0,0,N,41.82990248,-71.40729988,,0,Prospect Terrace Park,,51,MUN,,0,0,0,,0,0,N,,Congdon,0,,0,Providence,0,0,LP,0,0,51
,,,0,,0,0,0,0,0,,,,,,,,0,0,,,N,,0,0,0,N,41.82736457,-71.3838594,,0,Constance Witherby Park,,52,MUN,,0,0,0,,0,0,N,,Waterman,0,,0,Providence,0,0,LP,0,0,52
,,,0,,0,0,0,0,0,,,,,,,,0,0,,,N,,0,0,0,N,41.82543655,-71.41214058,,0,Burnside Park,,53,MUN,,0,0,0,,0,0,N,,Washington,0,,0,Providence,0,0,LP,0,0,53
,,,0,,0,0,0,0,0,,,,,,,,0,0,,,N,,0,0,0,N,41.82516194,-71.40780899,,0,Memorial Park,,54,MUN,,0,0,0,,0,0,N,,South Main,0,,0,Providence,0,0,LP,0,0,54
,,,1,,0,2,0,0,0,,,,,,,,0,0,,,N,,0,0,0,Y,41.82313275,-71.36849431,,0,Onna Moniz-John Neighborhood Park,,55,MUN,,1,0,0,,0,0,Y,,Central,0,,0,East Providence,0,0,LP,0,0,55
,,,1,,0,0,0,0,0,,,,,,,,0,0,,,Y,,0,0,0,N,41.82256999,-71.43073097,,0,Angelo Zuccolo Pool,,56,MUN,,0,1,1,,0,0,N,,Gesler,0,,0,Providence,0,0,LP,0,0,56
,,,1,,1,1,0,0,0,,,,,,,,0,0,,,Y,,0,0,0,Y,41.82326371,-71.44082556,,1,John Donigian Memorial Park,,57,MUN,,1,0,0,,0,0,N,,Valley,0,,0,Providence,0,0,LP,0,1,57
,,,0,,0,0,0,0,0,,,,,,,,0,0,,,N,,0,0,0,N,41.82304355,-71.42159034,,0,Garibaldi Square,,58,MUN,,0,0,0,,0,0,Y,,Atwells,0,,0,Providence,0,0,LP,0,0,58
,,,0,,0,0,0,0,0,,,,,,,,0,0,,,N,,0,0,0,N,41.82307242,-71.39422525,,0,Fenner Square,,59,MUN,,0,0,0,,0,0,N,,Governor,0,,0,Providence,0,0,LP,0,0,59
,,,0,,0,0,0,0,0,,,,,,,,0,0,,,N,,0,0,0,N,41.81955233,-71.35957983,,0,Martello Street Playground,,60,MUN,,1,0,0,,0,0,N,,Martello,0,,0,East Providence,0,0,LP,0,0,60
,,,1,,1,1,0,0,0,,,,,,,,0,0,,,N,,0,0,0,N,41.81949109,-71.39238154,,0,Cabral Park,,61,MUN,,1,0,0,,0,0,N,,Wickenden,0,,0,Providence,0,1,LP,0,0,61
,,,1,,0,0,0,0,0,,,,,,,,1,0,,,Y,,0,0,0,Y,41.81784486,-71.39236738,,1,India Point Park,,62,MUN,,1,0,0,,0,1,Y,,India,0,,0,Providence,0,0,LP,0,0,62
,,,1,,1,0,0,0,0,,,,,,,,0,0,,,N,,0,0,0,Y,41.81349461,-71.4312146,,0,Dexter Training Ground,,63,MUN,,1,0,0,,0,0,N,,Parade,0,,0,Providence,0,0,LP,0,0,63
,,,1,,1,1,0,0,0,,,,,,,,0,0,,,N,,0,0,0,N,41.81134306,-71.44376278,,0,Wallace St. Park,,64,MUN,,1,0,0,,1,0,Y,,Wallace,0,,0,Providence,0,0,LP,0,0,64
,,,0,,0,0,0,0,0,,,,,,,,0,0,,,N,,0,0,0,N,41.80781061,-71.45698261,,0,Cerbo Square,,65,MUN,,0,0,0,,0,0,N,,Murray,0,,0,Providence,0,0,LP,0,0,65
,,,0,,0,0,0,0,0,,,,,,,,0,0,,,N,,0,0,0,N,41.80581248,-71.43500034,,0,Waldo St. Totlot,,66,MUN,,1,0,0,,0,0,N,,Waldo,0,,0,Providence,0,0,LP,0,0,66
,,,1,,1,1,0,0,0,,,,,,,,0,0,,,N,,0,0,0,Y,41.797964,-71.40926733,,1,Richardson Park,,67,MUN,,1,0,0,,0,0,Y,,Ocean,0,,0,Providence,0,0,LP,0,0,67
,,,1,,1,1,0,0,0,,,,,,,,0,0,,,N,,0,0,0,N,41.79694261,-71.4725488,,1,Pocasset Field,,68,MUN,,0,0,0,,0,0,N,,Spruce,0,,0,Johnston,0,0,LP,0,0,68
,,,0,,0,0,0,0,0,,,,,,,,0,0,,,N,,0,0,0,N,41.79668973,-71.425731,,0,Columbus Square Park,,69,MUN,,0,0,0,,0,0,N,,Elmwood,0,,0,Providence,0,0,LP,0,0,69
,,,1,,0,1,0,0,0,,,,,,,,0,0,,,N,,0,0,0,N,41.79577928,-71.48719497,,0,Rainone Playground,,70,MUN,,0,0,0,,0,0,N,,Mill,1,,0,Johnston,0,0,LP,0,0,70
,,,1,,4,0,0,0,0,,,,,,,,0,0,,,Y,,0,0,0,Y,41.78294441,-71.41229964,,2,Roger Williams Park,,71,MUN,,1,0,1,,0,0,Y,,Elmwood,0,,10,Providence,0,1,LP,0,1,71
,,,1,,0,0,0,0,0,,,,,,,,0,0,,,N,,0,0,0,Y,41.79113243,-71.39260892,,1,Drummond Field,,72,MUN,,0,0,0,,0,1,N,,Indiana,0,,0,Providence,0,0,LP,0,0,72
,,,0,,0,0,0,0,0,,,,,,,,0,0,,,N,,0,0,0,Y,41.79003093,-71.36987907,,0,Boyden Heights Conservation Area,,73,MUN,,0,0,0,,0,0,N,,Boyden,0,,0,East Providence,0,0,LP,0,0,73
,,,1,,0,2,0,0,0,,,,,,,,0,0,,,N,,0,0,0,Y,41.78924407,-71.39392409,,0,Columbia Park,,74,MUN,,1,0,0,,0,0,N,,Vermont,0,,0,Providence,0,0,LP,0,0,74
,,,1,,1,1,0,0,0,,,,,,,,0,0,,,N,,0,0,0,N,41.78763826,-71.46120431,,0,Highland Park,,75,MUN,,1,0,0,,0,0,N,,Southern,0,,0,Cranston,0,0,LP,0,0,75
,,,1,,2,0,0,0,0,,,,,,,,0,0,,,N,,0,0,0,Y,41.78759755,-71.44056235,,0,Spectacle Pond Field,,76,MUN,,2,0,0,,0,0,N,,Cottage,0,,0,Cranston,0,0,LP,0,0,76
,,,0,,0,0,0,0,0,,,,,,,,0,0,,,N,,0,0,0,Y,41.7863272,-71.48611149,,1,Stone Hill Field,,77,MUN,,0,0,0,,0,0,N,,Elena,0,,0,Cranston,0,0,LP,0,0,77
,,,0,,0,0,0,0,0,,,,,,,,0,0,,,N,,0,0,0,Y,41.78721668,-71.40239934,,0,Washington Park Square,,78,MUN,,0,0,0,,0,0,N,,Eddy,0,,0,Providence,0,0,LP,0,0,78
,,,1,,1,0,0,0,0,,,,,,,,0,0,,,N,,0,0,0,N,41.78449845,-71.4200721,,0,Joseph Williams Field,,79,MUN,,1,0,0,,0,0,Y,,Elmwood,0,,0,Providence,0,0,LP,0,0,79
,,,1,,1,1,0,0,0,,,,,,,,0,1,,,N,,0,0,0,Y,41.78433382,-71.44583382,,1,Cranston Stadium / Stebbins Field,,80,MUN,,0,0,0,,0,1,Y,,Midwood,0,,2,Cranston,0,0,AF,0,0,80
,,,1,,0,0,0,0,0,,,,,,,,0,0,,,N,,0,0,0,N,41.78337062,-71.71970115,,0,Foster Town House Field,,81,MUN,,0,0,0,,0,0,N,,Howard Hill,0,,0,Foster,0,0,LP,0,0,81
,,,0,,0,0,0,0,0,,,,,,,,0,0,,,N,,0,0,0,N,41.7823389,-71.46519837,,0,Knightsville Park,,82,MUN,,0,0,0,,0,0,N,,Cranston,0,,0,Cranston,0,0,LP,0,0,82
,,,0,,0,0,0,0,0,,,,,,,,0,0,,,N,,0,0,0,N,41.78446809,-71.42370291,,0,Friendly Community,,83,UNK,,1,0,0,,0,0,N,,Doric,0,,0,Cranston,0,0,LP,0,0,83
,,,0,,0,0,0,0,0,,,,,,,,0,0,,,N,,0,0,0,N,41.77870865,-71.43598448,,0,Veterans' Park,,84,MUN,,0,0,0,,0,0,N,,Pontiac,0,,0,Cranston,0,0,LP,0,0,84
,,,1,,0,1,0,0,0,,,,,,,,0,0,,,N,,0,0,0,N,41.77755465,-71.51710607,,0,Comstock Gardens,,85,MUN,,0,0,0,,0,0,N,,Wildflower,0,,1,Cranston,0,0,LP,0,0,85
,,,1,,2,1,1,0,0,,,,,,,,0,0,,,Y,,0,0,0,Y,41.77517449,-71.40733039,,0,Beachmont / Hayes Field,,86,MUN,,1,0,0,,0,0,N,,Calvin,0,,2,Cranston,0,0,LP,0,0,86
,,,0,,0,0,0,0,0,,,,,,,,1,0,,,Y,,0,0,0,N,41.77013939,-71.38991687,,0,Stillhouse Cove,,87,STA,,0,0,0,,0,0,N,,Narragansett,0,,0,Cranston,0,0,LP,0,0,87
,,,1,,4,2,0,0,0,,,,,,,,0,0,,,Y,,0,0,0,N,41.77069353,-71.44475406,,0,Aqueduct Field,,88,MUN,,0,1,0,,0,0,N,,Aqueduct,0,,0,Cranston,0,0,LP,0,0,88
,,,1,,0,0,0,0,0,,,,,,,,1,0,,,Y,,0,0,0,N,41.77035999,-71.32296077,,0,Osamequin Nature Trail,,89,MUN,,0,0,0,,0,0,N,,Wampanoag,0,,0,Barrington,0,1,LP,0,0,89
,,,1,,1,0,0,0,0,,,,,,,,0,0,,,N,,0,0,0,Y,41.76831439,-71.33298002,,0,Grassy Plain Park,,90,MUN,,0,0,0,,0,0,N,,Tanglewood,0,,0,East Providence,0,0,LP,0,0,90
,,,1,,0,1,0,0,1,,,,,,,,1,0,,,Y,,0,0,0,Y,41.76564025,-71.36795302,,1,Sabin Point Park,,91,MUN,,1,0,0,,0,0,Y,,Shore,0,,0,East Providence,0,0,LP,0,0,91
,,,0,,0,0,0,0,0,,,,,,,,1,0,,,N,,0,0,0,Y,41.76262623,-71.38916458,,0,Pawtuxet Village Park,,92,MUN,,1,0,0,,0,0,N,,View,0,,0,Warwick,0,0,LP,0,0,92
,,,0,,0,0,0,0,0,,,,,,,,0,0,,,N,,0,0,0,N,41.76080312,-71.42775265,,0,Wellington Ave Park,,93,MUN,,0,0,0,,0,0,N,,Wellington,0,,0,Cranston,0,0,LP,0,0,93
,,,1,,2,2,0,0,0,,,,,,,,0,0,,,N,,0,0,0,Y,41.75990677,-71.35701991,,0,Providence Avenue Playground & Athletic Area,,94,MUN,,1,0,0,,0,0,N,,Sunset,0,,0,East Providence,0,0,LP,0,0,94
,,,1,,2,0,0,0,0,,,,,,,,0,0,,,N,,0,0,0,N,41.75831197,-71.47712039,,0,Sherman Ave. Field,,95,MUN,,1,0,0,,0,0,Y,,Cranston,0,,0,Cranston,0,0,LP,0,0,95
,,,1,,1,0,0,0,0,,,,,,,,0,0,,,N,,0,0,0,N,41.75646999,-71.33367092,,0,Sherwood Park,,96,MUN,,0,0,0,,0,0,N,,Congress,0,,0,Barrington,0,0,LP,0,0,96
,,,1,,0,0,0,0,1,,,,,,,,1,0,,,Y,,0,0,0,Y,41.75707894,-71.35919226,,0,Crescent Park / Loof Carousel,,97,MUN,,0,0,1,,0,0,N,,Bullocks Point,0,,0,East Providence,0,0,LP,0,0,97
,,,0,,0,0,0,0,0,,,,,,,,0,0,,,N,,0,0,0,Y,41.75517131,-71.49009874,,0,Furnace Hill Brook,,98,MUN,,0,0,0,,0,0,N,,Phenix,0,,0,Cranston,0,0,CA,0,0,98
,,,1,,5,0,0,0,0,,,,,,,,0,0,,,Y,,0,0,0,Y,41.75207533,-71.51155515,,5,Briggs Farm,,99,MUN,,0,0,1,,0,5,Y,,Hope,0,,2,Cranston,0,1,AF,0,0,99
,,,1,,0,0,0,0,0,,,,,,,,1,0,,,Y,,0,0,0,N,41.74580144,-71.35212189,,0,Latham Ave. Park,,100,MUN,,1,0,0,,0,0,Y,,Shore,0,,0,Barrington,0,0,LP,0,0,100
,,,1,,1,0,0,0,0,,,,,,,,0,0,,,N,,0,0,0,N,41.74290865,-71.3388532,,0,Bicknell Field,,101,MUN,,0,0,0,,0,0,N,,Walnut,0,,0,Barrington,0,0,LP,0,0,101
,,,1,,1,2,0,0,0,,,,,,,,0,0,,,N,,0,0,0,Y,41.74081452,-71.31612966,,1,F.J. Chianese Field,,102,MUN,,1,0,0,,0,1,Y,,Centennial,0,,1,Barrington,0,0,LP,0,0,102
,,,1,,1,0,0,0,0,,,,,,,,0,0,,,N,,0,0,0,N,41.73981323,-71.47509518,,1,Hilltop Drive Field,,103,MUN,,0,0,0,,0,1,N,,New London,0,,0,Cranston,0,0,LP,0,0,103
,,,1,,2,1,0,0,0,,,,,,,,0,0,,,N,,0,0,0,Y,41.73672989,-71.55482661,,0,Hope Memorial Field,,104,MUN,,0,0,0,,0,0,Y,,Hope,0,,2,Scituate,0,0,LP,0,0,104
,,,0,,0,0,0,0,0,,,,,,,,0,0,,,N,,0,0,0,N,41.72976548,-71.2834424,,0,Warren Town Common,,105,MUN,,0,0,0,,0,0,N,,Church,0,,0,Warren,0,0,LP,0,0,105
,,,1,,1,2,0,0,0,,,,,,,,0,0,,,N,,0,0,0,N,41.72248043,-71.28326955,,1,Burr Hill Park,,106,MUN,,0,0,0,,0,0,Y,,Water,0,,2,Warren,0,0,LP,0,0,106
,,,1,,3,2,0,0,0,,,,,,,,0,0,,,Y,,0,0,1,Y,41.70995384,-71.41457582,,0,Mickey Stevens Sports Center,,107,MUN,,0,1,1,,1,0,N,,Sandy,0,,8,Warwick,0,0,LP,0,0,107
,,,1,,1,0,0,0,0,,,,,,,,0,0,,,N,,0,0,0,Y,41.7092743,-71.40192848,,0,G. Boyd Field,,108,MUN,,0,0,0,,0,0,N,,Waterview,0,,0,Warwick,0,0,LP,0,0,108
,,,0,,0,0,1,0,0,,,,,,,,0,0,,,Y,,0,0,0,N,41.70495199,-71.40768156,,0,Little Pond Beach,,109,SCH,,0,0,0,,0,0,N,,Albert,0,,0,Warwick,0,0,LP,0,0,109
,,,1,,0,0,0,0,1,,,,,,,,1,0,,,Y,,0,0,0,Y,41.70461966,-71.55418808,,0,Upper Dam Pond,,110,MUN,,0,0,0,,0,0,N,,Knotty Oak,0,,0,Coventry,0,0,LP,0,0,110
,,,0,,0,0,0,0,0,,,,,,,,0,0,,,N,,0,0,0,N,41.7009188,-71.44072986,,0,Normandy Drive,,111,MUN,,0,0,0,,0,0,N,,Normandy,0,,0,Warwick,0,0,LP,0,0,111
,,,0,,0,0,0,0,0,,,,,,,,0,0,,,N,,0,0,0,N,41.7020462,-71.69472853,,0,Nathaniel Greene Park,,112,MUN,,0,0,0,,0,0,N,,Victory,0,,0,Coventry,0,0,LP,0,0,112
,,,1,,3,0,0,0,0,,,,,,,,0,0,,,N,,0,0,0,Y,41.69754975,-71.56516768,,3,Foster Memorial Park,,113,MUN,,0,0,0,,0,0,N,,Station,0,,0,Coventry,0,0,LP,0,0,113
,,,1,,3,1,0,0,0,,,,,,,,0,0,,,N,,0,0,0,Y,41.70068082,-71.45800721,,0,O'Brien Field,,114,MUN,,0,0,0,,0,0,N,,Veterans Memorial Dr,0,,0,Warwick,0,0,LP,0,0,114
,,,1,,2,0,0,0,0,,,,,,,,0,0,,,N,,0,0,0,Y,41.6987203,-71.3980513,,1,Champlin Field,,115,MUN,,0,0,0,,1,0,N,,Oakland Beach,0,,0,Warwick,0,0,LP,0,0,115
,,,0,,0,0,0,0,0,,,,,,,,0,0,,,N,,0,0,0,N,41.69716792,-71.54670084,,0,Coventry Town Green,,116,MUN,,0,0,0,,0,0,Y,,Washington,0,,0,Coventry,0,0,LP,0,0,116
,,,1,,2,0,0,0,0,,,,,,,,0,0,,,N,,0,0,0,Y,41.69189456,-71.63029436,,1,Central Coventry Park,,117,MUN,,0,0,0,,0,1,Y,,Provident,0,,2,Coventry,0,0,LP,0,0,117
,,,1,,0,1,0,0,0,,,,,,,,0,0,,,N,,0,0,0,N,41.68620589,-71.52338207,,0,Crompton Playground,,118,MUN,,1,0,0,,0,0,N,,Main,0,,0,West Warwick,0,0,LP,0,0,118
,,,1,,1,0,0,0,0,,,,,,,,0,0,,,N,,0,0,0,Y,41.67674364,-71.52886067,,0,Flat Top Park,,119,MUN,,1,0,0,,0,0,Y,,Campbell,0,,0,West Warwick,0,0,LP,0,0,119
,,,0,,0,0,1,0,0,,,,,,,,0,0,,,Y,,0,0,0,Y,41.67430178,-71.54967928,,0,Briar Point Beach Area,,120,MUN,,1,0,1,,0,0,Y,,Briar Point,0,,0,Coventry,0,0,LP,0,0,120
,,,1,,0,0,0,1,1,,,,,,,,1,0,,,Y,,0,0,0,N,41.67378512,-71.27948701,,0,Independence Park,,121,MUN,,0,0,1,,0,0,Y,,Thames,0,,0,Bristol,0,0,LP,0,1,121
,,,0,,0,0,0,0,0,,,,,,,,0,0,,,N,,0,0,0,Y,41.62895756,-71.50731756,,0,Frenchtown Park,,122,MUN,,0,0,0,,0,0,Y,,Cavalier,0,,0,East Greenwich,0,0,CA,0,0,122
,,,1,,1,2,0,0,0,,,,,,,,0,0,,,N,,0,0,0,Y,41.62374835,-71.15001763,,0,Bulgarmarsh Recreation Area,,123,MUN,,1,0,0,,1,0,Y,,Bulgarmarsh,0,,4,Tiverton,0,0,LP,0,0,123
,,,1,,1,0,0,0,0,,,,,,,,0,0,,,N,,0,0,0,N,41.6243385,-71.20918471,,0,Fort Barton Field,,124,MUN,,0,0,0,,0,0,N,,Lawton,0,,0,Tiverton,0,0,LP,0,0,124
,,,1,,0,1,0,0,0,,,,,,,,0,0,,,N,,0,0,0,Y,41.62406091,-71.52012626,,0,Frenchtown Recreation Facility,,125,MUN,,1,0,0,,0,0,N,,Frenchtown,0,,3,East Greenwich,0,0,LP,0,0,125
,,,1,,1,0,0,0,0,,,,,,,,0,0,,,N,,0,0,0,N,41.60494645,-71.25092768,,0,Turnpike Avenue Playground,,126,MUN,,1,0,0,,0,0,N,,Turnpike,0,,0,Portsmouth,0,0,LP,0,0,126
,,,1,,3,2,0,0,1,,,,,,,,1,0,,,Y,,0,0,0,Y,41.57463658,-71.45923147,,10,Wilson Park,,127,MUN,,1,0,1,,0,10,Y,,Roosevelt,0,,2,North Kingstown,0,0,LP,0,0,127
,,,1,,1,0,0,0,0,,,,,,,,0,0,,,N,,0,0,0,Y,41.57456586,-71.49106439,,0,Feurer Park,,128,MUN,,0,0,0,,0,0,N,,Lafayette,0,,0,North Kingstown,0,0,LP,0,0,128
,,,0,,0,0,0,0,0,,,,,,,,0,0,,,N,,0,0,0,N,41.57002259,-71.45223838,,0,Updike Park,,129,MUN,,0,0,0,,0,0,N,,Brown,0,,0,North Kingstown,0,0,LP,0,0,129
,,,1,,1,0,0,0,0,,,,,,,,0,0,,,N,,0,0,0,N,41.55367362,-71.1281996,,0,Adamsville Playground,,130,MUN,,0,0,0,,0,0,N,,Main,0,,0,Little Compton,0,0,LP,0,0,130
,,,1,,1,0,0,0,0,,,,,,,,0,0,,,N,,0,0,0,N,41.54912222,-71.5326474,,1,Reynolds Field,,131,MUN,,0,0,0,,0,0,N,,South,0,,0,Exeter,0,0,LP,0,0,131
,,,1,,1,1,0,0,0,,,,,,,,0,0,,,N,,0,0,0,N,41.53977545,-71.49414073,,0,Donald Down's Park,,132,MUN,,0,0,0,,0,0,N,,Indian Corner,0,,0,North Kingstown,0,0,LP,0,0,132
,,,1,,0,0,0,0,0,,,,,,,,0,0,,,N,,0,0,0,N,41.52538334,-71.36630804,,0,Eldred Ave. Field,,133,MUN,,0,0,0,,0,4,Y,,Eldred,0,,0,Jamestown,0,0,LP,0,0,133
,,,1,,2,0,0,0,0,,,,,,,,0,0,,,N,,0,0,0,N,41.51602909,-71.31473529,,0,Goldberg Little League Field,,134,MUN,,0,0,0,,0,0,N,,Maple,0,,0,Newport,0,0,AF,0,0,134
,,,0,,0,0,0,0,0,,,,,,,,0,0,,,N,,0,0,0,Y,41.50985944,-71.30992729,,1,Miantonomi Park,,135,MUN,,1,0,0,,0,0,Y,,Hillside,0,,0,Newport,0,0,LP,0,0,135
,,,1,,1,0,0,0,0,,,,,,,,0,0,,,N,,0,0,0,Y,41.50997955,-71.71501938,,0,Jos. A. Langworthy Memorial Park,,136,MUN,,1,0,0,,0,0,Y,,Lakeside,0,,0,Hopkinton,0,0,LP,0,0,136
,,,0,,0,0,0,0,0,,,,,,,,0,0,,,N,,0,0,0,N,41.50460573,-71.71737476,,0,Polish Park,,137,MUN,,0,0,0,,0,0,N,,Nichols,0,,0,Hopkinton,0,0,LP,0,0,137
,,,1,,1,0,0,0,0,,,,,,,,0,0,,,N,,0,0,0,N,41.50300715,-71.29955275,,1,Vernon Park,,138,MUN,,1,0,0,,0,0,N,,Vernon,0,,4,Newport,0,0,LP,0,0,138
,,,0,,0,0,0,0,0,,,,,,,,0,0,,,N,,0,0,0,N,41.50085906,-71.31959823,,0,Third St. Lot,,139,MUN,,1,0,0,,0,0,N,,3rd,0,,0,Newport,0,0,LP,0,0,139
,,,0,,0,0,0,0,0,,,,,,,,1,0,,,Y,,0,0,0,N,41.49683146,-71.32163792,,0,Battery Park / Fort Greene,,140,MUN,,0,0,0,,0,0,N,,Washington,0,,0,Newport,0,0,LP,0,0,140
,,,1,,1,2,0,0,0,,,,,,,,0,0,,,N,,0,0,0,N,41.4951863,-71.29739616,,1,Braga Park,,141,MUN,,1,0,0,,0,1,Y,,Greenlaw,0,,0,Newport,0,0,LP,0,0,141
,,,0,,0,0,0,0,0,,,,,,,,0,0,,,N,,0,0,0,N,41.49471204,-71.30930265,,0,Equality Park,,142,MUN,,0,0,0,,0,0,N,,Equality Park,0,,0,Newport,0,0,LP,0,0,142
,,,0,,0,0,0,0,0,,,,,,,,0,0,,,N,,0,0,0,N,41.49459404,-71.30881498,,0,Congdon Park,,143,MUN,,0,0,0,,0,0,N,,Bartlett,0,,0,Newport,0,0,LP,0,0,143
,,,1,,0,0,0,0,1,,,,,,,,1,0,,,N,,0,0,0,N,41.4916438,-71.39802252,,0,Fort Getty,,144,MUN,,0,0,1,,0,0,Y,,Fort Getty,0,,0,Jamestown,0,0,LP,0,0,144
,,,1,,1,0,0,0,0,,,,,,,,0,0,,,N,,0,0,0,Y,41.49255857,-71.31304003,,0,Edward Street Playground,,145,SCH,,1,0,0,,0,0,Y,,Edward,0,,0,Newport,0,0,LP,0,0,145
,,,0,,0,1,0,0,0,,,,,,,,1,0,,,N,,0,0,0,N,41.49189489,-71.32118199,,0,Storer Park,,146,MUN,,0,0,0,,0,0,N,,Washington,0,,0,Newport,0,0,LP,0,0,146
,,,1,,1,0,0,0,0,,,,,,,,0,0,,,N,,0,0,0,N,41.49118147,-71.31659966,,0,Cardines Field,,147,MUN,,0,0,0,,0,0,Y,,Marlborough,0,,0,Newport,0,0,AF,0,0,147
,,,0,,0,0,0,0,0,,,,,,,,0,0,,,N,,0,0,0,N,41.48974468,-71.17334324,,0,Wilbour Woods,,148,MUN,,0,0,0,,0,0,N,,Swamp,0,,0,Little Compton,0,0,LP,0,0,148
,,,0,,0,0,0,0,0,,,,,,,,0,0,,,N,,0,0,0,Y,41.48993717,-71.31378654,,0,Eisenhower Park,,149,MUN,,0,0,0,,0,0,Y,,Touro,0,,0,Newport,0,0,LP,0,0,149
,,,0,,0,0,0,0,0,,,,,,,,0,0,,,N,,0,0,0,N,41.48897703,-71.31712485,,0,Perrotti Park,,150,MUN,,0,0,0,,0,0,N,,Americas Cup,0,,0,Newport,0,0,LP,0,0,150
,,,0,,0,0,0,0,0,,,,,,,,0,0,,,N,,0,0,0,N,41.48567758,-71.30954923,,0,Touro Park,,151,MUN,,0,0,0,,0,0,N,,Bellevue,0,,0,Newport,0,0,LP,0,0,151
,,,1,,0,0,1,0,1,,,,,,,,1,0,,,Y,,0,0,0,N,41.48653722,-71.24563061,,0,Third Beach,,152,MUN,,0,0,0,,0,0,N,,Third Beach,0,,0,Middletown,0,0,LP,0,0,152
,,,0,,0,0,0,0,0,,,,,,,,0,0,,,N,,0,0,0,N,41.48356322,-71.30618793,,0,Memorial Blvd Parks,,153,MUN,,0,0,0,,0,0,N,,Memorial,0,,0,Newport,0,0,LP,0,0,153
,,,0,,0,0,0,0,0,,,,,,,,0,0,,,N,,0,0,0,N,41.48236382,-71.31162451,,0,Aquidneck Park,,154,MUN,,1,0,0,,0,0,N,,King,0,,0,Newport,0,0,LP,0,0,154
,,,0,,0,0,0,0,0,,,,,,,,0,0,,,N,,0,0,0,N,41.48043774,-71.39479116,,0,DAR Memorial Park,,155,MUN,,0,0,0,,0,0,N,,Battery,0,,0,Jamestown,0,0,LP,0,0,155
,,,0,,0,0,0,0,0,,,,,,,,0,0,,,N,,0,0,0,N,41.47617704,-71.31656369,,1,Spencer Park,,156,MUN,,0,0,0,,0,0,N,,Wellington,0,,0,Newport,0,0,LP,0,0,156
,,,0,,0,0,0,0,0,,,,,,,,0,0,,,N,,0,0,0,N,41.47149908,-71.31123832,,0,Morton Park,,157,MUN,,1,0,0,,0,0,N,,Morton,0,,0,Newport,0,0,LP,0,0,157
,,,1,,0,1,0,0,0,,,,,,,,0,0,,,N,,0,0,0,N,41.47074225,-71.4518769,,0,Treaty Rock Park,,158,MUN,,1,0,0,,0,0,N,,Middlebridge,0,,0,South Kingstown,0,0,LP,0,0,158
,,,0,,0,1,0,0,0,,,,,,,,0,0,,,N,,0,0,0,N,41.43885766,-71.50145165,,1,Saugatucket Park,,159,MUN,,0,0,0,,0,0,Y,,High,0,,0,South Kingstown,0,0,LP,0,0,159
,,,1,,0,0,0,0,1,,,,,,,,1,0,,,Y,,0,0,0,Y,41.45636193,-71.51092917,,0,Tri-Pond Park,,160,MUN,,0,0,0,,0,0,N,,Asa Pond,0,,0,South Kingstown,0,1,LP,0,0,160
,,,0,,0,0,0,0,0,,,,,,,,0,0,,,N,,0,0,0,Y,41.43138828,-71.45663007,,0,Gazebo Park,,161,MUN,,0,0,0,,0,0,Y,,Ocean,0,,0,Narragansett,0,0,LP,0,0,161
,,,0,,0,0,0,0,0,,,,,,,,0,0,,,N,,0,0,0,N,41.43061513,-71.45664927,,0,Veterans' Park,,162,MUN,,0,0,0,,0,0,N,,Exchange,0,,0,Narragansett,0,0,LP,0,0,162
,,,1,,2,1,0,0,0,,,,,,,,0,0,,,Y,,0,0,0,Y,41.42675869,-71.55684564,,1,Tuckertown Recreation Area,,163,MUN,,1,0,1,,0,4,N,,Tuckertown Park,0,,2,South Kingstown,0,1,LP,0,0,163
,,,1,,1,1,0,0,0,,,,,,,,0,0,,,N,,0,0,0,N,41.42506409,-71.45976342,,1,Thompson Memorial Park,,164,MUN,,1,0,0,,0,0,N,,Gibson,0,,0,Narragansett,0,0,LP,0,0,164
,,,0,,1,2,0,0,0,,,,,,,,0,0,,,N,,0,0,0,Y,41.42110512,-71.78561524,,0,Crandall Field,,165,MUN,,1,0,0,,0,0,Y,,Ashaway,0,,2,Hopkinton,0,0,LP,0,0,165
,,,1,,0,1,0,0,0,,,,,,,,0,0,,,N,,0,0,0,Y,41.39666177,-71.47648297,,0,Eastward Look Park,,166,MUN,,1,0,0,,0,0,N,,Sakonnet,0,,2,Narragansett,0,0,LP,0,0,166
,,,1,,1,1,0,0,0,,,,,,,,0,0,,,N,,0,0,0,Y,41.39825341,-71.52962062,,0,Brousseau Memorial Park,,167,MUN,,1,0,0,,0,1,N,,Victoria,0,,2,South Kingstown,0,0,LP,0,0,167
,,,0,,0,0,0,0,0,,,,,,,,0,0,,,Y,,0,0,0,N,41.3786039,-71.82813437,,1,Wilcox Park,,168,MUN,,0,0,1,,0,0,Y,,Grove,0,,0,Westerly,0,0,LP,0,1,168
,,,1,,1,1,0,0,0,,,,,,,,1,0,,,Y,,0,0,0,Y,41.37002108,-71.66593747,,2,Ninigret Park,,169,MUN,,1,1,1,,0,1,Y,,Park,0,,4,Charlestown,0,0,LP,0,0,169
,,,0,,4,2,0,0,0,,,,,,,,0,0,,,N,,0,0,0,Y,41.3672355,-71.81418735,,0,Cimalore Field,,170,MUN,,1,0,0,,0,0,N,,Wilson,0,,0,Westerly,0,0,AF,0,0,170
,,,1,,0,0,0,0,0,,,,,,,,0,0,,,N,,0,0,0,N,41.88010183,-71.55036864,,0,Deerfield Park,,171,MUN,,2,0,0,,0,4,N,,Lisa Ann,0,,0,Smithfield,0,1,LP,0,0,171
,,,1,,0,0,0,0,0,,,,,,,,0,0,,,Y,,0,0,0,N,41.69506959,-71.57399033,,0,Coventry Greenway And Bike Path,,172,MUN,,0,0,0,,0,0,N,,Main,0,,0,Coventry,0,0,LP,0,0,172
,,,0,,1,1,0,0,0,,,,,,,,0,0,,,N,,0,0,0,N,41.70989973,-71.56926145,,0,John J. Giblin Memorial Recreation Area,,173,MUN,,0,0,0,,0,0,N,,Hunters Crossing,0,,1,Coventry,0,0,LP,0,0,173
,,,0,,0,0,1,0,0,,,,,,,,0,0,,,Y,,0,0,0,Y,41.37555167,-71.55058944,,0,South Kingstown Town Beach,,174,MUN,,0,0,1,,0,0,Y,,Matunuck Beach,0,,0,South Kingstown,0,0,LP,0,0,174
,,,1,,0,0,0,0,0,,,,,,,,0,0,,,N,,0,0,0,N,41.63512808,-71.46955856,,0,River Farm Fitness Stations,,175,MUN,,0,0,0,,0,0,N,,Franklin,0,,0,East Greenwich,0,0,LP,0,0,175
,,,0,,2,1,0,0,0,,,,,,,,0,0,,,N,,0,0,0,N,41.72704779,-71.2537063,,0,Veteran's Field,,176,MUN,,1,0,0,,0,0,N,,Asylum,0,,0,Warren,0,0,LP,0,0,176
,,,0,,1,0,0,0,0,,,,,,,,0,1,,,Y,,0,0,0,N,41.72505231,-71.26117284,,1,Britto's Park,,177,MUN,,0,0,0,,0,1,N,,Unnamed,0,,0,Warren,0,0,LP,0,0,177
,,,1,,1,0,0,0,0,,,,,,,,0,0,,,Y,,0,0,0,N,41.72736375,-71.25711183,,0,Cole Avenue Field,,178,MUN,,0,0,1,,0,1,N,,Hugh Cole,0,,0,Warren,1,0,LP,0,0,178
,,,0,,0,0,0,0,0,,,,,,,,1,0,,,N,,0,0,1,N,41.99940587,-71.51463864,,0,River Island Park,,179,MUN,,0,0,0,,0,0,Y,,Truman,0,,0,Woonsocket,0,0,LP,0,0,179
,,,0,,0,0,0,0,0,,,,,,,,0,0,,,N,,0,0,0,Y,41.45285822,-71.44596176,,0,Bridgepoint Commons,,180,MUN,,0,0,0,,0,0,Y,,Bridgepoint,0,,0,Narragansett,0,0,CA,0,0,180
,,,0,,0,0,0,0,0,,,,,,,,0,0,,,N,,0,0,0,N,41.43141941,-71.46008589,,0,Loontjens Library Park,,181,MUN,,0,0,0,,0,0,N,,Kingstown,0,,0,Narragansett,0,0,LP,0,0,181
,,,1,,1,1,0,0,0,,,,,,,,0,0,,,N,,0,0,0,N,41.79032642,-71.42553268,,0,Ardoene Park,,182,MUN,,1,0,0,,0,0,N,,Ardoene,0,,0,Providence,0,0,LP,0,0,182
,,,0,,0,0,0,0,0,,,,,,,,0,0,,,N,,0,0,0,N,41.83371701,-71.42147994,,0,Boyle Square,,183,MUN,,0,0,0,,0,0,N,,Orms,0,,0,Providence,0,0,LP,0,0,183
,,,0,,0,0,0,0,0,,,,,,,,0,0,,,N,,0,0,0,N,41.82384759,-71.42690193,,0,DePasquale Plaza,,184,MUN,,0,0,0,,0,0,N,,De Pasquale,0,,0,Providence,0,0,LP,0,0,184
,,,1,,0,0,0,0,0,,,,,,,,0,0,,,N,,0,0,0,N,41.79313318,-71.41650553,,0,Amos Earley Park,,185,MUN,,0,0,0,,0,1,Y,,Cadillac,0,,1,Providence,0,0,LP,0,0,185
,,,0,,0,0,0,0,0,,,,,,,,0,0,,,N,,0,0,0,N,41.82530215,-71.44314758,,0,Mount Pleasant Memorial Park,,186,MUN,,0,0,0,,0,0,N,,Newark,0,,0,Providence,0,0,LP,0,0,186
,,,0,,0,0,0,0,0,,,,,,,,1,0,,,N,,0,0,0,N,41.78910569,-71.43523232,,0,Murphy-Trainor Park,,187,MUN,,0,0,0,,0,0,N,,Niantic,0,,0,Providence,0,0,LP,0,0,187
,,,1,,0,1,0,0,0,,,,,,,,0,0,,,N,,0,0,0,N,41.85448043,-71.3998226,,0,Ninth St. Park,,188,MUN,,0,0,0,,0,0,N,,9th,0,,1,Providence,0,0,LP,0,0,188
,,,0,,0,0,0,0,0,,,,,,,,0,0,,,N,,0,0,0,N,41.81263186,-71.41654073,,0,Pearl St. Park,,189,MUN,,1,0,0,,0,0,N,,Providence,0,,0,Providence,0,0,LP,0,0,189
,,,0,,0,0,0,0,0,,,,,,,,0,0,,,N,,0,0,0,N,41.84952876,-71.39775158,,0,Rochambeau Square,,190,MUN,,0,0,0,,0,0,N,,Brewster,0,,0,Providence,0,0,LP,0,0,190
,,,0,,0,0,0,0,0,,,,,,,,0,0,,,N,,0,0,0,N,41.82358597,-71.42948278,,0,St. John's Park,,191,MUN,,0,0,0,,0,0,N,,Atwells,0,,0,Providence,0,0,LP,0,0,191
,,,0,,0,0,0,0,0,,,,,,,,0,0,,,N,,0,0,0,N,41.85375878,-71.39655429,,0,Summit Ave. Park,,192,MUN,,1,0,0,,0,0,Y,,Summit,0,,0,Providence,0,0,LP,0,0,192
,,,0,,0,0,0,0,0,,,,,,,,0,0,,,N,,0,0,0,N,41.46687696,-71.32343424,,0,Ballard Park,,193,MUN,,0,0,0,,0,0,N,,Wickham,0,,0,Newport,0,0,CA,0,0,193
,,,1,,5,0,0,0,0,,,,,,,,0,0,,,Y,,0,0,0,Y,41.88639259,-71.34528756,,1,Doreen Tomlinson Complex,,194,STA,,0,0,1,,0,1,N,,Daggett,0,,0,Pawtucket,0,0,AF,0,0,194
,,,0,,0,0,0,0,0,,,,,,,,1,0,,,Y,,0,0,0,N,41.82976755,-71.34344604,,0,Turner Reservoir,,195,MUN,,0,0,0,,0,0,N,,Hunts Mill,0,,0,East Providence,0,1,LP,0,0,195
,,,0,,0,0,0,0,0,,,,,,,,1,0,,,N,,0,0,0,N,41.81756769,-71.38620717,,0,John L. Lewis Waterfront Park,,196,MUN,,0,0,0,,0,0,N,,Water,0,,0,East Providence,0,0,LP,0,0,196
,,,0,,0,0,0,0,0,,,,,,,,1,0,,,N,,0,0,0,N,41.66208737,-71.27254513,,0,Walley Park,,197,MUN,,0,0,0,,0,0,Y,,Hope,0,,0,Bristol,0,0,LP,0,0,197
,,,1,,2,0,0,0,0,,,,,,,,0,0,,,N,,0,0,0,N,41.16404036,-71.57596282,,0,Heinz Field,,198,MUN,,0,0,0,,0,1,Y,,Old Center,0,,0,New Shoreham,0,0,LP,0,0,198
,,,1,,1,0,0,0,1,,,,,,,,1,0,,,Y,,0,0,0,N,41.73586873,-71.31315699,,0,Veterans Memorial Park,,199,MUN,,0,0,0,,0,0,N,,Veterans Park,0,,0,Barrington,0,1,LP,0,0,199
,,,1,,1,2,0,0,0,,,,,,,,0,1,,,Y,,0,0,0,Y,41.88519239,-71.40245514,,1,Higginson Avenue Sports Complex,,200,MUN,,0,0,1,,0,1,Y,,Crow Point,0,,0,Central Falls,1,0,LP,0,0,200
,,,1,,1,0,0,0,0,,,,,,,,0,0,,,N,,0,0,0,N,41.89359393,-71.3841876,,1,Macomber Stadium,,201,MUN,,0,0,0,,0,1,N,,Blackstone,0,,0,Central Falls,0,0,LP,0,0,201
,,,1,,4,2,0,1,0,,,,,,,,0,0,,,Y,,0,0,0,Y,41.69276337,-71.56969147,,0,Herbert F. Paine Memorial Park,,202,MUN,,1,0,0,,1,0,Y,,Main,0,,4,Coventry,0,0,LP,0,1,202
,,,1,,1,0,0,0,0,,,,,,,,0,1,,,N,,0,0,0,N,41.69451121,-71.55582822,,1,Rice Memorial Field,,203,MUN,,0,0,0,,0,1,Y,,Knotty Oak,0,,0,Coventry,0,0,LP,0,0,203
,,,1,,4,0,0,0,0,,,,,,,,0,0,,,Y,,0,0,0,N,41.74681344,-71.47229938,,0,Brayton Ave. Field,,204,MUN,,1,0,1,,0,0,N,,Unnamed,0,,0,Cranston,0,0,LP,0,1,204
,,,1,,3,1,0,0,0,,,,,,,,0,0,,,Y,,0,0,0,N,41.77221325,-71.41453689,,1,Park View Field,,205,MUN,,1,0,1,,0,0,Y,,Park View,0,,4,Cranston,0,0,LP,0,1,205
,,,1,,0,1,0,0,0,,,,,,,,0,0,,,N,,0,0,0,N,41.73603174,-71.46220355,,1,Mayfield Ave. Field,,206,MUN,,11,0,0,,0,1,N,,Pontiac,0,,0,Cranston,0,0,LP,0,0,206
,,,1,,2,1,0,0,0,,,,,,,,0,0,,,N,,0,0,0,Y,41.77416219,-71.35093405,,2,Riverside Athletic &  Recreation Area,,207,MUN,,1,0,0,,0,0,Y,,Somerset,0,,0,East Providence,0,0,AF,0,0,207
,,,1,,2,2,0,0,0,,,,,,,,0,0,,,N,,0,0,0,N,41.80514827,-71.35511371,,1,Kent Heights Athletic And Recreation Area,,208,MUN,,1,0,0,,0,1,N,,Clyde,0,,2,East Providence,0,0,LP,0,0,208
,,,1,,2,2,0,0,0,,,,,,,,0,0,,,N,,0,0,0,Y,41.8150985,-71.36610579,,1,Hull St Athletic And Recreation Area,,209,MUN,,1,0,0,,0,1,Y,,Agnes,0,,0,East Providence,0,0,AF,0,0,209
,,,1,,4,2,0,0,0,,,,,,,,0,0,,,Y,,0,0,0,N,41.81060238,-71.38240482,,1,Pierce Field Athletic Complex,,210,MUN,,1,0,1,,0,0,Y,,Mercer,0,,2,East Providence,1,0,AF,0,0,210
,,,1,,3,2,0,0,0,,,,,,,,0,0,,,N,,0,0,0,N,41.91381814,-71.67330195,,1,Glocester Memorial Park,,211,MUN,,1,0,0,,1,0,N,,Adelaide,0,,2,Glocester,0,0,LP,0,0,211
,,,1,,2,0,0,0,0,,,,,,,,0,0,,,N,,0,0,0,Y,41.43500669,-71.46976909,,0,Sprague Field,,212,MUN,,1,0,0,,0,0,N,,Kingstown,0,,5,Narragansett,0,1,LP,0,0,212
,,,1,,1,1,0,0,0,,,,,,,,0,0,,,N,,0,0,0,Y,41.38932645,-71.48645371,,0,George C. Playfield,,213,MUN,,1,0,0,,0,0,N,,Point Judith,0,,2,Narragansett,0,0,LP,0,0,213
,,,1,,2,0,0,0,0,,,,,,,,0,0,,,N,,0,0,0,Y,41.48192315,-71.30499357,,1,Freebody Park,,214,MUN,,1,0,0,,0,1,Y,,Middleton,0,,0,Newport,0,0,LP,0,0,214
,,,1,,1,0,0,0,0,,,,,,,,0,0,,,N,,0,0,0,N,41.49924481,-71.3186689,,1,Hunter Park,,215,MUN,,1,0,0,,0,1,N,,Van Zandt,0,,2,Newport,0,0,LP,0,0,215
,,,1,,2,0,0,0,1,,,,,,,,1,0,,,Y,,0,0,0,N,41.47654996,-71.31980592,,0,King Park,,216,MUN,,1,0,1,,0,0,Y,,Wellington,0,,0,Newport,0,0,LP,0,0,216
,,,1,,2,2,0,0,0,,,,,,,,0,0,,,N,,0,0,0,N,41.46824753,-71.31657046,,1,Murphy Field,,217,MUN,,0,0,0,,0,1,N,,Carroll,0,,2,Newport,0,0,LP,0,0,217
,,,1,,1,2,0,0,0,,,,,,,,0,0,,,N,,0,0,0,Y,41.85091398,-71.46439147,,0,Evans Memorial Park,,218,MUN,,1,0,0,,0,0,N,,Smith,0,,0,North Providence,0,0,LP,0,0,218
,,,1,,3,1,0,0,0,,,,,,,,0,0,,,Y,,0,0,0,Y,41.86743701,-71.4102577,,1,Fairlawn Veterans' Park,,219,MUN,,1,1,1,,0,1,Y,,Legion,0,,4,Pawtucket,0,0,LP,0,0,219
,,,1,,0,1,0,0,0,,,,,,,,0,1,,,N,,0,0,0,N,41.8813863,-71.37923328,,1,Coutu Memorial Field,,220,MUN,,0,0,0,,0,1,N,,Fountain,0,,0,Pawtucket,0,0,AF,0,0,220
,,,1,,3,2,0,0,0,,,,,,,,0,0,,,N,,0,0,0,Y,41.86426661,-71.36805787,,0,Hank Soars Complex,,221,MUN,,1,0,0,,0,0,N,,Rocco,0,,0,Pawtucket,0,0,LP,0,0,221
,,,1,,1,0,0,0,0,,,,,,,,0,0,,,N,,0,0,0,N,41.85298983,-71.40506188,,0,Collyer Park,,222,MUN,,1,0,0,,0,0,N,,Collyer,0,,0,Providence,0,0,LP,0,0,222
,,,1,,2,0,0,0,0,,,,,,,,1,0,,,N,,0,0,0,Y,41.82382257,-71.388622,,1,Gano St. Park,,223,MUN,,0,0,0,,0,1,Y,,Power,0,,2,Providence,0,0,LP,0,0,223
,,,0,,1,1,0,0,0,,,,,,,,0,0,,,Y,,0,0,0,N,41.82117529,-71.44671035,,0,Joslin Playground,,224,MUN,,1,1,0,,0,0,N,,Kossuth,0,,0,Providence,0,0,LP,0,0,224
,,,1,,0,2,0,0,0,,,,,,,,0,0,,,N,,0,0,0,N,41.82022963,-71.45413944,,1,Merino Park,,225,MUN,,1,0,0,,0,0,N,,Heath,0,,0,Providence,0,0,LP,0,0,225
,,,1,,2,1,0,0,0,,,,,,,,0,0,,,Y,,0,0,0,Y,41.8141905,-71.46331751,,0,Neutaconkanut Park,,226,MUN,,1,1,0,,1,0,Y,,Killingly,0,,0,Providence,0,1,LP,0,0,226
,,,1,,2,0,0,0,0,,,,,,,,1,0,,,Y,,0,0,0,N,41.44620996,-71.48843399,,0,Old Mountain Field,,227,MUN,,1,0,0,,1,0,Y,,Kingstown,1,,4,South Kingstown,0,1,LP,0,0,227
,,,1,,2,2,0,0,0,,,,,,,,0,0,,,N,,0,0,0,N,41.48870802,-71.56810801,,1,West Kingston Park,,228,MUN,,1,0,0,,0,1,Y,,Kingstown,0,,2,South Kingstown,0,0,LP,2,0,228
,,,1,,3,0,0,0,0,,,,,,,,0,0,,,Y,,0,0,0,N,41.58292839,-71.19211558,,2,Town Farm Recreation Area,,229,MUN,,1,0,0,,0,1,Y,,Main,0,,4,Tiverton,0,0,LP,0,1,229
,,,1,,1,2,0,0,0,,,,,,,,1,0,,,N,,0,0,0,Y,41.73189948,-71.27759027,,1,Jamiel Park,,230,MUN,,0,0,0,,0,1,Y,,Wood,1,,2,Warren,0,0,LP,0,0,230
,,,1,,1,1,0,0,0,,,,,,,,0,0,,,N,,0,0,0,Y,41.69621129,-71.37146447,,0,Palmer Ave. Field,,231,MUN,,1,0,0,,0,0,N,,Standish,0,,0,Warwick,0,0,LP,0,0,231
,,,1,,1,1,1,0,1,,,,,,,,1,0,,,Y,,0,0,0,Y,41.68513423,-71.39643398,,1,Oakland Beach Park,,232,MUN,,1,0,1,,0,0,Y,,Burr,0,,0,Warwick,0,0,LP,0,0,232
,,,1,,1,1,0,0,0,,,,,,,,0,0,,,N,,0,0,0,Y,41.71829995,-71.37940713,,0,Clegg Field,,233,MUN,,1,0,0,,0,0,N,,Winter,0,,0,Warwick,0,0,LP,0,0,233
,,,1,,4,2,0,1,0,,,,,,,,0,0,,,Y,,0,0,0,Y,41.6926006,-71.41248189,,0,City Park,,234,MUN,,1,0,1,,0,2,Y,,Warwick Park,0,,0,Warwick,0,0,LP,0,1,234
,,,1,,2,1,0,0,0,,,,,,,,0,0,,,N,,0,0,0,Y,41.75056228,-71.39993,,1,Whittaker Field,,235,MUN,,1,0,0,,0,1,N,,Monroe,0,,1,Warwick,0,0,LP,0,0,235
,,,0,,6,0,0,0,0,,,,,,,,0,0,,,N,,0,0,0,Y,41.70840196,-71.44213496,,0,Winslow Softball Field,,236,MUN,,0,0,0,,0,0,N,,Taft,0,,0,Warwick,0,0,LP,0,0,236
,,,1,,3,0,0,0,0,,,,,,,,0,0,,,Y,,0,0,0,N,41.72627732,-71.4952641,,0,Natick Fields,,237,MUN,,0,0,0,,0,0,N,,Crossland,0,,1,West Warwick,0,0,LP,0,0,237
,,,1,,5,2,0,1,0,,,,,,,,1,0,,,Y,,0,0,0,Y,41.71751213,-71.51524934,,0,Riverpoint Park,,238,MUN,,20,0,1,,0,3,Y,,Hay,0,,0,West Warwick,0,0,AF,0,1,238
,,,1,,1,1,0,0,0,,,,,,,,0,0,,,N,,0,0,0,N,41.38621828,-71.82185969,,0,Craig Field,,239,MUN,,1,0,0,,0,1,Y,,Mountain,0,,0,Westerly,0,0,LP,0,0,239
,,,1,,1,1,0,0,0,,,,,,,,0,0,,,N,,0,0,0,Y,41.37805785,-71.6041994,,1,Green Hill Park,,240,MUN,,1,0,0,,0,1,N,,Maple,0,,2,South Kingstown,0,0,LP,0,0,240
,,,1,,1,0,0,0,0,,,,,,,,0,0,,,N,,0,0,0,N,41.50945205,-71.27376465,,0,Berkeley / Peckham Memorial Field,,241,MUN,,1,0,0,,0,0,N,,Green End,0,,0,Middletown,0,0,LP,0,0,241
,,,0,,0,0,0,0,0,,,,,,,,0,0,,,N,,0,0,0,N,41.45198699,-71.65837603,,0,Grand Pre Park,,242,MUN,,0,0,0,,0,0,N,,Carolina Back,0,,0,Charlestown,0,0,LP,0,0,242
,,,0,,0,0,0,0,0,,,,,,,,0,0,,,N,,0,0,0,N,41.44275241,-71.63615609,,1,Hargrave Park,,243,MUN,,1,0,0,,0,0,N,,Columbia Heights,0,,0,Charlestown,0,0,LP,0,0,243
,,,0,,1,0,0,0,0,,,,,,,,0,0,,,N,,0,0,0,Y,41.44791261,-71.65470428,,0,Wicklund Park,,244,MUN,,0,0,0,,0,0,N,,Carolina Back Road,0,,2,Charlestown,0,0,LP,0,0,244
,,,1,,0,0,0,0,0,,,,,,,,0,0,,,Y,,0,1,0,N,41.98720971,-71.64867624,,0,Black Hut Management Area,,245,STA,,0,0,0,,0,0,N,,Glen Meadow,0,,0,Burrillville,0,1,MA,0,0,245
,,,0,,0,0,0,0,0,,,,,,,,0,0,,,N,,0,0,0,N,41.95736126,-71.70163735,,0,Veteran's Memorial Park,,246,MUN,,0,0,0,,0,0,N,,Pascoag Main,0,,0,Burrillville,0,0,LP,0,0,246
,,,1,,1,0,0,0,0,,,,,,,,0,0,,,N,,0,0,0,N,41.78539747,-71.45282198,,0,Ricci Field,,247,MUN,,0,0,0,,0,0,Y,,Duckworth,0,,0,Cranston,0,0,LP,0,0,247
,,,1,,0,2,0,0,0,,,,,,,,0,0,,,Y,,0,0,0,Y,41.77068351,-71.42990723,,1,Doric Ave / Osler Field,,248,MUN,,1,0,1,,0,1,Y,,Doric,0,,1,Cranston,0,0,LP,0,1,248
,,,1,,0,1,0,0,0,,,,,,,,0,0,,,N,,0,0,0,Y,41.78110037,-71.43143461,,0,Dutemple / McKenna Park,,249,MUN,,1,0,0,,0,0,N,,Beckwith,0,,0,Cranston,0,0,LP,0,0,249
,,,1,,2,0,0,0,0,,,,,,,,1,0,,,N,,0,0,0,N,41.55488859,-71.25047597,,10,Glen Farm Recreation Area,,250,MUN,,0,0,0,,0,10,N,,Linden,0,,0,Portsmouth,0,0,LP,0,0,250
,,,1,,1,1,0,0,0,,,,,,,,0,0,,,N,,0,0,0,Y,41.69781905,-71.53947262,,0,Quidnick Ballfield,,251,MUN,,1,0,0,,0,0,N,,Knight,0,,0,Coventry,0,0,LP,0,0,251
,,,2,,0,1,0,0,0,,,,,,,,0,0,,,N,,0,0,0,N,41.67999805,-71.25551024,,0,Coelho Park,,252,MUN,,1,0,0,,0,0,N,,Berry,0,,0,Bristol,0,0,LP,0,0,252
,,,1,,0,0,0,0,0,,,,,,,,0,0,,,N,,0,0,0,N,41.6853303,-71.26974525,,0,Paul Park/Ramos Field,,253,MUN,,0,0,0,,0,0,Y,,Sherry,0,,0,Bristol,0,0,LP,0,0,253
,,,1,,0,0,0,0,0,,,,,,,,0,1,,,N,,0,0,0,N,41.38689995,-71.80600975,,1,Westerly Peewee Football,,254,PRV,,0,0,0,,0,1,N,,Old Hopkinton,0,,0,Westerly,0,0,AF,0,0,254
,,,0,,0,0,0,0,0,,,,,,,,0,0,,,N,,0,0,0,N,41.62613144,-71.40336571,,0,Calf Pasture Point,,255,MUN,,0,0,0,,0,0,N,,Unnamed,0,,0,North Kingstown,0,0,LP,0,0,255
,,,1,,0,0,0,0,1,,,,,,,,1,0,,,N,,0,0,0,N,41.50638201,-71.45254419,,0,Laforge Point Park,,256,MUN,,0,0,0,,0,0,N,,Walmsley,0,,0,North Kingstown,0,0,LP,0,0,256
,,,0,,0,0,0,0,0,,,,,,,,0,0,,,N,,0,0,0,N,41.91485381,-71.3994346,,0,Blackstone Memorial Park,,257,MUN,,0,0,0,,0,0,N,,Blackstone,0,,0,Cumberland,0,0,LP,0,0,257
,,,1,,1,0,0,0,0,,,,,,,,0,0,,,N,,0,0,0,N,41.91727352,-71.39435082,,0,High Street Field,,258,MUN,,0,0,0,,0,0,N,,High,0,,0,Cumberland,0,0,AF,0,0,258
,,,0,,0,0,0,0,0,,,,,,,,1,0,,,N,,0,0,0,N,41.90009926,-71.38935583,,0,Valley Falls Heritage Park,,259,MUN,,0,0,0,,0,0,Y,,Mill,0,,0,Cumberland,0,0,LP,0,0,259
,,,1,,1,0,0,0,0,,,,,,,,0,0,,,N,,0,0,0,Y,42.01554502,-71.5080954,,0,PriviIege Street Field,,260,MUN,,0,0,0,,0,0,N,,Privilege,0,,0,Woonsocket,0,0,LP,0,0,260
,,,1,,2,0,0,0,0,,,,,,,,1,0,,,N,,0,0,0,Y,42.01412593,-71.5305695,,1,Kelly Park / River Meadows,,261,MUN,,0,0,0,,0,0,Y,,Canal,0,,0,North Smithfield,0,0,LP,0,0,261
,,,1,,0,0,0,0,1,,,,,,,,1,0,,,Y,,0,0,0,N,42.01312872,-71.44660116,,0,Carl's Pond,,262,STA,,0,0,0,,0,0,N,,Jencks,0,,0,Cumberland,0,0,FB,0,0,262
,,,0,,0,0,0,0,0,,,,,,,,0,0,,,Y,,0,0,0,Y,42.01398697,-71.54062787,,0,St Paul / Waterford Playground,,263,MUN,,1,0,0,,0,0,N,,Saint Paul,0,,0,North Smithfield,0,0,LP,0,0,263
,,,0,,0,0,0,0,0,,,,,,,,1,0,,,Y,,0,1,0,N,41.99706348,-71.78728439,,0,Buck Hill Management Area,,264,STA,,0,0,0,,0,0,N,,Benson Mountain,0,,0,Burrillville,0,1,MA,0,0,264
,,,1,,0,1,0,0,0,,,,,,,,0,0,,,Y,,0,0,0,N,42.00706746,-71.49996486,,0,Kendrick Ave. Playlot,,265,MUN,,1,0,0,,0,0,N,,Kendrick,0,,0,Woonsocket,0,0,LP,0,0,265
,,,1,,2,1,0,0,0,,,,,,,,1,0,,,Y,,0,0,0,Y,42.00384364,-71.48963718,,3,Cass Park,,266,MUN,,1,0,0,,0,3,Y,,Newland,0,,5,Woonsocket,1,0,LP,0,1,266
,,,1,,2,0,0,0,0,,,,,,,,0,0,,,Y,,0,0,0,Y,41.99959722,-71.41804724,,2,Diamond Hill Park,,267,MUN,,0,0,0,,0,2,Y,,Diamond Hill,0,,0,Cumberland,0,1,LP,0,0,267
,,,0,,0,0,0,0,0,,,,,,,,0,0,,,N,,0,0,0,Y,42.00356381,-71.53278462,,0,Rhodes Ave Conservation Area,,268,MUN,,0,0,0,,0,0,Y,,Rhodes,0,,0,Woonsocket,0,0,CA,0,0,268
,,,1,,1,2,0,0,0,,,,,,,,0,0,,,N,,0,0,0,Y,42.00065905,-71.52381104,,0,Costa Park,,269,MUN,,1,0,0,,0,0,Y,,Olo,0,,0,Woonsocket,0,0,LP,0,0,269
,,,1,,1,0,0,0,0,,,,,,,,0,0,,,N,,0,0,0,Y,42.00180914,-71.57568695,,0,Kendall-Dean Field,,270,MUN,,0,0,0,,0,0,N,,Greene,0,,0,North Smithfield,0,1,SC,0,0,270
,,,0,,0,0,0,0,0,,,,,,,,0,0,,,N,,0,0,0,N,42.00004095,-71.57904964,,0,Margaret F. Carroll Park,,271,MUN,,0,0,0,,0,0,N,,Main,0,,0,North Smithfield,0,1,LP,0,0,271
,,,1,,1,0,0,0,0,,,,,,,,0,0,,,N,,0,0,0,N,42.00157932,-71.48334501,,0,Lemoureux Field,,272,MUN,,0,0,0,,0,0,N,,Alysworth,0,,0,Woonsocket,0,0,LP,0,0,272
,,,1,,1,1,0,0,0,,,,,,,,0,0,,,N,,0,0,0,Y,41.98979979,-71.51144853,,0,Bernon Memorial Park,,273,MUN,,1,0,0,,0,0,N,,Kermit,0,,2,Woonsocket,0,0,LP,0,0,273
,,,1,,1,0,0,0,0,,,,,,,,0,0,,,N,,0,0,0,N,41.98644798,-71.52281194,,0,Globe Park,,274,MUN,,0,0,0,,0,0,Y,,Providence,0,,0,Woonsocket,0,0,LP,0,0,274
,,,0,,0,0,0,0,0,,,,,,,,0,0,,,N,,0,0,0,N,41.99563505,-71.47309381,,0,Iron Rocks Conservation Area,,275,MUN,,0,0,0,,0,0,N,,Park,0,,0,Woonsocket,0,0,CA,0,0,275
,,,0,,0,0,0,0,0,,,,,,,,0,0,,,N,,0,0,0,Y,41.98810341,-71.53242664,,1,Milton Ave / Union Village Playground,,276,MUN,,1,0,0,,0,0,N,,Milton,0,,0,North Smithfield,0,0,LP,0,0,276
,,,1,,3,0,0,0,0,,,,,,,,0,1,,,Y,,0,0,0,N,41.98605713,-71.51870073,,2,Barry Memorial Field,,277,MUN,,0,0,1,,0,2,N,,Smithfield,0,,0,Woonsocket,0,0,AF,0,0,277
,,,0,,0,0,0,0,0,,,,,,,,0,0,,,N,,0,0,0,Y,41.98259493,-71.50159417,,0,Booth Pond Conservation Area,,278,MUN,,0,0,0,,0,0,N,,Jillson,0,,0,Woonsocket,0,0,CA,0,0,278
,,,1,,1,0,0,0,0,,,,,,,,0,0,,,N,,0,0,0,N,41.97454242,-71.46141549,,1,Cumberland Hill School,,279,SCH,,1,0,0,,0,1,N,,Manville Hill,0,,0,Cumberland,0,0,SC,0,0,279
,,,1,,1,1,0,0,0,,,,,,,,0,0,,,N,,0,0,0,N,41.96745092,-71.66116598,,1,Burrillville High School,,280,SCH,,0,0,0,,0,2,N,,Whipple,0,,4,Burrillville,0,0,SC,0,0,280
,,,1,,1,1,0,0,0,,,,,,,,0,0,,,N,,0,0,0,N,41.97035423,-71.68173178,,1,Callahan School,,281,SCH,,0,0,0,,0,1,N,,Callahan School,0,,0,Burrillville,0,0,SC,0,0,281
,,,1,,0,0,0,0,0,,,,,,,,1,0,,,N,,0,0,0,N,41.96612845,-71.67449837,,0,Town Common / Bicentennial Park,,282,MUN,,1,0,0,,0,0,N,,Steere,0,,0,Burrillville,0,0,LP,0,0,282
,,,1,,2,0,0,0,0,,,,,,,,0,1,,,N,,0,0,0,N,41.96418935,-71.44909281,,2,Cumberland High School Farm Drive Field,,283,MUN,,0,0,0,,0,1,N,,Mendon,0,,0,Cumberland,0,0,SC,0,0,283
,,,0,,0,0,0,0,0,,,,,,,,1,0,,,N,,0,0,0,N,41.96500252,-71.71458006,,0,Whitemill Property,,284,MUN,,0,0,0,,0,0,Y,,Wallum Lake,0,,0,Burrillville,0,0,LP,0,0,284
,,,0,,0,0,0,0,0,,,,,,,,0,0,,,N,,0,0,0,N,41.96329052,-71.46847795,,0,Northern Lincoln Elementary,,285,SCH,,1,0,0,,0,0,N,,New River,0,,0,Lincoln,0,0,SC,0,0,285
,,,1,,4,1,0,0,0,,,,,,,,0,0,,,N,,0,0,0,N,41.96454653,-71.70935789,,0,Hauser Memorial Field,,286,MUN,,1,0,0,,0,0,Y,,Howard,0,,0,Burrillville,0,0,LP,0,0,286
,,,1,,1,1,0,0,0,,,,,,,,0,0,,,N,,0,0,0,Y,41.95225512,-71.45906214,,0,Albion Playground,,287,MUN,,0,0,0,,0,0,N,,Berkshire,0,,0,Lincoln,0,0,LP,0,0,287
,,,1,,1,0,0,0,0,,,,,,,,0,0,,,N,,0,0,0,N,41.9469985,-71.42746977,,0,Ashton School,,288,MUN,,1,0,0,,0,0,N,,Scott,0,,0,Cumberland,0,0,SC,0,0,288
,,,0,,0,0,0,0,0,,,,,,,,0,0,,,Y,,0,0,0,Y,41.93570732,-71.40973156,,0,Monastery,,289,MUN,,1,0,0,,0,0,N,,Diamond Hill,0,,0,Cumberland,0,1,LP,0,0,289
,,,1,,0,0,0,0,0,,,,,,,,0,0,,,Y,,0,0,0,N,41.91162597,-71.40835476,,0,Blackstone Bikeway,,290,STA,,0,0,0,,0,0,N,,Farnworth,0,,0,Lincoln,0,0,SP,0,1,290
,,,1,,0,0,0,0,0,,,,,,,,1,0,,,Y,,0,1,0,Y,41.94266103,-71.7685075,,0,George Washington Management Area,,291,STA,,0,0,0,,0,0,N,,Richardson,0,,0,Burrillville,0,1,MA,0,0,291
,,,1,,1,0,0,0,0,,,,,,,,0,0,,,N,,0,0,0,N,41.92814501,-71.40279258,,0,Garvin Field,,292,SCH,,1,0,0,,0,0,N,,Lonsdale Farm,0,,0,Cumberland,0,0,SC,0,0,292
,,,0,,0,0,0,0,0,,,,,,,,0,0,,,N,,0,0,0,Y,41.92401795,-71.55304302,,0,Mowry Conservation Area,,293,MUN,,0,0,0,,0,0,N,,Farnum Pike,0,,0,Smithfield,0,0,CA,0,0,293
,,,0,,0,0,0,0,0,,,,,,,,0,0,,,Y,,0,0,0,Y,41.91281288,-71.53817926,,0,Washington Grove,,294,STA,,0,0,0,,0,0,N,,Washington,0,,0,Smithfield,0,0,SP,0,0,294
,,,0,,0,0,0,0,0,,,,,,,,1,0,,,N,,0,0,0,N,41.90690448,-71.4325523,,0,Butterfly Pond Area,,295,MUN,,0,0,0,,0,0,N,,Butterfly,0,,0,Lincoln,0,0,LP,0,0,295
,,,0,,0,0,0,0,0,,,,,,,,1,0,,,Y,,0,0,0,Y,41.90761051,-71.54101704,,0,Woonasquatucket Reservoir,,296,STA,,0,0,0,,0,0,N,,Farnum Pike,0,,0,Smithfield,0,0,FB,0,0,296
,,,1,,1,0,0,0,0,,,,,,,,0,0,,,N,,0,0,0,N,41.9089914,-71.39502326,,0,BF Norton School,,297,SCH,,1,0,0,,0,0,Y,,Broad,0,,0,Cumberland,0,0,SC,0,0,297
,,,0,,0,0,0,0,0,,,,,,,,0,0,,,Y,,0,1,0,Y,41.90439763,-71.74745167,,0,Durfee Hill Management Area,,298,STA,,0,0,0,,0,0,N,,Willie Woodhead,0,,0,Glocester,0,1,MA,0,0,298
,,,0,,0,0,0,0,0,,,,,,,,0,0,,,Y,,0,0,0,Y,41.90922216,-71.42516672,,0,Chase Farm Conservation Area,,299,MUN,,0,0,0,,0,0,Y,,Hollywood,0,,0,Lincoln,0,1,CA,0,1,299
,,,1,,1,0,0,0,0,,,,,,,,0,0,,,N,,0,0,0,N,41.89886084,-71.50394691,,0,Raymond C. Laperche Elem. Sch.,,300,SCH,,1,0,0,,0,0,N,,Limerock,0,,0,Smithfield,0,0,SC,0,0,300
,,,0,,0,0,0,0,0,,,,,,,,0,0,,,N,,0,0,0,N,41.89648928,-71.4140903,,0,Barney Pond Area,,301,MUN,,0,0,0,,0,0,N,,Smithfield,0,,0,Lincoln,0,0,LP,0,0,301
,,,0,,0,0,0,0,0,,,,,,,,0,0,,,N,,0,0,0,Y,41.89214725,-71.39513818,,0,Illinois St. Playground,,302,MUN,,1,0,0,,0,0,Y,,Illinois,0,,0,Central Falls,0,0,LP,0,0,302
,,,1,,1,1,0,0,0,,,,,,,,0,0,,,N,,0,0,0,Y,41.89222464,-71.41318056,,1,Sullivan Field,,303,MUN,,1,0,0,,0,0,N,,Woodland,0,,0,Lincoln,0,0,LP,0,0,303
,,,1,,0,0,1,0,1,,,,,,,,1,0,,,Y,,0,0,0,N,41.89053593,-71.50851584,,0,Georgiaville Beach,,304,MUN,,0,0,1,,0,0,N,,Stillwater,0,,0,Smithfield,0,0,LP,0,0,304
,,,1,,0,2,0,0,0,,,,,,,,0,0,,,N,,0,0,0,N,41.89197283,-71.371231,,0,John St. Playground,,305,MUN,,1,0,0,,0,0,Y,,John,0,,0,Pawtucket,0,0,LP,0,0,305
Yes,http://www.riparks.com/Locations/LocationLincolnWoods.html,627 acres,1,Lincoln Woods State Park,1,0,0,0,1,Lincoln Woods,,,(401) 723-7892,,"This 627-acre park is located just outside of Providence. It includes all of Olney Pond and offers facilities used by thousand of visitors each year for picnicking, boating, baseball, freshwater, swimming, fishing, horseback riding and hiking. It is also very popular for jogging and walking. During the winter months it is popular for ice fishing, ice skating and snowmobiling.",Yes,1,0,,,Y,Yes,0,0,0,Y,41.89726179,-71.43139699,,1,Lincoln Woods,,306,STA,Yes,0,0,Yes,,0,0,N,,Lincoln Woods,0,Yes,0,Lincoln,0,1,SP,0,1,306
,,,0,,0,0,0,0,0,,,,,,,,0,0,,,N,,0,0,0,Y,41.88606529,-71.3952741,,0,Garfield St. Totlot,,307,MUN,,1,0,0,,0,0,N,,Garfield,0,,0,Central Falls,0,0,LP,0,0,307
,,,1,,1,0,0,0,0,,,,,,,,0,0,,,N,,0,0,0,N,41.88348055,-71.54341011,,0,Gallagher Junior High School,,308,SCH,,0,0,0,,0,0,N,,Indian Run,0,,0,Smithfield,0,0,SC,0,0,308
,,,1,,0,1,0,0,0,,,,,,,,0,0,,,N,,0,0,0,N,41.8823443,-71.51172625,,0,Old County Elementary School,,309,SCH,,1,0,0,,0,0,N,,Old County,0,,0,Smithfield,0,0,SC,0,0,309
,,,1,,1,2,0,0,0,,,,,,,,0,0,,,N,,0,0,0,N,41.88148146,-71.54110078,,0,McCabe Elementry School,,310,SCH,,1,0,0,,0,0,N,,Pleasant View,0,,0,Smithfield,0,0,SC,0,0,310
,,,1,,1,3,0,0,0,,,,,,,,0,0,,,N,,0,0,0,N,41.88146503,-71.41417495,,0,Fairlawn Playground,,311,MUN,,1,0,0,,1,0,Y,,Mcduff,0,,0,Lincoln,0,0,LP,0,0,311
,,,0,,0,0,1,0,0,,,,,,,,0,0,,,Y,,0,0,0,N,41.87961516,-71.62581788,,0,Marion Irons Beach,,312,MUN,,0,0,0,,0,0,N,,Snake Hill,0,,0,Glocester,0,0,LP,0,0,312
,,,0,,1,0,0,0,0,,,,,,,,0,0,,,N,,0,0,0,Y,41.87457105,-71.53623906,,0,Willow Field,,313,MUN,,0,0,0,,0,0,N,,Willow,0,,0,Smithfield,0,0,LP,0,0,313
,,,1,,0,2,0,0,0,,,,,,,,0,0,,,N,,0,0,0,Y,41.87601264,-71.41447733,,0,Smithfield Ave Playground,,314,MUN,,1,0,0,,0,0,Y,,Smithfield,0,,0,Pawtucket,0,0,LP,0,0,314
,,,1,,0,1,0,0,0,,,,,,,,0,0,,,N,,0,0,0,N,41.87530182,-71.37182855,,0,Jenks Jr High School,,315,SCH,,0,0,0,,1,0,N,,Division,0,,2,Pawtucket,0,0,SC,0,0,315
,,,1,,0,1,0,0,0,,,,,,,,0,0,,,N,,0,0,0,N,41.87454493,-71.40139141,,1,Slater School Playground,,316,SCH,,0,0,0,,0,1,N,,Mineral Spring,0,,0,Pawtucket,0,0,SC,0,0,316
,,,0,,0,0,0,0,0,,,,,,,,0,0,,,N,,0,0,0,Y,41.87448776,-71.37606847,,0,Ayotte Park / Novelty Park,,317,MUN,,1,0,0,,0,0,N,,Johnson,0,,0,Pawtucket,0,0,LP,0,0,317
,,,1,,1,0,0,0,0,,,,,,,,0,0,,,N,,0,0,0,N,41.86898437,-71.450707,,0,Birchwood School,,318,SCH,,0,0,0,,0,0,N,,Patricia,0,,0,North Providence,0,0,SC,0,0,318
,,,1,,0,0,0,0,0,,,,,,,,0,0,,,N,,0,0,0,N,41.86854946,-71.39626326,,0,Baldwin School,,319,SCH,,1,0,0,,0,0,N,,Randall,0,,0,Pawtucket,0,0,SC,0,0,319
,,,1,,0,1,0,0,0,,,,,,,,0,0,,,N,,0,0,0,N,41.8658034,-71.48793202,,0,Greystone Park,,320,MUN,,1,0,0,,0,0,N,,Elmore,0,,0,North Providence,0,0,LP,0,0,320
,,,1,,2,1,0,0,0,,,,,,,,0,0,,,N,,0,0,0,Y,41.86663561,-71.43144753,,0,Ivan St. Park,,321,MUN,,1,0,0,,0,0,N,,Washington,0,,1,North Providence,0,0,LP,0,0,321
,,,0,,0,0,1,0,0,,,,,,,,1,0,,,Y,,0,0,0,N,41.86526486,-71.55183922,,0,Greenlake Beach,,322,MUN,,0,0,1,,0,0,N,,Bayou,0,,0,Smithfield,0,0,LP,0,0,322
,,,1,,2,1,0,0,0,,,,,,,,1,0,,,Y,,0,0,0,N,41.86300335,-71.3764615,,1,McCarthy Park,,323,MUN,,1,0,0,,0,1,Y,,School,1,,3,Pawtucket,0,0,LP,0,0,323
,,,1,,0,1,0,0,0,,,,,,,,0,0,,,N,,0,0,0,Y,41.86413358,-71.38534982,,0,Duffy Complex,,324,MUN,,1,0,0,,0,0,Y,,Cleveland,0,,4,Pawtucket,0,0,AF,0,0,324
,,,1,,1,0,0,0,0,,,,,,,,0,1,,,N,,0,0,0,N,41.8590596,-71.45812492,,2,North Providence High School,,325,SCH,,0,0,0,,0,0,N,,Jackson,0,,0,North Providence,0,0,SC,0,0,325
,,,1,,2,0,0,0,0,,,,,,,,0,0,,,N,,0,0,0,N,41.85730518,-71.47685579,,0,Centerdale School,,326,SCH,,0,0,0,,0,0,N,,Brookside,0,,0,North Providence,0,0,SC,0,0,326
,,,0,,0,0,0,0,0,,,,,,,,0,0,,,Y,,0,1,0,Y,41.84130031,-71.5320006,,0,Snake Den State Park,,327,STA,,0,0,0,,0,0,N,,Hartford,0,,0,Johnston,0,1,CA,0,0,327
,,,0,,0,0,0,0,0,,,,,,,,0,0,,,Y,,0,0,0,Y,41.85471096,-71.39145097,,0,Lippitt Park,,328,MUN,,1,0,0,,0,0,N,,Hope,0,,0,Providence,0,0,LP,0,1,328
,,,0,,0,0,0,0,0,,,,,,,,0,0,,,N,,0,0,0,N,41.85621963,-71.41874411,,0,Windmill St. Playground,,329,MUN,,0,0,0,,0,0,N,,Windmill,0,,0,Providence,0,0,LP,0,0,329
,,,0,,0,0,0,0,0,,,,,,,,1,0,,,N,,0,0,0,Y,41.85867894,-71.42797712,,0,Canada Pond,,330,MUN,,0,0,0,,0,0,N,,Udell,0,,0,Providence,0,0,FB,0,0,330
,,,1,,0,1,0,0,0,,,,,,,,0,0,,,N,,0,0,0,Y,41.85397611,-71.46640681,,0,McGuire School,,331,MUN,,1,0,0,,0,0,N,,Central,0,,1,North Providence,0,0,LP,0,0,331
,,,1,,1,0,0,0,0,,,,,,,,0,0,,,N,,0,0,0,Y,41.85112505,-71.41880457,,0,Ascham St. Playground,,332,MUN,,1,0,0,,0,0,N,,Ascham,0,,0,Providence,0,0,LP,0,0,332
,,,1,,1,0,0,0,0,,,,,,,,0,0,,,Y,,0,0,0,N,41.85135922,-71.43286975,,1,Iola French Park,,333,MUN,,0,0,0,,0,0,N,,Stansbury,0,,0,Providence,0,0,LP,0,1,333
,,,1,,0,0,0,0,0,,,,,,,,0,0,,,Y,,0,0,0,N,41.84820321,-71.47159759,,3,Ricci School Athletic Complex,,334,MUN,,0,0,0,,0,3,N,,Intervale,0,,4,North Providence,1,0,AF,0,0,334
,,,0,,0,0,0,0,0,,,,,,,,0,0,,,N,,0,0,0,N,41.84349506,-71.39605819,,0,Morris Ave. Totlot,,335,MUN,,1,0,0,,0,0,N,,Morris,0,,0,Providence,0,0,LP,0,0,335
,,,1,,0,2,0,0,0,,,,,,,,0,0,,,N,,0,0,0,N,41.84188033,-71.40339704,,0,Billy Taylor Park,,336,MUN,,1,0,0,,0,0,N,,Camp,0,,0,Providence,0,0,LP,0,0,336
,,,1,,2,2,0,0,0,,,,,,,,0,0,,,N,,0,0,0,Y,41.84207597,-71.44228241,,0,Fargnoli Park,,337,MUN,,1,0,0,,0,0,N,,Smith,0,,0,Providence,0,0,LP,0,0,337
,,,0,,2,0,0,0,0,,,,,,,,0,0,,,N,,0,0,0,N,41.84200883,-71.39135991,,1,Sessions St. Playground,,338,MUN,,1,0,0,,0,0,N,,Sessions,0,,0,Providence,0,0,LP,0,0,338
,,,1,,0,0,0,0,0,,,,,,,,0,0,,,N,,1,0,0,N,41.83682136,-71.45892074,,0,Triggs Memorial Golf Course,,339,MUN,,0,0,0,,0,0,N,,Chalkstone,0,,0,Providence,0,0,AF,0,0,339
,,,1,,1,1,0,0,0,,,,,,,,0,1,,,Y,,0,0,0,N,41.83821984,-71.45356928,,2,Mount Pleasant H. S. Fields,,340,SCH,,0,0,0,,0,2,Y,,Rialto,0,,2,Providence,1,0,SC,0,0,340
,,,1,,0,1,0,0,0,,,,,,,,0,0,,,N,,0,0,0,N,41.84058839,-71.39336992,,0,Nathan Bishop School,,341,SCH,,0,0,0,,0,0,N,,Elmgrove,0,,6,Providence,0,0,SC,0,0,341
,,,1,,0,0,0,0,0,,,,,,,,0,0,,,N,,0,0,0,N,41.83729856,-71.46296995,,2,Obediah Brown Field,,342,MUN,,0,0,0,,0,2,N,,Obediah Brown,0,,0,Providence,0,0,LP,0,0,342
,,,1,,1,1,0,0,0,,,,,,,,0,0,,,N,,0,0,0,N,41.83846207,-71.48765616,,0,Barnes School,,343,SCH,,1,0,0,,0,0,N,,Barnes,0,,0,Johnston,0,0,SC,0,0,343
,,,0,,0,0,0,0,0,,,,,,,,0,0,,,N,,0,0,0,Y,41.83815009,-71.40360486,,1,Martin Luther King Playground,,344,MUN,,1,0,0,,0,0,N,,Camp,0,,0,Providence,0,0,LP,0,0,344
,,,1,,0,0,0,0,0,,,,,,,,0,1,,,Y,,0,0,0,N,41.83301314,-71.50100627,,2,Johnston Sr High School,,345,SCH,,0,0,0,,0,1,N,,Cherry Hill,0,,0,Johnston,1,0,SC,0,0,345
,,,1,,0,1,0,0,0,,,,,,,,0,0,,,N,,0,0,0,Y,41.8341644,-71.42161537,,0,Candace St. Playground,,346,MUN,,1,0,0,,0,0,Y,,Goddard,0,,0,Providence,0,0,LP,0,0,346
,,,1,,0,0,0,0,0,,,,,,,,0,0,,,N,,0,0,0,N,41.83452776,-71.54750651,,0,Brown Ave. School,,347,SCH,,1,0,0,,0,0,N,,Brown,0,,0,Johnston,0,0,SC,0,0,347
,,,1,,0,0,0,0,1,,,,,,,,1,0,,,Y,,0,0,0,N,41.83379245,-71.75236647,,0,Shippee Sawmill Pond,,348,STA,,0,0,0,,0,0,N,,Willoughby Young,0,,0,Foster,0,0,FB,0,0,348
,,,0,,0,0,0,0,0,,,,,,,,0,0,,,N,,0,0,0,N,41.83258004,-71.38698429,,0,Gladys Potter Park,,349,MUN,,1,0,0,,0,0,N,,Humboldt,0,,0,Providence,0,0,LP,0,0,349
,,,0,,0,0,0,0,0,,,,,,,,0,0,,,N,,0,0,0,N,41.83347222,-71.46358075,,0,Viscolosi Park,,350,MUN,,1,0,0,,0,0,N,,Chalkstone,0,,0,Providence,0,0,LP,0,0,350
,,,1,,2,2,0,0,0,,,,,,,,0,0,,,N,,0,0,0,N,41.82711013,-71.35159868,,0,Agawam Playground & Softball Complex,,351,MUN,,1,0,0,,0,0,Y,,Pawtucket,0,,0,East Providence,0,0,AF,0,0,351
,,,1,,1,0,0,0,0,,,,,,,,1,0,,,Y,,0,0,0,N,41.82929879,-71.60489262,,1,Dean Andrews Memorial Field,,352,STA,,1,0,0,,0,0,N,,Battey Meetinghouse,0,,0,Scituate,0,0,LP,0,0,352
,,,1,,1,1,0,0,0,,,,,,,,0,0,,,N,,0,0,0,N,41.8344732,-71.58497868,,0,Berkander Field,,353,MUN,,1,0,0,,0,0,N,,Institute,0,,4,Scituate,0,0,LP,0,0,353
,,,0,,0,0,0,0,0,,,,,,,,0,0,,,N,,0,0,0,Y,41.83063617,-71.38188883,,0,Paterson St. Park,,354,MUN,,1,0,0,,0,0,N,,Patterson,0,,0,Providence,0,0,LP,0,0,354
,,,0,,0,0,0,0,0,,,,,,,,0,0,,,Y,,0,0,0,N,41.83000824,-71.41054609,,0,Roger Williams National Park,,355,FED,,0,0,0,,0,0,N,,Main,0,,0,Providence,0,0,LP,0,1,355
,,,1,,0,0,0,0,0,,,,,,,,0,1,,,Y,,0,0,0,N,41.82462196,-71.61897724,,1,Scituate Jr.-Sr. High School,,356,SCH,,0,0,0,,0,1,N,,Rockland,0,,4,Scituate,1,0,SC,0,0,356
,,,0,,0,0,0,0,0,,,,,,,,0,0,,,N,,0,0,0,N,41.82419759,-71.39262159,,0,Preston & Ives Playground,,357,MUN,,1,0,0,,0,0,N,,Preston,0,,0,Providence,0,0,LP,0,0,357
,,,1,,0,1,0,0,0,,,,,,,,0,0,,,N,,0,0,0,N,41.82464247,-71.45593385,,0,Manton Heights,,358,MUN,,1,0,0,,0,0,N,,Manton,0,,0,Providence,0,0,LP,0,0,358
,,,1,,0,0,0,0,0,,,,,,,,0,0,,,N,,0,0,0,Y,41.82131637,-71.39889673,,0,Brassil Memorial Park,,359,MUN,,0,0,0,,0,0,N,,Arnold,0,,0,Providence,0,0,LP,0,0,359
,,,1,,0,1,0,0,0,,,,,,,,0,0,,,N,,0,0,0,N,41.82081028,-71.43517942,,0,Ridge St. Playground,,360,MUN,,1,0,0,,0,0,N,,Penn,0,,0,Providence,0,0,LP,0,0,360
,,,1,,5,0,0,0,0,,,,,,,,0,0,,,N,,0,0,0,Y,41.81550452,-71.52856364,,0,Woodlake Park,,361,MUN,,0,0,0,,0,0,Y,,Reservoir,0,,0,Johnston,0,0,LP,0,0,361
,,,0,,0,0,0,0,0,,,,,,,,0,0,,,N,,0,0,0,N,41.82034733,-71.41335932,,0,Abbot Park,,362,MUN,,0,0,0,,0,0,N,,Weybosset,0,,0,Providence,0,0,LP,0,0,362
,,,1,,1,0,0,0,0,,,,,,,,0,1,,,Y,,0,0,0,N,41.81696043,-71.41934975,,1,Central / Classical  High Schools,,363,SCH,,0,0,0,,0,1,N,,Broad,0,,0,Providence,0,0,SC,0,0,363
,,,0,,1,0,0,0,0,,,,,,,,0,0,,,N,,0,0,0,N,41.81727159,-71.47736886,,0,Windsor Hills School,,364,SCH,,0,0,0,,0,0,N,,Valley View,0,,0,Johnston,0,0,SC,0,0,364
,,,1,,0,0,0,0,0,,,,,,,,0,0,,,N,,0,0,0,N,41.81672819,-71.45627961,,1,Laurel Hill Playground,,365,SCH,,0,0,0,,0,1,N,,Grover,0,,0,Providence,0,0,SC,0,0,365
,,,1,,1,0,0,0,0,,,,,,,,0,0,,,N,,0,0,0,N,41.81743124,-71.43764075,,0,Bridgham School Playfield,,366,SCH,,0,0,0,,0,0,N,,Broadway,0,,0,Providence,0,0,SC,0,0,366
,,,1,,0,1,0,0,0,,,,,,,,0,0,,,N,,0,0,0,Y,41.81561119,-71.38040476,,0,Mauran Avenue Playground,,367,MUN,,1,0,0,,0,0,N,,Mauran,0,,0,East Providence,0,0,LP,0,0,367
,,,1,,0,0,0,0,1,,,,,,,,1,0,,,Y,,0,0,0,Y,41.815222,-71.39097296,,0,Bold Point Park,,368,MUN,,0,0,0,,0,0,Y,,Pier,0,,0,East Providence,0,0,LP,0,0,368
,,,0,,0,0,0,0,0,,,,,,,,0,0,,,N,,0,0,0,N,41.81411222,-71.73156596,,0,Captain Issac Paine School,,369,SCH,,1,0,0,,0,0,Y,,Danielson Pike,0,,0,Foster,0,0,SC,0,0,369
,,,1,,1,0,0,0,0,,,,,,,,0,0,,,N,,0,0,0,Y,41.81542608,-71.42342686,,0,Cranston St. Playground,,370,MUN,,1,0,0,,0,1,N,,Cranston,0,,6,Providence,0,0,LP,0,0,370
,,,1,,0,1,0,0,0,,,,,,,,0,0,,,Y,,0,0,0,N,41.81035173,-71.41596265,,0,Davey Lopes Park,,371,MUN,,1,1,0,,0,0,N,,Prairie,0,,1,Providence,0,0,LP,0,0,371
,,,1,,0,2,0,0,0,,,,,,,,0,0,,,N,,0,0,0,N,41.81085207,-71.43855381,,0,Ellery St. Park,,372,MUN,,1,0,0,,0,0,N,,Ellery,0,,0,Providence,0,0,LP,0,0,372
,,,1,,0,1,0,0,0,,,,,,,,0,0,,,N,,0,0,0,N,41.81029998,-71.45749545,,0,Paul Grande Park,,373,MUN,,1,0,0,,0,0,N,,Daniel,0,,0,Providence,0,0,LP,0,0,373
,,,0,,0,0,0,0,0,,,,,,,,0,0,,,N,,0,0,0,N,41.8109391,-71.42559493,,0,Warren St. Playground,,374,MUN,,1,0,0,,0,0,N,,Fuller,0,,0,Providence,0,0,LP,0,0,374
,,,0,,0,0,0,0,0,,,,,,,,0,0,,,N,,0,0,0,Y,41.8091845,-71.45091766,,0,Clarence St. Playground,,375,MUN,,1,0,0,,0,0,N,,Clarence,0,,0,Providence,0,0,LP,0,0,375
,,,0,,0,0,0,0,0,,,,,,,,0,0,,,N,,0,0,0,N,41.8077423,-71.45817216,,0,Scalabrini Piazza,,376,MUN,,0,0,0,,0,0,N,,Silver Lake,0,,0,Providence,0,0,LP,0,0,376
,,,0,,0,0,0,0,0,,,,,,,,0,0,,,N,,0,0,0,N,41.80569197,-71.41752559,,0,Mattie Smith Totlot,,377,MUN,,1,0,0,,0,0,N,,Taylor,0,,0,Providence,0,0,LP,0,0,377
,,,0,,0,0,0,0,0,,,,,,,,0,0,,,N,,0,0,0,N,41.80588468,-71.41067679,,0,Salisbury St. Totlot,,378,MUN,,1,0,0,,0,0,N,,Salisbury,0,,0,Providence,0,0,LP,0,0,378
,,,1,,1,2,0,0,0,,,,,,,,0,0,,,Y,,0,0,0,N,41.8051943,-71.42864702,,1,Bucklin St. Park / McCrane Pool,,379,MUN,,1,1,0,,0,1,N,,Bucklin,0,,0,Providence,0,0,LP,0,0,379
,,,0,,0,0,0,0,0,,,,,,,,0,0,,,N,,0,0,0,N,41.8028283,-71.41655856,,0,Baxter St. Park,,380,MUN,,0,0,0,,0,0,N,,Norwich,0,,0,Providence,0,0,LP,0,0,380
,,,1,,1,2,0,0,0,,,,,,,,0,0,,,N,,0,0,0,N,41.80259776,-71.41180652,,0,Harriet & Sayles Park,,381,MUN,,1,0,0,,0,0,Y,,Sayles,0,,0,Providence,0,0,LP,0,0,381
,,,0,,0,0,0,0,0,,,,,,,,0,0,,,N,,0,0,0,N,41.79896054,-71.45130463,,0,Lawrence Street Playground,,383,MUN,,1,0,0,,0,0,N,,Lawrence,0,,0,Cranston,0,0,LP,0,0,383
,,,1,,1,0,0,0,0,,,,,,,,0,0,,,N,,0,0,0,N,41.79584831,-71.45874591,,0,Dyer Ave. Field,,384,MUN,,1,0,0,,0,0,N,,Dyer,1,,0,Cranston,0,0,LP,0,0,384
,,,0,,0,0,0,0,0,,,,,,,,0,0,,,N,,0,0,0,N,41.80260924,-71.42066992,,0,Jennifer Rivera Memorial Park,,385,MUN,,1,0,0,,0,0,N,,Niagara,0,,0,Providence,0,0,LP,0,0,385
,,,0,,0,0,0,0,0,,,,,,,,1,0,,,Y,,0,0,0,N,41.7945202,-71.36986782,,0,Squantum Woods Grove,,386,MUN,,0,0,0,,0,0,N,,Veterans Memorial,0,,0,East Providence,0,1,LP,0,0,386
,,,1,,3,0,0,0,1,,,,,,,,1,0,,,Y,,0,0,0,Y,41.79338767,-71.43684644,,0,JT Owens Park,,387,STA,,1,0,0,,0,0,N,,Niantic,0,,2,Providence,0,0,LP,0,0,387
,,,1,,1,1,0,0,0,,,,,,,,0,0,,,N,,0,0,0,Y,41.79416612,-71.41741971,,0,Sackett St. Playground,,388,MUN,,0,0,0,,0,0,N,,Sackett,0,,0,Providence,0,0,LP,0,0,388
,,,0,,0,0,0,0,0,,,,,,,,0,0,,,N,,0,0,0,N,41.78505011,-71.39967325,,0,Smith St. Lot,,389,MUN,,0,0,0,,0,0,N,,Smith,0,,0,Cranston,0,0,LP,0,0,389
,,,1,,2,0,0,0,0,,,,,,,,0,0,,,N,,0,0,0,N,41.77528967,-71.4787441,,1,Western Hills Middle School,,390,SCH,,0,0,0,,0,1,N,,Phenix,0,,3,Cranston,0,0,SC,0,0,390
,,,1,,1,0,0,0,0,,,,,,,,0,0,,,N,,0,0,0,N,41.77086586,-71.34394523,,1,Brook Street Little League Field,,391,MUN,,0,0,0,,0,0,N,,Brook,0,,0,East Providence,0,0,LP,0,0,391
,,,1,,3,0,0,0,0,,,,,,,,0,0,,,Y,,0,0,0,N,41.770825,-71.4003067,,0,Fay Memorial Field,,392,STA,,0,0,0,,0,0,N,,Dallas,0,,0,Cranston,0,0,LP,0,0,392
Yes,,31 acres,0,,0,0,0,0,0,Meshanticut Park,,,(401) 667-6200,,"Although State owned, Meshanticut is really more of a neighborhood park.  However it is situated along the Washington Secondary Bikeway and a great place to take a break or enjoy a picnic.",Yes,1,0,,,Y,Yes,0,0,0,N,41.76870451,-71.47604276,,0,Meshanticut Park,,393,STA,Yes,0,0,Unsure,,0,0,N,,Lakeview,0,Yes,0,Cranston,0,0,SP,0,0,393
,,,1,,0,0,0,0,0,,,,,,,,0,0,,,N,,0,0,0,Y,41.76672015,-71.3899168,,0,Commercial Street Playground,,394,MUN,,1,0,0,,0,0,N,,Commercial,0,,1,Cranston,0,0,LP,0,0,394
,,,1,,1,0,0,0,0,,,,,,,,0,0,,,N,,0,0,0,N,41.76551858,-71.47296739,,0,Oaklawn Ave. Field,,395,MUN,,0,0,0,,0,0,N,,Oaklawn,0,,0,Cranston,0,0,LP,0,0,395
,,,0,,0,0,0,0,0,,,,,,,,0,0,,,N,,0,0,0,N,41.76323359,-71.46330162,,0,Dean Parkway,,396,STA,,0,0,0,,0,0,N,,Dean,0,,0,Cranston,0,0,SP,0,0,396
,,,1,,0,0,0,0,1,,,,,,,,1,0,,,Y,,0,0,0,Y,41.75303517,-71.32167619,,0,Walker Farm,,397,MUN,,0,0,0,,0,0,N,,Wampanoag,0,,0,Barrington,0,0,FB,0,0,397
,,,1,,1,0,0,0,0,,,,,,,,0,0,,,N,,0,0,0,N,41.76180698,-71.45024389,,0,Garden City School,,398,SCH,,1,0,0,,0,0,N,,Magazine,0,,0,Cranston,0,0,SC,0,0,398
,,,1,,2,0,0,0,0,,,,,,,,0,0,,,N,,0,0,0,N,41.75711812,-71.29434247,,0,Sowams School,,399,SCH,,1,0,0,,0,0,Y,,Sowams,0,,0,Barrington,0,0,SC,0,0,399
,,,1,,0,1,0,0,0,,,,,,,,0,0,,,Y,,0,0,0,Y,41.75852018,-71.39780118,,0,Adams Playground,,400,MUN,,1,0,0,,0,0,N,,Adams,0,,0,Warwick,0,0,LP,0,1,400
,,,1,,0,1,0,0,0,,,,,,,,0,0,,,N,,0,0,0,N,41.75662384,-71.34990006,,1,Vinter Avenue Playground,,401,MUN,,1,0,0,,0,0,Y,,Vintner,0,,0,East Providence,0,0,LP,0,0,401
,,,0,,1,0,0,0,0,,,,,,,,0,0,,,N,,0,0,0,N,41.75586405,-71.41495135,,2,Aldrich Junior High School,,402,SCH,,0,0,0,,0,2,N,,Post,0,,2,Warwick,0,0,SC,0,0,402
,,,1,,2,0,0,0,0,,,,,,,,0,0,,,N,,0,0,0,Y,41.75687893,-71.40812777,,0,Klitzner Field / West Side Little League,,403,MUN,,1,0,0,,0,0,N,,Post,0,,0,Warwick,0,0,AF,0,0,403
Yes,http://www.riparks.com/Locations/LocationHaines.html,102 acres,1,Haines Memorial State Park,3,0,0,0,1,Haines Park,,,(401) 253-7482,,"Overlooking the water of Narragansett Bay. Intersected by East Bay Bike Path. 33 picnic sites each with a fireplace. Two baseball fields, and a dog walking area called Paws path. (The Eastern portion of this, including ball fields and dog path, is operated by the town of Barrington)",Yes,1,0,,,Y,Yes,0,0,0,Y,41.75232442,-71.34613697,,1,Haines Park,,404,STA,Yes,0,0,Yes,,0,1,N,,Haines Park,0,No,0,Barrington,0,0,SP,0,0,404
,,,1,,0,0,0,0,1,,,,,,,,1,0,,,Y,,0,0,0,N,41.75286131,-71.38346168,,0,Salter Grove,,405,STA,,1,0,0,,0,0,N,,Narragansett,0,,0,Warwick,0,0,LP,0,0,405
,,,1,,0,1,0,0,0,,,,,,,,0,0,,,N,,0,0,0,N,41.75265727,-71.38999155,,1,Wyman School,,406,SCH,,0,0,0,,0,0,N,,Columbia,0,,0,Warwick,0,0,SC,0,0,406
,,,0,,0,0,0,0,0,,,,,,,,0,0,,,Y,,0,0,0,N,41.74818174,-71.29998844,,0,Hampdem Meadows Greenbelt,,407,MUN,,0,0,0,,0,0,Y,,Lafayette,0,,0,Barrington,0,1,CA,0,0,407
,,,1,,2,0,0,0,0,,,,,,,,0,0,,,N,,0,0,0,Y,41.74768183,-71.41301743,,1,Holliman School,,408,SCH,,0,0,0,,0,1,N,,Black,0,,4,Warwick,0,0,SC,0,0,408
,,,1,,1,2,0,0,0,,,,,,,,0,0,,,N,,0,0,0,N,41.74534637,-71.33242448,,3,Barrington Middle School,,409,SCH,,0,0,0,,0,3,N,,Middle,0,,4,Barrington,0,0,SC,0,0,409
,,,0,,0,0,0,0,0,,,,,,,,0,0,,,N,,0,0,0,N,41.74388876,-71.31790777,,0,Prince's Pond,,410,MUN,,0,0,0,,0,0,N,,Priscilla,0,,0,Barrington,0,0,LP,0,0,410
,,,1,,1,0,0,0,0,,,,,,,,0,0,,,N,,0,0,0,N,41.74388046,-71.40443365,,0,John Brown School,,411,SCH,,1,0,0,,0,0,N,,Miantonomo,0,,0,Warwick,0,0,SC,0,0,411
,,,0,,0,0,0,0,0,,,,,,,,0,0,,,N,,0,0,0,Y,41.73985693,-71.25560813,,0,Wujcik Farm / Heritage Park,,412,MUN,,0,0,0,,0,0,N,,Schoolhouse,0,,0,Warren,0,0,CA,0,0,412
,,,0,,0,0,0,0,0,,,,,,,,0,0,,,N,,0,0,0,N,41.74132436,-71.30687672,,0,Peck Center Playground,,413,MUN,,2,0,0,,0,0,N,,Town Hall,0,,0,Barrington,0,0,LP,0,0,413
,,,0,,0,0,0,0,0,,,,,,,,1,0,,,N,,0,0,0,Y,41.73702553,-71.75213816,,0,Moosup Valley Park,,414,MUN,,0,0,0,,0,0,Y,,Moosup Valley,0,,0,Foster,0,0,LP,0,0,414
,,,1,,0,1,0,0,0,,,,,,,,0,0,,,N,,0,0,0,N,41.73954162,-71.40664291,,0,Spring Green School,,415,SCH,,1,0,0,,0,0,N,,Balsam,0,,0,Warwick,0,0,SC,0,0,415
,,,1,,1,0,0,0,0,,,,,,,,0,0,,,Y,,0,0,0,N,41.73250523,-71.71844719,,1,Woody Lowden Recreation Center,,416,MUN,,1,0,0,,0,1,Y,,Howard Hill,0,,0,Foster,0,0,AF,0,1,416
,,,1,,0,0,0,0,0,,,,,,,,0,0,,,N,,0,0,0,N,41.73066461,-71.28545499,,0,Baker St Park,,417,MUN,,1,0,0,,0,0,Y,,Baker,0,,0,Warren,0,0,LP,0,0,417
,,,0,,1,0,0,0,0,,,,,,,,0,0,,,N,,0,0,0,N,41.73001578,-71.26663764,,1,Child St. School,,418,SCH,,1,0,0,,0,0,N,,Moonbeam,0,,0,Warren,0,0,SC,0,0,418
,,,0,,0,0,0,0,0,,,,,,,,0,0,,,N,,0,0,0,Y,41.72867944,-71.39866987,,0,Hoxsie School,,419,SCH,,1,0,0,,0,0,N,,Glenwood,0,,0,Warwick,0,0,SC,0,0,419
,,,1,,2,0,0,0,0,,,,,,,,0,0,,,N,,0,0,0,N,41.73025596,-71.30706734,,0,Nayatt School,,420,SCH,,1,0,0,,0,0,N,,Nayatt,0,,0,Barrington,0,0,SC,0,0,420
,,,0,,0,0,0,0,0,,,,,,,,1,0,,,N,,0,0,0,N,41.72253264,-71.40980972,,0,Lakecrest Park,,421,MUN,,0,0,0,,0,0,N,,Stanmore,0,,0,Warwick,0,0,LP,0,0,421
,,,0,,0,1,0,0,0,,,,,,,,0,0,,,N,,0,0,0,Y,41.72801587,-71.47440054,,0,Pontiac Playground,,422,MUN,,1,0,0,,0,0,N,,Greenwich,0,,1,Warwick,0,0,LP,0,0,422
,,,1,,1,1,0,0,0,,,,,,,,0,0,,,N,,0,0,0,Y,41.72346682,-71.39760599,,1,Porter Field,,423,MUN,,1,0,0,,0,0,N,,Vernon,0,,0,Warwick,0,0,LP,0,0,423
,,,1,,0,0,0,0,0,,,,,,,,0,0,,,N,,0,0,0,N,41.72466246,-71.54196204,,0,Harris Playground,,424,MUN,,1,0,0,,0,0,N,,Howard,0,,1,Coventry,0,0,LP,0,0,424
,,,0,,0,0,1,0,0,,,,,,,,0,0,,,Y,,0,0,0,N,41.72286827,-71.31019269,,0,Barrington Town Beach,,425,MUN,,0,0,1,,0,0,Y,,Bay,0,,0,Barrington,0,0,LP,0,0,425
,,,0,,0,0,1,0,0,,,,,,,,0,0,,,Y,,0,0,0,N,41.72295818,-71.28495673,,0,Warren Town Beach,,426,MUN,,1,0,0,,0,0,N,,Water,0,,0,Warren,0,0,LP,0,0,426
,,,0,,0,0,0,0,0,,,,,,,,0,0,,,N,,0,0,0,Y,41.71786742,-71.39683593,,1,Sherman School,,427,SCH,,1,0,0,,0,0,N,,Killey,0,,0,Warwick,0,0,SC,0,0,427
,,,1,,1,0,0,0,0,,,,,,,,0,0,,,N,,0,0,0,Y,41.71869307,-71.45834935,,1,Halifax St. Playground,,428,MUN,,1,0,0,,0,0,N,,Halifax,0,,0,Warwick,0,0,LP,0,0,428
,,,0,,0,0,1,0,0,,,,,,,,0,0,,,Y,,0,0,0,Y,41.71665252,-71.35973888,,0,Conimicut Pt. Beach,,429,MUN,,0,0,1,,0,0,Y,,Point,0,,0,Warwick,0,0,LP,0,0,429
,,,0,,0,0,0,0,0,,,,,,,,1,0,,,N,,0,0,0,Y,41.71722507,-71.49298606,,0,Natick Dam Overlook,,430,MUN,,0,0,0,,0,0,N,,O'donnell,0,,0,Warwick,0,0,LP,0,0,430
,,,0,,0,0,0,0,0,,,,,,,,1,0,,,N,,0,0,0,N,41.71199719,-71.28863245,,0,Hanley Farm Marsh,,431,NGO,,0,0,0,,0,0,N,,Beach,0,,0,Warren,0,0,CA,0,0,431
,,,1,,0,0,0,0,0,,,,,,,,0,0,,,N,,0,0,0,Y,41.71156669,-71.38352836,,4,Warwick National Little League / Bend Street Field,,432,MUN,,1,0,0,,0,4,Y,,Bend,0,,0,Warwick,0,0,LP,0,0,432
,,,1,,0,1,0,0,0,,,,,,,,0,0,,,N,,0,0,0,N,41.71108495,-71.45539268,,0,Greenwood School,,433,SCH,,1,0,0,,0,0,N,,Trinity,0,,0,Warwick,0,0,SC,0,0,433
,,,1,,0,1,0,0,0,,,,,,,,0,0,,,N,,0,0,0,N,41.71023453,-71.25945978,,1,Cedar Crest Playground,,434,MUN,,1,0,0,,0,0,N,,San Miguel,0,,0,Bristol,0,0,LP,0,0,434
,,,1,,2,0,0,0,0,,,,,,,,0,1,,,N,,0,0,0,N,41.70531288,-71.48662127,,4,Tollgate  School Complex,,435,SCH,,0,0,0,,0,2,Y,,Toll Gate,0,,5,Warwick,0,0,SC,0,0,435
,,,1,,0,1,0,0,0,,,,,,,,0,0,,,N,,0,0,0,N,41.70706491,-71.42203014,,1,Lippitt School,,436,SCH,,1,0,0,,0,0,N,,Almy,0,,0,Warwick,0,0,SC,0,0,436
,,,1,,2,0,0,0,0,,,,,,,,0,1,,,N,,0,0,0,N,41.70613592,-71.41106504,,2,Veterans' High School,,437,SCH,,0,0,0,,0,1,N,,West Shore,0,,6,Warwick,0,1,SC,0,0,437
,,,0,,0,0,0,0,0,,,,,,,,1,0,,,Y,,0,1,0,N,41.69342239,-71.7727351,,0,Nicholas Farm,,438,STA,,0,0,0,,0,0,N,,Plainfield Pike,0,,0,Coventry,0,1,MA,0,0,438
,,,1,,4,0,0,0,0,,,,,,,,0,0,,,N,,0,0,0,N,41.70385217,-71.59170702,,1,Washington Oak School,,440,SCH,,0,0,0,,0,0,N,,Walker,0,,0,Coventry,0,0,SC,0,0,440
,,,0,,0,0,1,0,0,,,,,,,,1,0,,,Y,,0,0,0,Y,41.70325121,-71.45480306,,0,Gorton's Pond Beach,,441,MUN,,1,0,0,,0,0,Y,,Veterans Memorial,0,,0,Warwick,0,0,LP,0,0,441
,,,0,,0,1,0,0,0,,,,,,,,0,0,,,N,,0,0,0,Y,41.69957752,-71.49099389,,1,Scott Elementary School,,442,SCH,,1,0,0,,0,0,N,,Centerville,0,,0,Warwick,0,0,SC,0,0,442
,,,1,,0,1,0,0,0,,,,,,,,0,0,,,N,,0,0,0,N,41.6988974,-71.43920798,,0,Robertson School,,443,SCH,,1,0,0,,0,0,N,,Nausauket,0,,0,Warwick,0,0,SC,0,0,443
,,,0,,0,0,0,0,0,,,,,,,,0,0,,,N,,0,0,0,N,41.69816692,-71.28095052,,0,Rockwell School,,444,SCH,,1,0,0,,0,0,N,,Hope,0,,0,Bristol,0,0,SC,0,0,444
,,,0,,0,0,0,0,0,,,,,,,,0,0,,,N,,0,0,0,Y,41.6988988,-71.42490973,,0,Kerri Lyn Playground,,445,MUN,,1,0,0,,0,0,N,,Kerri Lyn,0,,0,Warwick,0,0,LP,0,0,445
,,,1,,0,1,0,0,0,,,,,,,,0,0,,,N,,0,0,0,N,41.69654565,-71.68848467,,0,Western Coventry School,,446,SCH,,1,0,0,,0,0,N,,Flat River,0,,0,Coventry,0,0,SC,0,0,446
,,,0,,0,0,0,0,0,,,,,,,,1,0,,,N,,0,0,0,Y,41.69270542,-71.53156461,,0,Matteson Pond,,447,MUN,,0,0,0,,0,0,N,,Carlton,0,,0,West Warwick,0,0,CA,0,0,447
,,,1,,0,0,0,0,0,,,,,,,,0,0,,,N,,0,0,0,Y,41.69241415,-71.474919,,1,Duchess St. Field,,448,MUN,,0,0,0,,0,1,N,,Duchess,0,,0,Warwick,0,0,LP,0,0,448
,,,0,,0,0,0,0,0,,,,,,,,0,0,,,N,,0,0,0,N,41.69006459,-71.37711083,,0,Warwick Neck School,,449,SCH,,1,0,0,,0,0,N,,Warwick Neck,0,,0,Warwick,0,0,SC,0,0,449
,,,1,,0,1,0,0,0,,,,,,,,0,0,,,N,,0,0,0,N,41.69073036,-71.25721656,,1,Sowams Playground,,450,MUN,,1,0,0,,0,0,Y,,Sweeney,0,,0,Bristol,0,0,LP,0,0,450
,,,1,,1,0,0,0,0,,,,,,,,0,1,,,Y,,0,0,0,N,41.68800767,-71.27165638,,2,Bristol Junior-Senior High Sch.,,451,SCH,,0,0,0,,0,2,N,,Chestnut,0,,6,Bristol,1,0,SC,0,0,451
,,,1,,5,1,0,0,0,,,,,,,,0,0,,,N,,0,0,1,Y,41.68762909,-71.29054395,,3,Bristol Town Farm,,452,MUN,,0,0,0,,0,3,Y,,Asylum,0,,1,Bristol,0,1,LP,0,0,452
,,,0,,0,0,0,0,0,,,,,,,,1,0,,,N,,0,0,0,N,41.68887821,-71.25858671,,0,Leahy Pond,,453,MUN,,0,0,0,,0,0,N,,Primrose,0,,0,Bristol,0,0,LP,0,0,453
,,,1,,1,0,0,0,0,,,,,,,,0,0,,,N,,0,0,0,N,41.6859738,-71.56259058,,0,Wood Street Field,,454,SCH,,0,0,0,,0,0,N,,Wood,0,,0,Coventry,0,0,LP,0,0,454
,,,0,,0,0,0,0,0,,,,,,,,0,0,,,N,,0,0,0,Y,41.68364923,-71.24596888,,0,Hopeworth Road Site,,455,MUN,,0,0,0,,0,0,N,,Hopeworth,0,,0,Bristol,0,0,CA,0,0,455
,,,1,,0,1,0,0,0,,,,,,,,0,0,,,N,,0,0,0,N,41.68294616,-71.24149549,,0,Hopeworth Playground,,456,MUN,,1,0,0,,0,0,N,,Hopeworth,0,,1,Bristol,0,0,LP,0,0,456
Yes,http://www.riparks.com/Locations/LocationColt.html,464 acres,1,,0,0,0,0,1,Colt State Park,,,[401] 253-7482,,"Colt State Park is often referred to as the 'Gem' of the State Parks System. The entire western border of the park is an open panorama onto Narragansett Bay. Open year round, the park offers four miles of bicycle trails passing along the Bay and through 464 acres of groomed fruit trees, carefully nurtured flowering bushes, and manicured lawns. Rich in history, it proudly displays ten large playfields, a historical museum, six picnic groves containing 400+ picnic tables, and its popular open air Chapel-By-The-Sea.",Yes,1,0,,,Y,Yes,0,0,0,N,41.6770906,-71.29746634,,4,Colt State Park,,457,STA,Yes,0,0,Yes,,0,0,N,,Asylum,0,Yes,0,Bristol,0,0,SP,0,1,457
,,,1,,2,0,0,0,0,,,,,,,,0,0,,,N,,0,0,0,N,41.68007664,-71.27478669,,0,Veterans' Field,,458,MUN,,1,0,0,,0,0,Y,,Wood,0,,0,Bristol,0,0,LP,0,0,458
,,,1,,1,0,0,0,0,,,,,,,,0,0,,,N,,0,0,0,N,41.67765189,-71.27576572,,1,Guiteras Field,,459,MUN,,0,0,0,,0,1,N,,Washington,0,,0,Bristol,0,0,LP,0,0,459
,,,0,,0,0,0,0,0,,,,,,,,0,0,,,N,,0,0,0,N,41.67655598,-71.54224796,,0,Tiogue School,,460,SCH,,1,0,0,,0,0,N,,Shore,0,,0,Coventry,0,0,SC,0,0,460
,,,1,,0,0,0,0,0,,,,,,,,0,0,,,Y,,0,1,0,N,41.63472387,-71.60385252,,0,Big River Reservoir,,461,STA,,0,0,0,,0,0,N,,Burnt Sawmill,0,,0,West Greenwich,0,1,MA,0,0,461
,,,0,,0,0,0,0,0,,,,,,,,0,0,,,N,,0,0,0,N,41.67387228,-71.56107626,,0,Hopkins Hill School,,462,SCH,,1,0,0,,0,0,N,,Johnson,0,,0,Coventry,0,0,SC,0,0,462
,,,1,,1,1,0,0,0,,,,,,,,0,0,,,N,,0,0,0,Y,41.67040199,-71.27208148,,0,Bristol Town Common,,463,MUN,,1,0,0,,0,0,Y,,Church,0,,3,Bristol,0,0,LP,0,0,463
Yes,http://www.riparks.com/Locations/LocationGoddard.html,490 acres,1,Goddard Memorial State Park,0,0,0,0,1,Goddard Park,,,(401) 884-0088,,"One of Rhode Island's most popular local parks, offering a 9 hole golf course, an equestrian show area, bridle trails, picnic tables, game fields and a new performing arts center for weddings, concerts, picnics and special events.",Yes,1,0,,,Y,Yes,1,0,0,Y,41.65924781,-71.43722388,,0,Goddard Park,,464,STA,Yes,0,0,Yes,,0,0,N,,Ives,0,Yes,0,Warwick,0,1,SP,0,1,464
,,,0,,0,0,0,0,0,,,,,,,,0,0,,,N,,0,0,0,N,41.6689594,-71.27777757,,0,Rockwell Park,,465,MUN,,0,0,0,,0,0,Y,,Thames,0,,0,Bristol,0,0,LP,0,0,465
,,,1,,1,0,0,0,0,,,,,,,,0,0,,,N,,0,0,0,N,41.66652748,-71.18440258,,2,Pocasset Field,,466,MUN,,1,0,0,,0,0,N,,Main,0,,4,Tiverton,0,0,LP,0,0,466
,,,0,,0,0,0,0,0,,,,,,,,0,0,,,Y,,0,1,0,N,41.65590721,-71.34316306,,0,North Prudence Island,,467,STA,,0,0,0,,0,0,N,,Neck Farm,0,,0,Portsmouth,0,1,MA,0,0,467
,,,0,,0,0,0,0,0,,,,,,,,0,0,,,N,,0,0,0,N,41.66283978,-71.45594866,,0,West Street Tot Lot,,468,MUN,,1,0,0,,0,0,N,,James,0,,0,East Greenwich,0,0,LP,0,0,468
,,,0,,0,0,0,0,0,,,,,,,,0,0,,,Y,,0,1,0,N,41.65565899,-71.36003371,,0,Patience Island,,469,STA,,0,0,0,,0,0,N,,Neck Farm,0,,0,Portsmouth,0,1,MA,0,0,469
,,,1,,1,2,0,0,0,,,,,,,,0,0,,,N,,0,0,0,Y,41.66098433,-71.45299093,,1,Academy Field,,470,MUN,,0,0,0,,0,0,Y,,Church,0,,0,East Greenwich,0,0,LP,0,0,470
,,,0,,0,0,0,0,0,,,,,,,,0,0,,,N,,0,0,0,N,41.65855015,-71.44762549,,0,Barbara Tufts Memorial Playground,,471,MUN,,1,0,0,,0,0,Y,,Crompton,0,,0,East Greenwich,0,0,LP,0,0,471
,,,1,,2,3,0,0,0,,,,,,,,0,0,,,N,,0,0,0,Y,41.65678666,-71.45506999,,1,Eldredge Field,,472,MUN,,1,0,0,,0,1,Y,,Friendship,0,,0,East Greenwich,0,0,LP,0,0,472
,,,1,,0,0,0,0,1,,,,,,,,1,0,,,Y,,0,0,0,Y,41.65670916,-71.44894529,,0,East Greenwich Town Boat Launch,,473,MUN,,0,0,0,,0,0,Y,,Crompton,0,,0,East Greenwich,0,0,LP,0,0,473
,,,1,,2,1,0,0,0,,,,,,,,0,0,,,N,,0,0,0,N,41.6511542,-71.46305829,,1,Cole Middle School,,474,MUN,,0,0,0,,0,1,N,,Cedar,0,,3,East Greenwich,0,0,LP,0,0,474
,,,0,,0,0,0,0,0,,,,,,,,0,0,,,N,,0,0,0,N,41.64550829,-71.46596343,,0,Fairfield St. Playground,,475,MUN,,1,0,0,,0,0,N,,Fairfield,0,,0,East Greenwich,0,0,LP,0,0,475
,,,0,,0,0,0,0,0,,,,,,,,0,0,,,N,,0,0,0,N,41.6405321,-71.45531771,,0,Potowomut School,,476,SCH,,1,0,0,,0,0,N,,Potowomut,0,,0,Warwick,0,0,SC,0,0,476
,,,0,,0,0,0,0,0,,,,,,,,0,0,,,Y,,0,0,0,N,41.63571918,-71.24364399,,0,Boyds Marsh,,477,STA,,0,0,0,,0,0,N,,Bay View,0,,0,Portsmouth,0,0,MA,0,0,477
,,,1,,1,0,0,0,0,,,,,,,,0,1,,,N,,0,0,0,N,41.62908974,-71.15909938,,1,Tiverton Middle School,,478,SCH,,0,0,0,,0,1,N,,Quintal,0,,0,Tiverton,0,0,SC,0,0,478
,,,0,,0,0,0,0,0,,,,,,,,0,0,,,N,,0,0,0,N,41.62847075,-71.24291602,,0,Founder's Grove,,479,MUN,,0,0,0,,0,0,N,,Boyds,0,,0,Portsmouth,0,0,LP,0,0,479
,,,1,,1,0,0,0,0,,,,,,,,0,1,,,N,,0,0,0,N,41.63020928,-71.16397956,,2,Tiverton High School,,480,SCH,,0,0,0,,0,2,N,,Brayton,0,,4,Tiverton,0,0,SC,0,0,480
,,,1,,2,2,0,0,0,,,,,,,,0,0,,,N,,0,0,0,N,41.63028383,-71.43647676,,0,Signal Rock Playground,,481,MUN,,1,0,0,,0,0,Y,,Signal Rock,0,,0,North Kingstown,0,0,LP,0,0,481
,,,0,,0,0,0,0,0,,,,,,,,0,0,,,N,,0,0,0,Y,41.62596399,-71.19644929,,0,Fort Barton Historic Site,,482,MUN,,0,0,0,,0,0,N,,Highland,0,,0,Tiverton,0,0,CA,0,0,482
,,,1,,3,0,0,0,0,,,,,,,,0,0,,,N,,0,0,0,N,41.62355699,-71.50445365,,3,Frenchtown School Playground,,483,MUN,,1,0,0,,0,3,N,,Frenchtown,0,,0,East Greenwich,0,0,LP,0,0,483
,,,1,,0,0,1,0,1,,,,,,,,1,0,,,Y,,0,0,0,N,41.62541621,-71.21983186,,0,Teddy's Beach,,484,MUN,,0,0,0,,0,0,N,,Point,0,,0,Portsmouth,0,0,LP,0,0,484
,,,1,,1,0,0,0,0,,,,,,,,0,0,,,N,,0,0,0,N,41.61851313,-71.25832691,,0,Hutchinson School,,485,SCH,,0,0,0,,0,0,N,,Brownell,0,,0,Portsmouth,0,0,SC,0,0,485
,,,2,,4,4,0,0,0,,,,,,,,0,1,,,N,,0,0,0,Y,41.61854718,-71.46225323,,1,McGinn Park,,486,MUN,,1,0,0,,0,1,Y,,School,1,,6,North Kingstown,0,0,LP,0,0,486
,,,1,,0,2,0,0,0,,,,,,,,0,0,,,N,,0,0,0,Y,41.6163925,-71.24502913,,0,Hathaway School,,487,SCH,,1,0,0,,0,0,N,,Main,0,,0,Portsmouth,0,0,SC,0,0,487
,,,1,,0,1,0,0,0,,,,,,,,0,0,,,N,,0,0,0,N,41.61502839,-71.43831518,,1,Quidnesset School,,488,SCH,,1,0,0,,0,0,N,,Edmond,0,,0,North Kingstown,0,0,SC,0,0,488
,,,1,,4,3,0,0,0,,,,,,,,0,1,,,Y,,0,0,0,N,41.6108262,-71.25101714,,4,Portsmouth High School,,489,SCH,,0,0,0,,0,2,N,,Memorial,0,,8,Portsmouth,1,0,SC,0,0,489
Yes,,,0,,0,0,0,0,0,Lehigh Hill Grove,,,,,A scenic overlook on West Main Road in Portsmouth with a view of Narragansett Bay's East Passage & Prudence Island.,Yes,0,0,,,Y,Yes,0,0,0,N,41.61138656,-71.26029934,,0,Lehigh Hill Grove,,490,STA,No,0,0,No,,0,0,N,,Main,0,Unsure,0,Portsmouth,0,0,SP,0,0,490
,,,0,,0,1,0,0,0,,,,,,,,0,0,,,N,,0,0,0,N,41.61244004,-71.46742524,,1,Davisville Elementary School,,491,SCH,,1,0,0,,0,0,N,,East,0,,0,North Kingstown,0,0,SC,0,0,491
,,,1,,4,0,0,0,0,,,,,,,,0,0,,,N,,0,0,0,N,41.61312143,-71.63884314,,0,Lineham School,,492,SCH,,0,0,0,,0,0,N,,Nooseneck Hill,0,,0,West Greenwich,0,0,SC,0,0,492
,,,0,,0,0,0,0,0,,,,,,,,0,0,,,N,,0,1,0,N,41.60221962,-71.36820642,,0,Hope Island,,493,STA,,0,0,0,,0,0,N,,Bay,0,,0,Portsmouth,0,1,MA,0,0,493
,,,1,,0,0,0,0,0,,,,,,,,0,0,,,N,,1,0,0,N,41.60176838,-71.42327867,,0,Municipal Golf Course,,494,MUN,,0,0,0,,0,0,N,,Lt James Brown,0,,0,North Kingstown,0,0,AF,0,0,494
No,,5 acres,0,,0,0,0,0,0,Black Regiment Memorial Park,,,(401) 667-6200,,A shady grove at the foot of the Mt Hope bridge in Portsmouth with a monument commemorating the participation African American soldiers in the 1st Rhode Island Regiment of the Continental Army.,Yes,0,0,,,Y,No,0,0,0,N,41.63357825,-71.25514099,,0,Black Regiment Memorial Park,not much of a destination,495,STA,Yes,0,0,No,,0,0,N,,Musselbed Shoal,0,No,0,Portsmouth,0,0,SP,0,0,495
,,,0,,0,0,0,0,0,,,,,,,,0,0,,,Y,,0,0,0,N,41.6026252,-71.45646622,,0,Devil's Foot Rock,,496,STA,,0,0,0,,0,0,N,,Post,0,,0,North Kingstown,0,0,CA,0,0,496
,,,0,,0,0,0,0,0,,,,,,,,0,0,,,Y,,0,1,0,Y,41.58792314,-71.32357555,,0,South Prudence Island,,497,STA,,0,0,0,,0,0,N,,Bunker,0,,0,Portsmouth,0,1,MA,0,0,497
,,,1,,3,0,0,0,0,,,,,,,,0,0,,,N,,0,0,0,N,41.58550697,-71.62014999,,0,Exeter / W.Greenwich L.L.. / Venon Oatley Field,,498,MUN,,0,0,0,,0,1,N,,New London,0,,0,Exeter,0,0,LP,0,0,498
,,,1,,0,1,0,0,0,,,,,,,,0,0,,,N,,0,0,0,N,41.593964,-71.48599283,,1,Stony Lane School,,499,SCH,,1,0,0,,0,0,N,,Iron Horse,0,,0,North Kingstown,0,0,SC,0,0,499
,,62 acres,0,,0,0,0,0,0,Queen's Fort Historic Site,,,,,A Native American stone fortification set into massive glacial boulders.,,0,0,,,Y,No,0,0,0,N,41.59032929,-71.52201244,,0,Queen's Fort Historic Site,Overgrown trails and limited parking.  Archaelogical sensitivity ,500,STA,,0,0,0,,0,0,N,,Lantern,0,,0,Exeter,0,0,SP,0,0,500
,,,0,,0,0,0,0,0,,,,,,,,0,0,,,Y,,0,1,0,Y,41.58142007,-71.47315269,,0,Cocumscussoc Park,,501,STA,,0,0,0,,0,0,N,,Post Road,0,,0,North Kingstown,0,1,CA,0,0,501
,,,1,,0,0,0,0,1,,,,,,,,1,0,,,Y,,0,0,0,N,41.58218504,-71.20941082,,0,Seapowet Marsh,,502,STA,,0,0,0,,0,0,N,,Seapowet,0,,0,Tiverton,0,0,FB,0,0,502
,,,1,,0,1,0,0,0,,,,,,,,0,0,,,N,,0,0,0,Y,41.58343285,-71.27086492,,0,Melville School,,503,SCH,,1,0,0,,0,0,N,,Bradford,0,,0,Portsmouth,0,0,SC,0,0,503
,,,0,,0,0,0,0,0,,,,,,,,1,0,,,Y,,0,1,0,Y,41.57405751,-71.78637554,,0,Beach Pond State Park,,504,STA,,0,0,0,,0,0,N,,Ten Rod,0,,0,Exeter,0,1,FB,0,0,504
,,,1,,0,0,0,0,1,,,,,,,,1,0,,,Y,,0,0,0,N,41.57787738,-71.45280048,,0,North Kingstown Town Boat Launch,,505,MUN,,0,0,0,,0,0,N,,Flat Fish,0,,0,North Kingstown,0,0,LP,0,0,505
,,,0,,0,0,0,0,0,,,,,,,,0,0,,,N,,0,0,0,Y,41.57279988,-71.45290535,,0,Bush Hill Marsh,,506,MUN,,0,0,0,,0,0,N,,Newtown,0,,0,North Kingstown,0,0,CA,0,0,506
,,,0,,0,1,0,0,0,,,,,,,,0,0,,,N,,0,0,0,N,41.56856375,-71.45680727,,1,Wickford Elementary School,,507,MUN,,1,0,0,,0,0,N,,Phillips,0,,0,North Kingstown,0,0,SC,0,0,507
,,,1,,2,0,0,0,0,,,,,,,,0,0,,,N,,0,0,0,N,41.56729706,-71.46162937,,1,Wickford Middle School,,508,SCH,,0,0,0,,0,1,N,,Tower Hill,0,,2,North Kingstown,0,0,SC,0,0,508
,,,0,,0,0,1,0,0,,,,,,,,0,0,,,Y,,0,0,0,N,41.56669276,-71.44397787,,0,North Kingstown Town Beach,,509,MUN,,1,0,1,,0,0,N,,Beach,0,,0,North Kingstown,0,0,LP,0,0,509
,,,1,,0,0,1,0,1,,,,,,,,1,0,,,Y,,0,0,0,N,41.55625372,-71.21317045,,0,Fogland Beach,,510,MUN,,0,0,1,,0,0,N,,Three Rod,0,,0,Tiverton,0,0,LP,0,0,510
,,,1,,0,1,0,0,0,,,,,,,,0,0,,,N,,0,0,0,N,41.56242548,-71.29442513,,0,Redwood Farms,,511,MUN,,1,0,0,,0,0,N,,Redwood,0,,0,Portsmouth,0,0,LP,0,0,511
,,,1,,2,0,0,0,0,,,,,,,,0,1,,,Y,,0,0,0,N,41.55709243,-71.44660868,,3,North Kingstown High School,,512,SCH,,0,0,0,,0,3,N,,Fairway,0,,6,North Kingstown,1,0,SC,0,0,512
,,,2,,0,0,0,0,0,,,,,,,,0,0,,,Y,,0,1,0,N,41.58083531,-71.72419876,,0,Arcadia Management Area,,513,STA,,0,0,0,,0,0,N,,Ten Rod,0,,0,Exeter,0,1,MA,0,0,513
,,,1,,2,0,0,0,0,,,,,,,,0,0,,,N,,0,0,0,N,41.5555364,-71.28698171,,2,Portsmouth Middle School,,514,SCH,,0,0,0,,0,2,N,,Jepson,0,,0,Portsmouth,0,0,SC,0,0,514
,,,0,,0,0,1,0,0,,,,,,,,0,0,,,Y,,0,0,0,Y,41.55332581,-71.23627473,,0,Sandy Point Beach,,515,MUN,,0,0,1,,0,0,Y,,Sandy Point,0,,0,Portsmouth,0,0,LP,0,0,515
No,http://www.riparks.com/Locations/LocationJohnHChafee.html,248 acres,0,John H. Chafee Nature Preserve,0,0,0,0,0,John H Chafee Rome Point Preserve,,,(401) 884-2010,,This is a popular destination for casual hikers and dog walkers.  From the parking area on Boston Neck Road a unpaved road leads to Narragansett Bay and several intersecting trails.  It's great seal watching spot in winter.,Yes,1,0,,,Y,Yes,0,0,0,N,41.54018644,-71.43125142,,0,John H Chafee Rome Point Preserve,,516,STA,No,0,0,No,,0,0,N,,Boston Neck Road,0,No,0,North Kingstown,0,1,SP,0,0,516
,,,0,,0,0,0,0,0,,,,,,,,0,0,,,Y,,0,0,0,N,41.54493826,-71.20302047,,0,May C. Donovan Marsh,,517,STA,,0,0,0,,0,0,N,,Francis,0,,0,Little Compton,0,0,CA,0,0,517
,,,1,,0,1,0,0,0,,,,,,,,0,0,,,N,,0,0,0,N,41.54689165,-71.44120977,,0,Hamilton School,,518,SCH,,1,0,0,,0,0,N,,Boston Neck,0,,0,North Kingstown,0,0,SC,0,0,518
,,,1,,2,0,0,0,0,,,,,,,,0,0,,,N,,0,0,0,N,41.5459806,-71.25842113,,0,Pennfield School,,519,SCH,,1,0,0,,0,0,N,,Main,0,,0,Portsmouth,0,0,SC,0,0,519
,,,1,,0,0,0,0,1,,,,,,,,1,0,,,Y,,0,0,0,N,41.54067467,-71.47031642,,0,Shady Lea,,520,STA,,0,0,0,,0,0,N,,Colonel Rodman,0,,0,North Kingstown,0,0,CA,0,0,520
,,,1,,2,0,0,0,0,,,,,,,,0,0,,,N,,0,0,0,N,41.5400607,-71.29088777,,0,Oliphant School,,521,SCH,,1,0,0,,0,0,N,,Oliphant,0,,0,Middletown,0,0,SC,0,0,521
,,,1,,0,0,0,0,1,,,,,,,,1,0,,,Y,,0,0,0,N,41.53821344,-71.47007532,,0,Silver Spring Lake Fishing Area,,522,STA,,0,0,0,,0,0,N,,Silver Spring,0,,0,North Kingstown,0,0,FB,0,0,522
,,,0,,0,0,1,0,0,,,,,,,,1,0,,,Y,,0,0,0,N,41.53823655,-71.38578005,,0,Jamestown Shores Beach,,523,MUN,,0,0,0,,0,0,N,,Seaside,0,,0,Jamestown,0,0,LP,0,0,523
,,,0,,0,0,0,0,0,,,,,,,,0,0,,,N,,0,1,0,N,41.53399235,-71.3443717,,0,Gould Island,,524,STA,,0,0,0,,0,0,N,,Shore,0,,0,Jamestown,0,0,MA,0,0,524
,,,0,,0,0,0,0,0,,,,,,,,0,0,,,N,,0,0,0,N,41.52320022,-71.29987265,,0,Kennedy School,,525,SCH,,1,0,0,,0,0,N,,Lake Erie,0,,0,Middletown,0,0,SC,0,0,525
,,,1,,2,0,0,0,0,,,,,,,,0,1,,,N,,0,0,0,N,41.52029125,-71.27790952,,2,Middletown Middle School,,526,SCH,,0,0,0,,0,1,N,,Turner,0,,5,Middletown,0,0,SC,0,0,526
,,,0,,0,0,0,0,0,,,,,,,,1,0,,,Y,,0,1,0,N,41.50593813,-71.75704728,,0,Rockville Management,,527,STA,,0,0,0,,0,0,N,,Canonchet,0,,0,Hopkinton,0,1,MA,0,0,527
,,,1,,0,0,0,0,0,,,,,,,,0,0,,,N,,0,0,0,N,41.51072357,-71.30053561,,1,Linden School,,528,SCH,,1,0,0,,0,0,Y,,Linden,0,,0,Middletown,0,0,SC,0,0,528
,,,1,,1,0,0,0,0,,,,,,,,0,0,,,N,,0,0,0,N,41.50856225,-71.17634002,,1,Wilbour & McMahon School,,529,MUN,,1,0,0,,0,0,Y,,Meeting House,0,,2,Little Compton,0,0,LP,0,0,529
,,,0,,0,0,0,0,0,,,,,,,,0,0,,,N,,0,0,0,N,41.50843689,-71.30486676,,1,Sullivan School,,530,SCH,,1,0,0,,0,0,N,,Dexter,0,,0,Newport,0,0,SC,0,0,530
,,,0,,0,0,0,0,0,,,,,,,,0,0,,,N,,0,0,0,N,41.5067444,-71.42795478,,1,Eldridge Playground,,531,MUN,,1,0,0,,0,0,N,,Miner,0,,0,North Kingstown,0,0,LP,0,0,531
,,,0,,0,0,0,0,0,,,,,,,,0,0,,,N,,0,1,0,N,41.50149014,-71.40055381,,0,Bay Is. Park-Dutch Island,,532,STA,,0,0,0,,0,0,N,,Fort Getty,0,,0,Jamestown,0,1,MA,0,0,532
,,,1,,1,1,0,0,0,,,,,,,,0,0,,,N,,0,0,0,N,41.50089657,-71.66181051,,1,Richmond Elementary School,,533,SCH,,1,0,0,,0,0,N,,Kingstown,0,,2,Richmond,0,0,SC,0,0,533
,,,0,,0,0,0,0,0,,,,,,,,0,0,,,N,,0,0,0,N,41.50074988,-71.31037141,,1,Coggeshall School,,534,SCH,,1,0,0,,0,0,N,,Evarts,0,,0,Newport,0,0,SC,0,0,534
,,,0,,0,0,0,0,0,,,,,,,,1,0,,,Y,,0,0,0,N,41.49841364,-71.32250821,,0,Van Zandt Pier,,535,MUN,,0,0,0,,0,0,Y,,Van Zandt,0,,0,Newport,0,0,LP,0,0,535
,,,0,,0,1,0,0,0,,,,,,,,0,0,,,N,,0,0,0,N,41.49799875,-71.57801365,,0,Abbie Perry Park,,536,MUN,,0,0,0,,0,0,N,,Sand Turn,0,,0,South Kingstown,0,0,LP,0,0,536
,,,0,,0,0,0,0,0,,,,,,,,1,0,,,N,,0,0,0,N,41.49902696,-71.44699872,,0,Pettaquamscutt Park,,537,MUN,,0,0,0,,0,0,N,,Woodsia,0,,0,Narragansett,0,0,LP,0,0,537
,,,0,,0,0,0,0,0,,,,,,,,0,0,,,N,,0,0,0,N,41.49804935,-71.37425685,,0,Jamestown Library Playground,,538,MUN,,1,0,0,,0,0,N,,Douglas,0,,0,Jamestown,0,0,LP,0,0,538
,,,0,,3,0,0,0,0,,,,,,,,0,0,,,N,,0,0,0,N,41.49660451,-71.28116775,,0,Aquidneck School,,539,SCH,,1,0,0,,0,0,N,,Reservoir,0,,0,Middletown,0,0,SC,0,0,539
Yes,,2 acres,0,The Tower,0,0,0,0,0,Hannah Robinson Tower,,,(401) 667-6200,,"This iconic landmark at the intersection of Routes 1 & 138 offers a sweeping view of Narragansett Bay and the Atlantic Ocean.  Built by the Civilian Conservation Corps in 1938, it was rebuilt in 1988 using the original timber framework.",No,0,0,,,Y,Yes,0,0,0,N,41.49504847,-71.45588557,,0,Hannah Robinson Tower,,540,STA,Unsure,0,0,No,,0,0,N,,Bridgetown,0,No,0,South Kingstown,0,0,SP,0,0,540
,,,0,,0,0,1,0,0,,,,,,,,0,0,,,Y,,0,0,0,N,41.49385842,-71.13778201,,0,Little Compton Town Beach,,541,MUN,,0,0,0,,0,0,N,,Shore,0,,0,Little Compton,0,0,LP,0,0,541
,,,0,,0,0,0,0,0,,,,,,,,0,0,,,N,,0,0,0,N,41.49470019,-71.30819303,,0,Cranston / Calvert School,,542,SCH,,1,0,0,,0,0,N,,Cranston,0,,0,Newport,0,0,SC,0,0,542
,,,0,,0,0,0,0,0,,,,,,,,0,0,,,N,,0,0,0,N,41.4937964,-71.30456748,,0,Admiral Luce Circle,,543,MUN,,0,0,0,,0,0,N,,Kay,0,,0,Newport,0,0,LP,0,0,543
,,,0,,0,0,0,0,0,,,,,,,,0,0,,,N,,0,0,0,Y,41.48707467,-71.25128814,,0,Sachuest Point Campground,,544,MUN,,0,0,0,,0,0,N,,Sachuest Point,0,,0,Middletown,0,0,LP,0,0,544
,,,0,,0,0,0,0,0,,,,,,,,0,0,,,Y,,0,0,0,N,41.48052468,-71.24299068,,0,Sachuest Pt. National Refuge,,545,FED,,0,0,0,,0,0,N,,Sachuest Point,0,,0,Middletown,0,1,CA,0,1,545
,,,1,,0,0,0,0,0,,,,,,,,0,0,,,Y,,0,1,0,N,41.46908363,-71.68852297,,0,Carolina Management  Area,,546,STA,,0,0,0,,0,0,N,,Meadowbrook,0,,0,Richmond,0,1,MA,0,0,546
,,,0,,0,0,1,0,0,,,,,,,,0,0,,,Y,,0,0,0,Y,41.48765177,-71.25745258,,0,Second Beach,,547,MUN,,0,0,1,,0,0,N,,Sachuest Point,0,,0,Middletown,0,0,LP,0,0,547
,,,0,,0,0,1,0,0,,,,,,,,0,0,,,Y,,0,0,0,Y,41.48795321,-71.29183492,,0,Easton's Beach,,548,MUN,,0,0,0,,0,0,Y,,Memorial,0,,0,Newport,0,0,LP,0,0,548
,,,0,,0,0,1,0,0,,,,,,,,0,0,,,Y,,0,0,0,N,41.48891754,-71.38410629,,0,Jamestown Town Beach,,549,MUN,,0,0,0,,0,0,N,,Beavertail,0,,0,Jamestown,0,0,LP,0,0,549
Unsure,,3 acres,0,,0,0,0,0,0,Purgatory Chasm,,,,,"Just a short walk from the parking area on Tuckerman Ave in Middletown.  Purgatory Chasm is deep, narrow cleft in the cliff overlooking Second Beach and the Atlantic Ocean.  The site is well worth a visit.",Yes,0,0,,,Y,Yes,0,0,0,N,41.48681422,-71.2684191,,0,Purgatory Chasm,,550,STA,No,0,0,No,,0,0,N,,Tuckerman,0,Unsure,0,Middletown,0,0,SP,0,0,550
,,,0,,0,0,0,0,0,,,,,,,,0,0,,,N,,0,0,0,N,41.4781752,-71.550471,,0,West Kingston School,,551,SCH,,1,0,0,,0,0,N,,Ministerial,0,,0,South Kingstown,0,0,SC,0,0,551
,,,0,,0,0,0,0,0,,,,,,,,0,0,,,Y,,0,1,0,N,41.46467079,-71.57805349,,0,Great Swamp Management Area,,552,STA,,0,0,0,,0,0,N,,Great Neck,0,,0,South Kingstown,0,1,MA,0,0,552
,,,0,,0,0,0,0,0,,,,,,,,0,0,,,Y,,0,0,0,Y,41.47589496,-71.29730786,,0,Cliff Walk,,553,MUN,,0,0,0,,0,0,N,,Narragansett,0,,0,Newport,0,0,LP,0,1,553
Yes,http://www.riparks.com/Locations/LocationFortAdams.html,100 acres,1,,0,0,0,0,1,Fort Adams State Park,,,[401] 847-2400,,"The second largest bastioned fort in the U.S. Key to Narragansett Bay area defenses, 1799 to 1945. Designed to be the most heavily armed fort in America and to garrison 2,400 troops. Three tiers of guns defended Narragansett Bay's East Passage. Situated at the mouth of the Newport Harbor, offers panoramic view of both Newport Harbor and the East Passage of Narragansett Bay. Activities including salt water bathing, fishing, boating, soccer, rugby and picnicking. Fort Adams is perhaps best known for its annual summer concerts when the jazz and folk festivals draw thousands to enjoy the music and beautiful surroundings.",Yes,1,0,,,Y,Yes,0,0,0,Y,41.47532818,-71.33828531,,3,Fort Adams State Park,,554,STA,Yes,0,0,Yes,,0,3,N,,Fort Adams,0,Yes,0,Newport,0,0,SP,0,1,554
Yes,http://www.riparks.com/Locations/LocationFortWetherill.html,61.5 acres,1,,0,0,0,0,1,Fort Wetherill,,,(401) 423-1771,,"Fort Wetherill State Park, situated upon 100 foot high granite cliffs across the water from Fort Adams State Park, is a former coastal defense battery and training camp. Known for its spectacular view of Newport Harbor and the East Passage of Narragansett Bay, Fort Wetherill has been a popular sight for viewing the numerous Tall Ship Events and Americas Cup Races. The area is also a major attraction for scuba diving, with Diving Clubs from New York State, Connecticut, Massachusetts and Rhode Island using the facilities at the boat ramp year round. Additionally, the park offers family and group picnicking, boating, fishing, hiking and exploring on the parks 61.5 acres of property.",Yes,1,0,,,Y,Yes,0,0,0,Y,41.48021883,-71.36527682,,0,Fort Wetherill,,555,STA,Yes,0,0,Yes,,0,0,N,,Fort Wetherill,0,Yes,0,Jamestown,0,0,SP,0,0,555
,,,1,,0,1,0,0,0,,,,,,,,0,0,,,N,,0,0,0,N,41.47392649,-71.46517619,,0,Indian Lake Playground,,556,MUN,,0,0,0,,0,0,N,,Indian,0,,0,South Kingstown,0,0,LP,0,0,556
,,,1,,0,0,0,0,0,,,,,,,,0,0,,,Y,,0,0,0,N,41.46977997,-71.32053993,,0,Rogers High School,,557,SCH,,0,0,0,,0,1,N,,Wickham,0,,6,Newport,1,0,SC,0,0,557
,,,1,,0,1,0,0,0,,,,,,,,0,0,,,N,,0,0,0,N,41.47089452,-71.44404665,,0,Mettatuxet Minipark,,558,MUN,,1,0,0,,0,0,N,,Tupelo,0,,0,Narragansett,0,1,LP,0,0,558
,,,0,,0,0,1,0,0,,,,,,,,0,0,,,N,,0,0,0,N,41.46371863,-71.19320615,,0,Sakonnet Harbor Beach,,559,MUN,,0,0,0,,0,0,N,,Sakonnet Point,0,,0,Little Compton,0,0,LP,0,0,559
Yes,http://www.riparks.com/Locations/LocationBeavertail.html,194 acres,0,Beavertail Light,0,0,0,0,0,Beavertail State Park,,,[401] 884-2010,[401] 423-9941,"Beavertail State Park, located in Jamestown, Rhode Island, is known for offering some of the most beautiful vistas along the New England coastline. The Park attracts people from all over the country, to enjoy its pristine environment. Beavertails most popular activity is sightseeing, and can be done from the comfort of a vehicle, in one of the four overlooks or on foot, from the rocky coastline. Beavertail also provides some of the best saltwater fishing in the area, along with offering hiking trails, and a naturalist program that attracts hundreds of people each year._",Yes,1,0,,,Y,Yes,0,0,0,Y,41.45677614,-71.39702944,,0,Beavertail State Park,,560,STA,Yes,0,0,Yes,,0,0,N,,Beavertail,0,No,0,Jamestown,0,0,SP,0,0,560
Yes,http://www.riparks.com/Locations/LocationBrentonPoint.html,88.9 acres,0,Brenton Reef,0,0,0,0,0,Brenton Point State Park,,,[401] 847-2400,[401] 849-4562,"Occupying the former grounds of one of Newport's grandest estates, Brenton Point State Park affords its visitors one of the most commanding and spectacular views on the East Coast. The park is located at the point of land where Narragansett Bay meets the Atlantic, midway along renowned Ocean Drive. Visitors can enjoy picnicking, hiking, fishing or just relaxing with the cool breezes and majestic views of the Atlantic.",Yes,1,0,,,Y,Yes,0,0,0,Y,41.45196351,-71.35443376,,1,Brenton Point Park,,561,STA,Yes,0,0,Yes,,0,0,N,,Atlantic,0,Yes,0,Newport,0,0,SP,0,0,561
,,,0,,0,0,1,0,0,,,,,,,,1,0,,,Y,,0,0,0,Y,41.45435982,-71.34235338,,0,Kings Beach,,562,STA,,0,0,0,,0,0,N,,Price's Neck,0,,0,Newport,0,0,FB,0,0,562
,,,1,,0,1,0,0,0,,,,,,,,0,0,,,Y,,0,0,0,Y,41.45324731,-71.50685616,,0,Frank Fagan Park,,563,MUN,,1,0,0,,0,0,Y,,Dam,0,,0,South Kingstown,0,0,LP,0,1,563
,,,1,,4,0,0,0,0,,,,,,,,0,1,,,Y,,0,0,0,N,41.45079299,-71.69733893,,2,Chariho High School,,564,SCH,,0,0,0,,0,2,N,,Switch,0,,4,Richmond,1,0,SC,0,0,564
,,,0,,1,0,0,0,0,,,,,,,,0,0,,,N,,0,0,0,N,41.4495815,-71.65536211,,0,Charlestown School,,565,SCH,,1,0,0,,0,0,N,,Old Shannock,0,,0,Charlestown,0,1,SC,0,0,565
,,,1,,0,0,0,0,0,,,,,,,,0,0,,,N,,0,0,0,N,41.45002314,-71.4943843,,0,South Kingstown Village Green,,566,MUN,,1,0,0,,0,0,Y,,Kingstown,0,,2,South Kingstown,0,0,LP,0,0,566
,,,1,,0,0,0,0,0,,,,,,,,0,0,,,N,,0,0,0,Y,41.44556972,-71.49368144,,2,Hazard Field,,567,SCH,,0,0,0,,0,2,N,,School,0,,0,South Kingstown,0,0,SC,0,0,567
,,,1,,2,0,0,0,0,,,,,,,,0,0,,,N,,0,0,0,N,41.78778519,-71.45267627,,0,Cooney-tate Field,,568,MUN,,0,0,0,,0,0,Y,,Gansett,0,,0,Cranston,0,0,LP,0,0,568
,,,1,,3,0,0,0,0,,,,,,,,0,2,,,Y,,0,0,0,Y,41.63710485,-71.48366356,,4,East Greenwich High School,,569,MUN,,1,0,0,,1,4,N,,Avenger,0,,6,East Greenwich,1,0,AF,0,0,569
,,,1,,0,0,0,0,0,,,,,,,,0,0,,,Y,,0,0,0,Y,42.0100352,-71.50952688,,0,World War II Park,,570,MUN,,1,0,1,,0,0,N,,School,0,,4,Woonsocket,0,0,LP,0,0,570
,,,1,,1,2,0,0,0,,,,,,,,0,0,,,Y,,0,0,0,Y,41.99774171,-71.53058882,,1,Dunn Park,,571,MUN,,1,0,0,,0,1,N,,Mason,1,,3,Woonsocket,0,0,LP,0,1,571
,,,0,,0,0,0,0,0,,,,,,,,0,0,,,N,,0,0,0,Y,41.78184439,-71.39504461,,0,Edgewood Park,,572,MUN,,0,0,0,,0,0,N,,Narragansett,0,,0,Cranston,0,0,LP,0,0,572
,,,0,,0,0,0,0,0,,,,,,,,0,0,,,N,,0,0,0,N,41.44526431,-71.49519909,,0,Hazard School,,573,SCH,,1,0,0,,0,0,N,,School,0,,0,South Kingstown,0,0,SC,0,0,573
,,,0,,0,0,0,0,0,,,,,,,,0,0,,,Y,,0,0,0,Y,41.43964766,-71.4609173,,0,Canonchet Farm,,574,MUN,,0,0,1,,0,0,N,,Anne Hoxsie,0,,0,Narragansett,0,1,CA,0,0,574
,,,0,,0,0,0,0,0,,,,,,,,0,0,,,N,,0,0,0,N,41.45405321,-71.49983044,,1,Peacedale Elementary School,,575,SCH,,1,0,0,,0,0,N,,Emmett,0,,0,South Kingstown,0,0,SC,0,0,575
,,,1,,0,0,0,0,0,,,,,,,,1,0,,,Y,,0,0,0,N,41.43840127,-71.69017184,,0,Meadow Brook Pond,,576,STA,,0,0,0,,0,0,N,,Church,0,,0,Richmond,0,1,FB,0,0,576
,,,0,,0,0,1,0,0,,,,,,,,0,0,,,Y,,0,0,0,N,41.43560611,-71.45525383,,0,Narragansett Town Beach,,577,MUN,,0,0,1,,0,0,N,,Beach,0,,0,Narragansett,0,0,LP,0,0,577
,,,1,,1,0,0,0,0,,,,,,,,0,0,,,N,,0,0,0,Y,41.42999465,-71.49521566,,0,Town Farm,,578,MUN,,1,0,0,,0,0,N,,Dobson,0,,0,South Kingstown,0,0,LP,0,0,578
,,,0,,0,0,0,0,0,,,,,,,,0,0,,,N,,0,0,0,N,41.42932441,-71.78959053,,0,Briggs Memorial Park,,579,MUN,,0,0,0,,0,0,N,,High,0,,0,Hopkinton,0,0,LP,0,0,579
,,,0,,0,0,0,0,0,,,,,,,,1,0,,,Y,,0,0,0,N,41.42804251,-71.497271,,1,Marina Park,,580,MUN,,0,0,1,,0,0,Y,,Salt Pond,0,,0,South Kingstown,0,0,LP,0,1,580
,,,1,,2,0,0,0,0,,,,,,,,0,1,,,Y,,0,0,0,N,41.42977653,-71.47056645,,3,Narragansett High School,,581,SCH,,0,0,0,,0,3,N,,Pier,0,,0,Narragansett,1,0,SC,0,0,581
,,,1,,0,0,0,0,0,,,,,,,,0,0,,,N,,0,0,0,N,41.41998324,-71.7915734,,0,Ashaway School,,582,SCH,,1,0,0,,0,0,N,,Hillside,0,,0,Hopkinton,0,0,SC,0,0,582
,,,1,,1,0,0,0,0,,,,,,,,0,0,,,N,,0,0,0,N,41.41550094,-71.64532086,,1,Charlestown Town Hall Field,,583,MUN,,0,0,0,,0,1,N,,County,0,,0,Charlestown,0,0,AF,0,0,583
,,,1,,0,1,0,0,0,,,,,,,,0,0,,,N,,0,0,0,Y,41.39580591,-71.83715285,,1,Gingerella Sports Complex,,584,MUN,,1,0,0,,1,5,Y,,White Rock,0,,1,Westerly,0,0,LP,0,0,584
Yes,http://www.riparks.com/Locations/LocationScarborough.html,30 acres,0,Scarborough State Beach Complex,0,0,1,0,0,Scarborough State Beach,,,(401) 789-8374,(401) 789-2324,"People of all ages will find activities of interest from sun bathing on Scarboroughs sandy beach, and people watching on its boardwalk to picnicking under shaded shelters, and saltwater bathing in one of Rhode Islands most popular spots.",No,0,0,,,Y,Yes,0,0,0,Y,41.38970208,-71.4726791,,0,Scarborough State Beach,,585,STA,Yes,0,0,Yes,,0,0,N,,Ocean,0,Yes,0,Narragansett,0,0,SP,0,0,585
,,,1,,0,0,0,0,0,,,,,,,,0,0,,,Y,,0,1,0,N,41.37737746,-71.74580578,,0,Woody Hill Area,,586,STA,,0,0,0,,0,0,N,,Woody Hillension,0,,0,Westerly,0,1,MA,0,0,586
,,,0,,0,0,0,0,0,,,,,,,,0,0,,,Y,,0,1,0,N,41.3815532,-71.77534604,,0,Newton Swamp,,587,STA,,0,0,0,,0,0,N,,Westerly-Bradford,0,,0,Westerly,0,1,MA,0,0,587
,,,0,,0,0,0,0,0,,,,,,,,0,0,,,N,,0,0,0,Y,41.37991679,-71.52602327,,0,Succotash Marsh,,588,STA,,0,0,0,,0,0,N,,Succotash,0,,0,South Kingstown,0,0,CA,0,0,588
,,,0,,0,0,0,0,0,,,,,,,,0,0,,,Y,,0,0,0,N,41.38295796,-71.58502628,,0,Trustom Pond National Wildlife Refuge,,589,FED,,0,0,0,,0,0,N,,Border,0,,0,South Kingstown,0,1,CA,0,0,589
,,,0,,0,0,0,0,0,,,,,,,,0,0,,,N,,0,0,0,N,41.37820421,-71.49902682,,0,Galilee Bird Sanctuary,,590,STA,,0,0,0,,0,0,N,,Galilee Escape,0,,0,Narragansett,0,0,MA,0,0,590
No,,2 acres,0,,0,0,0,0,0,Fort Ninigret,,,(401) 667-6200,,An historic fort or trading post was once situated on this spot overlooking Ninigret Pond in Charlestown. ,Yes,0,0,,,Y,Yes,0,0,0,N,41.38111243,-71.64786675,,0,Fort Ninigret,,591,STA,Yes,0,0,No,,0,0,N,,Fort Ninigret,0,No,0,Charlestown,0,0,SP,0,0,591
,,,0,,0,0,0,0,0,,,,,,,,0,0,,,Y,,0,1,0,N,41.40476861,-71.70753614,,0,Burlingame Management Area,,592,STA,,0,0,0,,0,0,N,,Unnamed,0,,0,Charlestown,0,1,MA,0,0,592
,,,1,,0,2,0,0,0,,,,,,,,0,0,,,N,,0,0,0,Y,41.38025349,-71.49287926,,0,Fishermen's Memorial State Campground,,593,STA,,0,0,1,,0,0,N,,Point Judith,0,,2,Narragansett,0,0,SP,0,0,593
,,,0,,0,1,0,0,0,,,,,,,,0,0,,,N,,0,0,0,N,41.37926287,-71.8136654,,0,Tower St. School,,594,SCH,,1,0,0,,0,0,N,,Narragansett,0,,1,Westerly,0,0,LP,0,0,594
,,,1,,1,0,0,0,0,,,,,,,,0,1,,,Y,,0,0,0,N,41.37632833,-71.82043132,,1,Babcock Hall,,595,SCH,,0,0,0,,0,0,N,,Ward,0,,0,Westerly,1,0,SC,0,0,595
Yes,http://www.riparks.com/Locations/LocationEastMatunuck.html,144 acres,0,,0,0,1,0,0,East Matunuck State Beach,,,(401) 789-8374,(401) 789-8585,"Located on the east side of ""the Breachway"" is a camping area for self contained RV's, a state beach, some of the best salt water fishing in South County and a panoramic view of Block Island Sound. The Charlestown Breachway does not have accomodations for canvas camping._ All units must be self contained: Unit must have permanent holding tanks for potable water, grey water and black water. Bathroom equipment must be permanently fixed to the unit. This location also has boat launch with limited parking.",No,0,0,,,Y,Yes,0,0,0,Y,41.37781081,-71.5259904,,0,East Matunuck State Beach,,596,STA,Yes,0,0,Yes,,0,0,N,,Succotash,0,Yes,0,South Kingstown,0,0,SP,0,0,596
Yes,,,0,,0,0,1,0,0,Roger Wheeler State Beach,,,,,The beach here is protected by the outer breakwater of the Point Judith Habor of Refuge.  The limited wave action makes this a popular beach for families with small children.,No,0,0,,,Y,Yes,0,0,0,Y,41.37331525,-71.49946588,,0,Roger Wheeler State Beach,,597,STA,Yes,1,0,Yes,,0,0,N,,Sand Hill Cove,0,No,0,Narragansett,0,0,SP,0,0,597
,,,0,,0,0,0,0,0,,,,,,,,0,0,,,N,,0,0,0,N,41.36603152,-71.82422052,,1,State St. School,,599,SCH,,1,0,0,,0,0,N,,State,0,,0,Westerly,0,0,SC,0,0,599
,,,0,,0,0,0,0,0,,,,,,,,1,0,,,Y,,0,0,0,Y,41.36221751,-71.48584687,,0,Camp Cronin,,600,STA,,0,0,0,,0,0,N,,Ocean,0,,0,Narragansett,0,0,FB,0,0,600
,,,0,,0,0,1,0,0,,,,,,,,0,0,,,Y,,0,0,0,N,41.36121066,-71.6256669,,0,Charlestown Town Beach,,601,MUN,,0,0,1,,0,0,N,,Brown Hill,0,,0,Charlestown,0,0,LP,0,0,601
Yes,http://www.riparks.com/Locations/LocationCharlestownBreachway.html,14 acres,1,Charlestown Breachway State Beach,0,0,0,0,1,Charlestown Breachway Campground,,,[401] 322-8910,[401] 364-7000,"In 1904, the townsfolk asked the General Assembly to appropriate monies for a permanent breachway using the arguments that the natural breach was filled in by the tides depositing sand thereby creating a barrier that separated the pond from the ocean. Also, a permanent breach would prevent the water in Ninigret/Pawaget/ Charlestown pond from becoming brackish and unfit for the cultivation and harvesting of oysters, an industry important to this area._",No,1,0,,,Y,Yes,0,0,0,Y,41.35821598,-71.63808469,,0,Charlestown Breachway Campground,,602,STA,Unsure,0,0,Yes,,0,0,N,,Charlestown Beach,0,No,0,Charlestown,0,0,SP,0,0,602
,,,1,,0,1,0,0,0,,,,,,,,0,0,,,N,,0,0,0,N,41.34691289,-71.77431528,,0,Dunn's Corner School,,603,SCH,,1,0,0,,0,0,N,,Plateau,0,,0,Westerly,0,0,SC,0,0,603
,,,0,,0,0,1,0,0,,,,,,,,1,0,,,Y,,0,1,0,Y,41.34807129,-71.67544304,,0,Ninigret Conservation Area,,604,STA,,0,0,0,,0,0,N,,Beach,0,,0,Charlestown,0,0,CA,0,0,604
,,,1,,0,0,0,0,1,,,,,,,,1,0,,,Y,,0,0,0,N,41.33657338,-71.72224585,,0,Quonochontaug Fishing Area,,605,STA,,0,0,0,,0,0,N,,Beach,0,,0,Charlestown,0,0,FB,0,0,605
Yes,http://www.riparks.com/Locations/LocationMisquamicut.html,51 acres,0,,0,0,1,0,0,Misquamicut State Beach,,,(401) 322-8910,(401) 596-9097,"One of the state's most popular beaches with over a half mile of beach front, there are also many local attractions for children. This modern pavilion includes many new features including rails, outside showers, and composting toilets. This beach does fill to capacity during sunny summer weekends.",No,0,0,,,Y,Yes,0,0,0,N,41.32316413,-71.80357795,,0,Misquamicut State Beach,,606,STA,Yes,1,0,Yes,,0,0,N,,Atlantic,0,Yes,0,Westerly,0,0,SP,0,0,606
,,,0,,0,0,1,0,0,,,,,,,,0,0,,,Y,,0,0,0,N,41.32500682,-71.79054511,,0,Westerly Town Beach,,607,MUN,,0,0,1,,0,0,Y,,Atlantic,0,,0,Westerly,0,0,LP,0,0,607
,,,0,,0,0,0,0,0,,,,,,,,0,0,,,N,,0,0,0,N,41.21140991,-71.57406748,,0,Block Is. Nat. Wildlife Refuge,,608,FED,,0,0,0,,0,0,N,,Beach,0,,0,New Shoreham,0,0,CA,0,0,608
,,,0,,0,0,0,0,0,,,,,,,,1,0,,,Y,,0,0,0,N,41.22459995,-71.5674552,,0,Settler's Rock,,609,MUN,,0,0,0,,0,0,N,,Corn Neck,0,,0,New Shoreham,0,0,LP,0,0,609
,,,0,,0,0,0,0,0,,,,,,,,0,0,,,N,,0,0,0,Y,41.22084183,-71.56066948,,0,Clay Head / Risom,,610,STA,,0,0,0,,0,0,N,,Corn Neck,0,,0,New Shoreham,0,1,CA,0,0,610
,,,0,,0,0,0,0,0,,,,,,,,0,0,,,Y,,0,0,0,Y,41.20854164,-71.5620784,,0,Clay Head,,611,NGO,,0,0,0,,0,0,N,,Clayhead,0,,0,New Shoreham,0,1,CA,0,0,611
,,,1,,1,0,0,0,0,,,,,,,,0,0,,,N,,0,0,0,N,41.16488715,-71.56102418,,0,Block Island School,,613,SCH,,1,0,0,,0,0,N,,Pilot Hill,0,,0,New Shoreham,0,0,SC,0,0,613
,,,0,,0,0,0,0,0,,,,,,,,0,0,,,Y,,0,0,0,Y,41.15257053,-71.59078978,,0,Rodman's Hollow,,614,STA,,0,0,0,,0,0,N,,Black Rock,0,,0,New Shoreham,0,1,CA,0,0,614
,,,0,,0,0,0,0,0,,,,,,,,0,0,,,N,,0,0,0,N,41.83072214,-71.51138179,,0,Pascone Conservation Area,,615,MUN,,0,0,0,,0,0,N,,Burrati,0,,0,Johnston,0,0,CA,0,0,615
,,,0,,0,0,0,0,0,,,,,,,,1,0,,,Y,,0,0,0,N,41.67358217,-71.4421003,,0,Chepiwanoxet,,616,MUN,,0,0,0,,0,0,N,,John Wickes,0,,0,Warwick,0,1,LP,0,0,616
,,,0,,0,0,0,0,0,,,,,,,,0,0,,,Y,,0,0,0,N,41.73703027,-71.43691366,,0,Lincoln Park,,617,MUN,,1,0,0,,0,0,N,,Kentucky,0,,0,Warwick,0,0,LP,0,1,617
,,,0,,0,0,0,0,0,,,,,,,,0,0,,,N,,0,0,0,N,41.69863287,-71.40063811,,0,Oakland Beach School,,618,SCH,,1,0,0,,0,0,N,,Gordon,0,,0,Warwick,0,0,SC,0,0,618
,,,1,,0,0,0,0,0,,,,,,,,0,0,,,N,,0,0,0,N,41.70772571,-71.43775329,,1,Iris Ave Field,,619,MUN,,0,0,0,,0,3,N,,Iris,0,,0,Warwick,0,0,AF,0,0,619
,,,0,,0,0,0,0,0,,,,,,,,0,0,,,N,,0,0,0,N,41.68325205,-71.56047015,,0,Coventry Focal Point,,620,MUN,,0,0,0,,0,0,N,,Tiogue,0,,0,Coventry,0,0,LP,0,0,620
,,,0,,0,0,0,0,0,,,,,,,,1,0,,,Y,,0,1,0,N,41.68816757,-71.55630418,,0,Merrill S. Whipple Conservation,,621,STA,,0,0,0,,0,0,N,,Sandy Bottom,0,,0,Coventry,0,1,MA,0,0,621
,,,0,,0,0,0,0,0,,,,,,,,0,0,,,N,,0,0,0,N,41.72279187,-71.53435098,,0,Phenix-Harris Main Street Water,,622,MUN,,0,0,0,,0,0,Y,,Main,0,,0,Coventry,0,0,LP,0,0,622
,,,1,,2,0,0,0,0,,,,,,,,0,0,,,N,,0,0,0,N,41.64935606,-71.46824701,,1,Hanaford Field,,623,MUN,,1,0,0,,0,1,N,,Lebaron,0,,0,East Greenwich,0,0,LP,0,0,623
,,,1,,0,0,0,1,0,,,,,,,,0,0,,,Y,,0,0,0,N,41.72581274,-71.28067042,,0,East Bay Bike Path,,624,STA,,0,0,0,,0,0,N,,Franklin,0,,0,Warren,0,0,SP,0,1,624
,,,1,,0,0,0,0,0,,,,,,,,0,0,,,N,,0,0,0,N,41.94132229,-71.5394764,,0,North Smithfield Elementary Sch,,625,MUN,,1,0,0,,0,4,N,,Providence Pike,0,,0,North Smithfield,0,0,LP,0,0,625
,,,0,,0,0,0,0,0,,,,,,,,0,0,,,N,,0,0,0,N,41.80817704,-71.40862618,,0,Alphonso St. Playground,,626,MUN,,1,0,0,,0,0,N,,Alphonso,0,,0,Providence,0,0,LP,0,0,626
,,,1,,0,0,0,0,0,,,,,,,,0,0,,,Y,,1,0,0,Y,41.82532304,-71.46350954,,0,Buttonhole Golf Course,,627,STA,,0,0,1,,0,0,N,,King Philip,0,,0,Johnston,0,0,LP,0,0,627
,,,0,,0,0,0,0,0,,,,,,,,0,0,,,Y,,0,0,0,N,41.82719903,-71.41397029,,0,Waterplace Park,,628,MUN,,0,0,0,,0,0,N,,Finance,0,,0,Providence,0,0,LP,0,1,628
,,,0,,0,0,0,0,0,,,,,,,,0,0,,,N,,0,0,0,N,41.79179958,-71.42726906,,0,Woodmont Playground,,629,MUN,,1,0,0,,0,0,N,,Woodmont,0,,0,Providence,0,0,LP,0,0,629
,,,0,,0,0,0,0,0,,,,,,,,0,0,,,N,,0,0,0,N,41.81609525,-71.46428651,,0,Springfield School Grounds,,630,MUN,,1,0,0,,0,0,N,,Springfield,0,,0,Providence,0,0,LP,0,0,630
,,,0,,0,0,0,0,0,,,,,,,,0,0,,,N,,0,0,0,N,41.49508267,-71.31200683,,0,Kingston Street Playground,,631,MUN,,1,0,0,,0,0,N,,Kingston,0,,0,Newport,0,0,LP,0,0,631
,,,1,,0,0,0,0,0,,,,,,,,0,0,,,N,,0,0,0,N,41.88180895,-71.35214467,,1,Potter-Burns School,,632,SCH,,1,0,0,,0,1,N,,Carter,0,,0,Pawtucket,0,0,SC,0,0,632
,,,0,,0,0,0,0,0,,,,,,,,0,0,,,N,,0,0,0,Y,41.95441256,-71.4750003,,0,Eagle Nest / Handy Pond,,633,MUN,,0,0,0,,0,0,N,,Old River,0,,0,Lincoln,0,0,CA,0,0,633
,,,1,,0,0,0,0,0,,,,,,,,0,0,,,N,,0,0,0,N,41.75379359,-71.29827765,,0,Kent Street,,634,MUN,,0,0,0,,0,0,N,,Kent,0,,1,Barrington,0,1,AF,0,0,634
,,,1,,0,0,0,0,0,,,,,,,,0,0,,,Y,,0,0,0,N,41.74869683,-71.33137675,,1,St. Andrew's Farm,,635,MUN,,0,0,0,,0,1,Y,,Middle,0,,0,Barrington,0,0,AF,0,1,635
Yes,http://www.riparks.com/Locations/LocationSaltyBrine.html,1.3 acres,0,,0,0,1,0,0,Salty Brine State Beach,,,(401) 789-8374,(401) 789-3563,"Named for local radio legend, Walter ""Salty Brine"" Brian, this beach abuts the entrance channel to Point Judith Pond.  Boat watching and fishing along the breakwater are popular attractions in addition to the beach.",No,0,0,,,Y,Yes,0,0,0,Y,41.37543555,-71.51280235,,0,Salty Brine State Beach,,636,STA,Yes,0,0,Yes,,0,0,N,,Sand Hill Cove,0,Yes,0,Narragansett,0,0,SP,0,0,636
,,,0,,0,0,0,0,0,,,,,,,,0,0,,,N,,0,0,0,N,41.61244876,-71.48708525,,0,Hunt River Preserve,,637,NGO,,0,0,0,,0,0,N,,South County,0,,0,East Greenwich,0,0,CA,0,0,637
,,,1,,0,1,0,0,0,,,,,,,,0,0,,,N,,0,0,0,N,41.18125202,-71.58085592,,0,Ball O'Brien Park,,639,MUN,,1,0,0,,1,0,N,,Side,0,,2,New Shoreham,0,0,LP,0,0,639
,,,1,,3,0,0,0,0,,,,,,,,0,1,,,Y,,0,0,0,N,41.74769443,-71.32001409,,4,Barrington High School,,640,SCH,,0,0,0,,0,3,N,,Lincoln,0,,0,Barrington,1,0,SC,0,0,640
,,,1,,1,0,0,0,0,,,,,,,,0,1,,,Y,,0,0,0,N,41.68457091,-71.59456721,,2,Coventry High School,,641,SCH,,0,0,0,,0,1,N,,Club House,0,,6,Coventry,1,0,SC,0,0,641
,,,1,,1,0,0,0,0,,,,,,,,0,1,,,Y,,0,0,0,N,41.7733679,-71.4789983,,1,Cranston High School West,,642,SCH,,0,0,0,,0,1,Y,,Phoenix,0,,6,Cranston,1,0,SC,0,0,642
,,,1,,1,0,0,0,0,,,,,,,,0,0,,,N,,0,0,0,Y,41.78388617,-71.47124887,,0,Atwood Ave. Field,,643,MUN,,1,0,0,,0,0,N,,Randall,0,,0,Cranston,0,0,LP,0,0,643
,,,1,,2,0,0,0,0,,,,,,,,0,1,,,Y,,0,0,0,N,41.96369436,-71.44360105,,2,Tucker Field,,644,MUN,,0,0,0,,0,1,Y,,Mendon,0,,4,Cumberland,1,0,AF,0,0,644
,,,1,,1,2,0,0,0,,,,,,,,0,0,,,N,,0,0,0,N,41.79899575,-71.36901964,,1,Silver Spring Playground & Athletic Area,,645,MUN,,1,0,0,,0,0,Y,,Silver Spring,0,,0,East Providence,0,0,SC,0,0,645
,,,1,,3,0,0,0,0,,,,,,,,0,1,,,Y,,0,0,0,N,41.81922773,-71.35266303,,6,East Providence High School,,646,SCH,,0,0,0,,0,6,N,,Pawtucket,0,,4,East Providence,1,0,SC,0,0,646
,,,1,,2,1,0,0,0,,,,,,,,0,0,,,N,,0,0,0,N,41.84048732,-71.36259614,,1,Glenlyon Park & Athletic Complex,,647,MUN,,1,0,0,,0,1,Y,,Kelly,0,,1,East Providence,0,0,LP,0,0,647
,,,1,,2,0,0,0,0,,,,,,,,0,1,,,Y,,0,0,0,Y,41.86730856,-71.71449857,,2,Ponagansett School,,648,SCH,,0,0,0,,0,2,Y,,Anan Wade,0,,4,Glocester,1,0,SC,0,0,648
,,,1,,4,1,0,0,0,,,,,,,,0,0,,,N,,0,0,0,N,41.49968831,-71.37955185,,1,Jamestown School,,649,SCH,,1,0,0,,1,1,Y,,Melrose,0,,6,Jamestown,0,0,SC,0,0,649
,,,1,,2,0,0,0,0,,,,,,,,0,1,,,Y,,0,0,0,N,41.93773507,-71.45139089,,2,Lincoln Junior / Senior High,,650,SCH,,0,0,0,,0,2,N,,Old River,0,,8,Lincoln,1,0,SC,0,0,650
,,,1,,1,0,0,0,0,,,,,,,,0,0,,,N,,0,0,0,N,41.51676997,-71.28821814,,1,Middletown High School,,651,SCH,,0,0,0,,0,0,N,,Reardon,0,,0,Middletown,0,0,SC,0,0,651
,,,1,,1,1,0,0,0,,,,,,,,0,0,,,N,,0,0,0,Y,41.52035688,-71.30011856,,1,Anchorage Playground,,652,MUN,,0,0,0,,0,0,N,,Main,0,,0,Middletown,0,0,LP,0,0,652
,,,1,,1,2,0,0,0,,,,,,,,0,0,,,N,,0,0,0,Y,41.4894967,-71.43885428,,0,Domenic Cristofaro Memorial Park,,653,MUN,,1,0,0,,1,2,N,,Boston Neck,0,,4,Narragansett,0,0,LP,0,0,653
,,,1,,4,1,0,0,0,,,,,,,,1,0,,,N,,0,0,0,Y,41.55818221,-71.47588351,,1,Ryan Park,,654,MUN,,0,0,0,,0,0,Y,,Oak Hill,0,,0,North Kingstown,0,0,LP,0,0,654
,,,1,,1,0,0,0,0,,,,,,,,1,0,,,Y,,0,0,0,Y,41.8715035,-71.46275956,,0,Notte Memorial Park,,655,MUN,,0,0,0,,0,0,Y,,Douglas,0,,2,North Providence,0,0,LP,0,0,655
,,,1,,4,1,0,0,0,,,,,,,,0,0,,,N,,0,0,0,Y,42.00007827,-71.58277417,,0,Pacheco Park,,656,MUN,,1,0,0,,1,0,Y,,Main,0,,1,North Smithfield,0,1,LP,0,0,656
,,,1,,2,2,0,0,0,,,,,,,,0,1,,,Y,,0,0,0,Y,41.95165709,-71.54447129,,1,North Smithfield High School,,657,SCH,,0,0,0,,0,1,N,,Greenville,0,,4,North Smithfield,1,0,SC,0,0,657
,,,1,,2,1,0,0,0,,,,,,,,0,1,,,Y,,0,0,0,N,41.83429541,-71.40379536,,2,Hope High School,,658,SCH,,1,0,0,,0,1,Y,,Brown,0,,8,Providence,1,0,SC,0,0,658
,,,1,,0,0,0,0,0,,,,,,,,0,1,,,N,,0,0,0,N,41.46087262,-71.52038456,,0,Curtis Corner Middle School,,659,SCH,,0,0,0,,0,1,Y,,Curtis Corner,0,,5,South Kingstown,0,0,SC,0,0,659
,,,1,,2,0,0,0,0,,,,,,,,0,1,,,Y,,0,0,0,N,41.87980813,-71.54400591,,1,Smithfield High School,,660,SCH,,0,0,0,,0,1,N,,Rosewood,0,,4,Smithfield,1,0,SC,0,0,660
,,,1,,5,0,0,0,0,,,,,,,,0,0,,,N,,0,0,0,N,41.88507014,-71.50407154,,2,Whipple Field,,661,MUN,,0,0,0,,0,0,Y,,Whipple,0,,0,Smithfield,0,0,AF,0,0,661
,,,1,,1,1,0,0,0,,,,,,,,0,0,,,N,,0,0,0,Y,41.75034663,-71.42909666,,1,Rubery Field,,662,MUN,,1,0,0,,0,0,N,,Lyman,0,,0,Warwick,0,0,LP,0,0,662
,,,1,,1,0,0,0,0,,,,,,,,0,0,,,N,,0,0,0,Y,41.6841921,-71.46411821,,1,Cedar Hill School,,663,SCH,,1,0,0,,0,0,N,,Unnamed,0,,0,Warwick,0,0,SC,0,0,663
,,,1,,0,0,0,0,0,,,,,,,,0,0,,,Y,,0,0,0,N,41.70618989,-71.37778216,,2,Gorton School,,664,SCH,,0,0,0,,0,2,N,,Draper,0,,2,Warwick,0,0,SC,0,1,664
,,,1,,3,0,0,0,0,,,,,,,,0,0,,,N,,0,0,0,N,41.76161288,-71.42223032,,1,Belmont Park,,665,MUN,,0,0,0,,0,2,Y,,1st,0,,0,Warwick,0,0,LP,0,0,665
,,,1,,1,2,0,1,0,,,,,,,,0,0,,,Y,,0,0,0,Y,41.72366878,-71.4852603,,0,Father Tirocchi Playground,,666,MUN,,1,0,0,,0,0,N,,Pontiac,0,,0,Warwick,0,0,LP,0,1,666
,,,1,,1,0,0,0,0,,,,,,,,0,1,,,Y,,0,0,0,N,41.74608269,-71.40910366,,2,Pilgrim High School,,667,SCH,,0,0,0,,0,2,N,,Pilgrim,0,,0,Warwick,1,0,SC,0,0,667
,,,0,,1,1,0,0,0,,,,,,,,0,0,,,N,,0,0,0,N,41.69050328,-71.52409948,,0,Quinn School,,668,SCH,,1,0,0,,0,0,N,,Brown,0,,0,West Warwick,0,0,SC,0,0,668
,,,1,,1,0,0,0,0,,,,,,,,0,1,,,Y,,0,0,0,N,41.70881945,-71.51573101,,3,West Warwick School Complex,,669,SCH,,0,0,0,,0,3,N,,Webster Knight,0,,3,West Warwick,1,0,SC,0,0,669
,,,1,,2,1,0,0,1,,,,,,,,1,0,,,Y,,0,0,0,Y,42.00914135,-71.52519899,,0,Cold Spring Park,,670,MUN,,1,0,0,,0,0,Y,,Katherine,0,,2,Woonsocket,0,0,LP,0,0,670
,,,1,,1,1,0,0,0,,,,,,,,0,0,,,N,,0,0,0,Y,41.3975898,-71.74559219,,0,Bradford Elementary School,,671,MUN,,1,0,0,,0,0,N,,Penny,0,,2,Westerly,0,0,LP,0,0,671
,,,1,,0,0,0,0,0,,,,,,,,0,0,,,Y,,0,0,0,N,41.63929988,-71.68619008,,1,Exeter / West Greenwich Soccer,,672,MUN,,0,0,0,,0,7,N,,Victory,0,,0,West Greenwich,0,1,AF,0,0,672
,,,1,,2,0,0,0,0,,,,,,,,0,1,,,Y,,0,0,0,N,41.60582734,-71.63713366,,3,Exeter / West Greenwich Jr-Sr High,,673,SCH,,0,0,0,,0,2,Y,,Nooseneck Hill,0,,4,West Greenwich,1,0,SC,0,0,673
,,,1,,1,1,0,0,0,,,,,,,,0,0,,,N,,0,0,0,N,41.67241752,-71.57723701,,0,Colonial Acres Recreation Area,,674,MUN,,0,0,0,,0,1,N,,Monroe,0,,0,Coventry,0,0,LP,0,0,674
,,,1,,0,0,0,0,0,,,,,,,,0,0,,,Y,,0,0,0,N,41.45534247,-71.48454369,,2,Broad Rock Middle School,,675,SCH,,0,0,0,,0,2,N,,Broad Rock,0,,6,South Kingstown,0,0,SC,0,1,675
,,,1,,0,0,0,0,0,,,,,,,,0,0,,,N,,0,0,0,Y,41.87714021,-71.37190392,,1,O'Brien Field,,676,MUN,,0,0,0,,0,1,N,,Follett,0,,0,Pawtucket,0,0,LP,0,0,676
,,,0,,0,0,0,0,0,,,,,,,,0,0,,,N,,0,0,0,N,41.87694328,-71.37074364,,0,Agnes Little School Playground,,677,SCH,,1,0,0,,0,0,N,,Ashton,0,,0,Pawtucket,0,0,SC,0,0,677
,,,1,,0,0,0,0,0,,,,,,,,0,0,,,N,,0,0,0,Y,41.86877296,-71.36288407,,3,McKinnon / Alves Soccer Complex,,678,MUN,,0,0,0,,0,3,Y,,Monticello,0,,0,Pawtucket,0,0,LP,0,0,678
,,,1,,2,2,0,0,0,,,,,,,,0,0,,,Y,,0,0,0,N,41.98054383,-71.62338553,,1,Burrillville Middle School,,679,SCH,,1,0,0,,0,1,Y,,Broncos,0,,2,Burrillville,1,0,SC,0,0,679
,,,1,,0,0,0,0,0,,,,,,,,0,0,,,N,,0,0,0,N,41.93865755,-71.67575917,,1,Steere Farm Elementary School,,680,SCH,,1,0,0,,0,1,N,,Steere Farm,0,,0,Burrillville,0,0,SC,0,0,680
,,,0,,0,0,0,0,0,,,,,,,,0,0,,,N,,0,0,0,N,41.78921609,-71.4480303,,0,Stadium School,,681,SCH,,1,0,0,,0,0,N,,Crescent,0,,0,Cranston,0,0,SC,0,0,681
,,,0,,0,0,0,0,0,,,,,,,,0,0,,,N,,0,0,0,N,41.76632966,-71.43938253,,0,Waterman School,,682,SCH,,1,0,0,,0,0,N,,Mapleton,0,,0,Cranston,0,0,SC,0,0,682
,,,1,,0,2,0,0,0,,,,,,,,0,0,,,N,,0,0,0,N,41.76619956,-71.4217078,,0,First Street Park,,683,MUN,,1,0,0,,0,0,N,,1st,0,,0,Cranston,0,0,LP,0,0,683
,,,0,,0,0,0,0,0,,,,,,,,0,0,,,N,,0,0,0,N,41.77446202,-71.39628841,,0,Rhodes School,,684,SCH,,1,0,0,,0,0,N,,Shaw,0,,0,Cranston,0,0,SC,0,0,684
,,,1,,1,0,0,0,0,,,,,,,,0,0,,,N,,0,0,0,N,41.68435829,-71.68897904,,0,Ravenwoods Field,,685,MUN,,0,0,0,,0,0,N,,Victory,0,,0,Coventry,0,0,LP,0,0,685
,,,0,,0,0,0,0,0,,,,,,,,0,0,,,N,,0,0,0,N,41.68292781,-71.55948669,,0,Amvets Memorial Park,,686,MUN,,0,0,0,,0,0,N,,Tiogue,0,,0,Coventry,0,0,LP,0,0,686
,,,0,,0,0,0,0,0,,,,,,,,0,0,,,N,,0,0,0,N,41.69844881,-71.2916822,,0,Aaron Ave. Right-of-Way,,687,MUN,,0,0,0,,0,0,N,,Aaron,0,,0,Bristol,0,0,LP,0,0,687
,,,0,,0,0,0,0,0,,,,,,,,0,0,,,Y,,0,0,0,N,41.66762549,-71.2549365,,0,Mt. Hope Farm,,688,MUN,,0,0,0,,0,0,N,,Metacom,0,,0,Bristol,0,1,LP,0,0,688
,,,1,,0,0,0,0,1,,,,,,,,1,0,,,Y,,0,0,0,N,41.69712892,-71.24639464,,0,Waypoyset Preserve / Bristol Narrows,,689,NGO,,0,0,0,,0,0,N,,Narrows,0,,0,Bristol,0,1,CA,0,0,689
,,,0,,0,0,0,0,0,,,,,,,,0,0,,,N,,0,0,0,N,41.41342338,-71.81252346,,0,Westerly Town Forest,,690,MUN,,0,0,0,,0,0,N,,Havens,0,,0,Westerly,0,0,CA,0,0,690
,,,0,,0,0,1,0,0,,,,,,,,1,0,,,Y,,0,0,0,N,41.58681103,-71.41568632,,0,Blue Beach,,691,MUN,,0,0,0,,0,0,N,,Quonset,0,,0,North Kingstown,0,0,LP,0,0,691
,,,0,,0,0,0,0,0,,,,,,,,0,0,,,Y,,0,1,0,N,41.86515979,-71.7805479,,0,Killingly Pond,,692,STA,,0,0,0,,0,0,N,,Cook Estate,0,,0,Glocester,0,1,MA,0,0,692
,,,0,,0,0,0,0,0,,,,,,,,0,0,,,N,,0,0,0,N,41.89082593,-71.60818622,,0,Philips Farm,,693,MUN,,0,0,0,,0,0,N,,Putnam,0,,0,Glocester,0,0,CA,0,0,693
,,,1,,0,0,0,0,0,,,,,,,,0,0,,,N,,0,0,0,N,41.89853263,-71.67073316,,0,Scotstun Town Forest,,694,MUN,,0,0,0,,0,0,N,,Chopmist Hill,0,,0,Glocester,0,0,CA,0,0,694
,,,0,,0,0,0,0,0,,,,,,,,0,0,,,N,,0,0,0,N,41.90882091,-71.70404927,,0,Sprague Farm,,695,MUN,,0,0,0,,0,0,N,,Pine Orchard,0,,0,Glocester,0,0,CA,0,0,695
,,,0,,0,0,0,0,0,,,,,,,,0,0,,,N,,0,0,0,Y,41.80953329,-71.43536594,,0,Mansion Park,,696,MUN,,0,0,0,,0,0,N,,Sorrento,0,,0,Providence,0,0,LP,0,0,696
,,,1,,1,0,0,0,0,,,,,,,,0,0,,,N,,0,0,0,N,41.65581655,-71.46131573,,0,Cragan Field,,697,MUN,,0,0,0,,0,0,N,,Reilly,0,,0,East Greenwich,0,0,LP,0,0,697
,,,0,,0,0,0,0,0,,,,,,,,0,0,,,N,,0,0,0,Y,41.75757305,-71.4159086,,1,Rhodes School,,698,SCH,,1,0,0,,0,0,N,,Putnam,0,,0,Warwick,0,0,SC,0,0,698
,,,1,,1,0,0,0,0,,,,,,,,0,0,,,N,,0,0,0,N,41.74538983,-71.32106441,,1,Lincoln Avenue Park,,699,MUN,,0,0,0,,0,0,N,,Lincoln,0,,6,Barrington,0,0,LP,0,0,699
,,,1,,1,0,0,0,0,,,,,,,,0,0,,,N,,0,0,0,N,41.8486867,-71.4799874,,0,North Providence Little League West,,700,MUN,,0,0,0,,0,0,N,,Woonasquatucket,0,,0,North Providence,0,0,AF,0,0,700
,,,1,,0,0,0,0,0,,,,,,,,0,1,,,Y,,0,0,0,Y,41.87414987,-71.36843788,,1,Mccoy Stadium Annex,,701,MUN,,0,0,1,,0,1,Y,,Division,0,,0,Pawtucket,1,0,AF,0,0,701
,,,1,,0,0,0,0,1,,,,,,,,1,0,,,Y,,0,0,0,N,41.87176792,-71.38403546,,0,Town Landing,,702,MUN,,0,0,0,,0,0,Y,,Taft,0,,0,Pawtucket,0,0,LP,0,0,702
,,,1,,2,0,0,0,0,,,,,,,,0,0,,,N,,0,0,0,N,41.68905829,-71.52568369,,1,Crompton Veterans Field,,703,MUN,,0,0,0,,0,0,Y,,Hepburn,0,,0,West Warwick,0,0,LP,0,0,703
,,,0,,0,0,0,0,0,,,,,,,,0,0,,,N,,0,0,0,N,41.81907486,-71.43686234,,0,Franciscan Park,,704,MUN,,0,0,0,,0,0,N,,Ridge,0,,0,Providence,0,0,LP,0,0,704
,,,0,,0,0,0,0,0,,,,,,,,1,0,,,Y,,0,0,0,N,42.00001235,-71.51758254,,0,Thunder Mist Overlook,,705,MUN,,0,0,0,,0,0,N,,River,0,,0,Woonsocket,0,0,LP,0,0,705
,,,0,,0,0,0,0,0,,,,,,,,0,0,,,Y,,0,0,0,N,41.89863454,-71.38679313,,1,Blackstone River Park,,706,MUN,,0,0,1,,0,1,Y,,High,0,,1,Central Falls,0,0,LP,0,1,706
,,,1,,0,2,0,0,0,,,,,,,,0,0,,,N,,0,0,0,N,41.80700217,-71.40977373,,0,Public St. Basketball Court,,707,MUN,,0,0,0,,0,0,N,,Public,0,,0,Providence,0,0,AF,0,0,707
,,,1,,2,0,0,0,0,,,,,,,,0,0,,,N,,0,0,0,N,41.83071507,-71.61120356,,1,Manning Field,,708,SCH,,0,0,0,,0,1,N,,Danielson,0,,0,Scituate,0,0,AF,0,0,708
,,,1,,2,0,0,1,0,,,,,,,,0,0,,,Y,,0,0,0,N,41.46387404,-71.52194837,,2,Curtis Corner Playfields,,709,MUN,,1,0,0,,0,1,Y,,Curtis Corner,0,,0,South Kingstown,1,0,AF,0,1,709
,,,1,,1,0,0,0,0,,,,,,,,0,0,,,N,,0,0,0,N,42.00952285,-71.50583142,,0,Bouley Field,,710,MUN,,0,0,0,,0,0,N,,Social,0,,0,Woonsocket,0,0,AF,0,0,710
,,,1,,3,0,0,0,0,,,,,,,,0,0,,,N,,0,0,0,N,41.9850675,-71.4087792,,0,Bentley Field,,711,UTL,,0,0,0,,0,0,N,,Diamond Hill,0,,0,Cumberland,0,0,AF,0,0,711
,,,1,,1,0,0,0,0,,,,,,,,0,0,,,N,,0,0,0,N,41.98176496,-71.39871689,,0,Razee Field,,712,UTL,,0,0,0,,0,0,N,,Nate Whipple,0,,0,Cumberland,0,0,AF,0,0,712
,,,1,,0,0,0,0,0,,,,,,,,0,0,,,N,,0,0,0,N,41.92125074,-71.69031651,,3,Burrillville Glocester Youth Soccer,,713,PRV,,0,0,0,,0,5,N,,Putnam,0,,0,Glocester,0,0,AF,0,0,713
,,,1,,4,0,0,0,0,,,,,,,,0,0,,,N,,0,0,0,N,41.90771696,-71.66211428,,0,Putnam Pike Baseball Field,,714,Municipal,,0,0,0,,0,0,N,,Putnam,0,,0,Glocester,0,0,AF,0,0,714
,,,1,,4,0,0,0,0,,,,,,,,0,0,,,N,,0,0,0,N,41.95081651,-71.64605599,,0,Casino Street Field,,715,Municipal,,1,0,0,,0,0,N,,Casino,0,,0,Burrillville,0,0,AF,0,0,715
,,,1,,0,0,0,0,1,,,,,,,,1,0,,,Y,,0,0,0,N,41.95180725,-71.70395425,,0,Union Pond Fishing Access,,716,STA,,0,0,1,,0,0,N,,Reservoir,0,,0,Burrillville,0,0,FB,0,0,716
,,,0,,0,0,1,0,0,,,,,,,,0,0,,,Y,,0,0,0,N,41.9868258,-71.65743615,,0,Spring Lake Beach,,717,MUN,,0,0,1,,0,0,Y,,Hillside,0,,0,Burrillville,0,0,LP,0,0,717
,,,0,,0,0,0,0,1,,,,,,,,0,0,,,Y,,0,0,0,N,41.98708714,-71.60088324,,0,Slatersville Pond Fishing Access,,718,STA,,0,0,0,,0,0,N,,Victory Highway,0,,0,North Smithfield,0,0,FB,0,0,718
,,,1,,0,1,0,0,0,,,,,,,,1,0,,,N,,0,0,0,Y,41.98944276,-71.52706763,,0,Globe Park,,719,MUN,,1,0,0,,0,0,Y,,Coe,0,,1,Woonsocket,0,0,LP,0,0,719
,,,1,,2,1,0,0,0,,,,,,,,1,0,,,Y,,0,0,0,N,41.96587709,-71.47804045,,1,Manville Memorial Park,,720,MUN,,1,0,0,,0,0,N,,High,0,,0,Lincoln,0,0,LP,0,1,720
,,,0,,0,0,0,0,0,,,,,,,,0,0,,,Y,,0,0,0,N,41.90353666,-71.41950228,,0,Great Road Gateway,,721,MUN,,0,0,0,,0,0,N,,Front,0,,0,Lincoln,0,0,LP,0,1,721
,,,1,,0,0,0,0,0,,,,,,,,0,0,,,Y,,0,0,0,N,41.83630533,-71.57127346,,1,Tasca Field,,722,MUN,,0,0,0,,0,4,Y,,Washington Highway,0,,0,Scituate,0,0,AF,0,1,722
,,,1,,2,0,0,0,0,,,,,,,,0,0,,,N,,0,0,0,N,41.76625398,-71.67129787,,1,Westconnaug Meadows,,723,Municipal,,0,0,0,,0,0,Y,,George Washington,0,,0,Scituate,0,0,AF,0,0,723
,,,1,,1,0,0,0,0,,,,,,,,0,0,,,N,,0,0,0,N,41.70503235,-71.55049237,,0,Boston Road Field,,724,Municipal,,0,0,0,,0,0,N,,Boston,0,,0,Coventry,0,0,AF,0,0,724
,,,1,,0,1,0,0,0,,,,,,,,0,0,,,N,,0,0,0,N,41.68621964,-71.58681263,,0,Leina Rose Street Playground,,725,UNK,,1,0,0,,0,0,N,,Leina Rose,0,,1,Coventry,0,0,LP,0,0,725
,,,1,,1,0,0,0,0,,,,,,,,0,0,,,N,,0,0,0,N,41.72551352,-71.28434321,,0,Jannitto Memorial Field,,726,Municipal,,0,0,0,,0,0,N,,0,0,,0,Warren,0,0,AF,0,0,726
,,,1,,1,1,0,0,0,,,,,,,,0,0,,,N,,0,0,0,Y,41.62577743,-71.23396399,,1,Island Park Playground,,727,MUN,,1,0,0,,0,1,N,,Highland,0,,0,Portsmouth,0,0,LP,0,0,727
,,,1,,0,1,0,0,0,,,,,,,,0,0,,,N,,0,0,0,N,41.51374185,-71.25585338,,1,Howland Park,,728,MUN,,1,0,0,,0,0,Y,,Wapping,0,,0,Middletown,0,0,LP,0,0,728
,,,0,,0,0,0,0,0,,,,,,,,1,0,,,Y,,0,0,0,Y,41.49643398,-71.3667924,,0,Jamestown Town Pier,,729,MUN,,0,0,0,,0,0,N,,Conanicus,0,,0,Jamestown,0,0,LP,0,0,729
,,,1,,0,0,0,0,0,,,,,,,,0,0,,,N,,0,0,0,N,41.50491431,-71.37047713,,0,Jamestown Town Golf Course,,730,MUN,,0,0,0,,0,0,N,,Conanicus,0,,0,Jamestown,0,0,AF,0,0,730
,,,0,,0,0,0,0,0,,,,,,,,1,0,,,Y,,0,0,0,N,41.51020062,-71.35974913,,0,Potter Cove Access,,731,MUN,,0,0,0,,0,0,N,,Bayview,0,,0,Jamestown,0,0,FB,0,0,731
,,,0,,0,0,0,0,0,,,,,,,,0,0,,,N,,0,0,0,N,41.82350245,-71.39049528,,0,Roger Williams Square,,732,MUN,,0,0,0,,0,0,Y,,Gano,0,,0,Providence,0,0,LP,0,0,732
,,,1,,1,0,0,0,0,,,,,,,,0,0,,,N,,0,0,0,N,41.71908043,-71.44581532,,0,Kenney Field,,733,NGO,,0,0,0,,0,0,N,,Jefferson,0,,0,Warwick,0,0,AF,0,0,733
,,,1,,2,0,0,0,0,,,,,,,,0,0,,,N,,0,0,0,N,41.71028682,-71.46933417,,0,Warwick Continental Little League,,734,MUN,,0,0,0,,0,0,N,,Greenwich,0,,0,Warwick,0,0,AF,0,0,734
,,,0,,0,0,0,0,0,,,,,,,,1,0,,,Y,,0,0,0,N,41.68834371,-71.36678937,,0,Rocky Point Park,,735,STA,,0,0,1,,0,0,N,,Rocky Point,0,,0,Warwick,0,1,LP,0,1,735
,,,1,,2,1,0,0,0,,,,,,,,0,0,,,N,,0,0,0,N,41.68238115,-71.46806477,,0,"St Gregory St Gregory Field",,736,Municipal,,0,0,0,,0,0,N,,Larchwood,0,,0,Warwick,0,0,LP,0,0,736
,,,1,,0,0,0,0,0,,,,,,,,0,0,,,N,,0,0,0,N,41.68181858,-71.47628196,,0,Sleepy Hollow Tennis Courts,,737,Municipal,,0,0,0,,0,0,N,,Sleepy Hollow Farm,0,,2,Warwick,0,0,AF,0,0,737
,,,1,,0,0,0,0,0,,,,,,,,0,0,,,N,,0,0,0,N,41.64096236,-71.534327,,1,Shovlin Park,,738,MUN,,1,0,0,,0,1,Y,,Middle,1,,0,East Greenwich,0,0,LP,0,0,738
,,,1,,1,1,0,0,0,,,,,,,,0,0,,,N,,0,0,0,N,41.61198247,-71.45997314,,1,Yorktown Park,,739,MUN,,1,0,0,,0,1,Y,,Yorktown,0,,0,North Kingstown,0,0,LP,0,0,739
,,,0,,0,0,0,0,0,,,,,,,,0,0,,,N,,0,0,0,Y,41.55136877,-71.45036556,,0,Green Conservation Area,,740,MUN,,0,0,0,,0,0,N,,Hamilton Allenton,0,,0,North Kingstown,0,0,CA,0,0,740
,,,1,,1,2,0,0,0,,,,,,,,0,0,,,N,,0,0,0,N,41.92908895,-71.42350456,,0,Boys And Girls Club,,741,UNK,,1,0,0,,0,0,N,,Martin,1,,0,Cumberland,0,0,LP,0,0,741
,,,1,,0,0,0,0,0,,,,,,,,0,0,,,N,,0,0,0,N,41.90652434,-71.38853317,,1,Fatima Church Field,,742,PRV,,1,0,0,,0,0,N,,High,0,,0,Cumberland,0,0,LP,0,0,742
,,,0,,0,0,0,0,0,,,,,,,,0,0,,,N,,0,0,0,N,41.90224066,-71.39785502,,0,Fanning Wilderness Area,,743,MUN,,0,0,0,,0,0,Y,,Jones,0,,0,Cumberland,0,0,CA,0,0,743
,,,1,,2,0,0,0,0,,,,,,,,0,0,,,N,,0,0,0,N,41.90116544,-71.45738587,,1,Davies Middle School,,744,SCH,,0,0,0,,0,0,N,,Jenckes Hill,0,,0,Lincoln,0,0,AF,0,0,744
,,,0,,0,0,0,0,0,,,,,,,,1,0,,,N,,0,0,0,N,41.83300725,-71.35998916,,0,Freedom Green Park,,745,MUN,,0,0,0,,0,0,Y,,North Broadway,0,,0,East Providence,0,0,LP,0,0,745
,,,1,,0,0,0,0,0,,,,,,,,0,0,,,N,,0,0,0,N,41.81841921,-71.35655335,,1,Senior Center Soccer Field,,746,MUN,,0,0,0,,0,1,N,,Payette,0,,0,East Providence,0,0,AF,0,0,746
,,,1,,0,0,0,0,0,,,,,,,,0,0,,,N,,0,0,0,Y,41.80731371,-71.36762449,,1,Rose Garden Playground & Soccer Area,,747,MUN,,1,0,0,,0,1,N,,Brown,0,,0,East Providence,0,0,AF,0,0,747
,,,0,,0,0,0,0,0,,,,,,,,1,0,,,Y,,0,0,0,Y,41.75674146,-71.3609321,,0,Rose Larisa Memorial Park,,748,MUN,,0,0,0,,0,0,N,,Bullocks Point,0,,0,East Providence,0,0,LP,0,1,748
,,,0,,0,0,0,0,0,,,,,,,,1,0,,,N,,0,0,0,N,41.75397863,-71.35672106,,0,Bullock Cove Access,,749,MUN,,0,0,0,,0,0,Y,,Carousel,0,,0,East Providence,0,0,LP,0,0,749
,,,0,,0,0,0,1,0,,,,,,,,0,0,,,Y,,0,0,0,N,41.77178597,-71.36202108,,0,Riverside Square Park,,750,MUN,,0,0,0,,0,0,N,,Bullocks Point,0,,0,East Providence,0,0,LP,0,1,750
,,,1,,0,0,0,0,1,,,,,,,,1,0,,,N,,0,0,0,N,41.73726007,-71.2972995,,0,County Road Boat Launch,,751,MUN,,0,0,0,,0,0,Y,,County,0,,0,Barrington,0,0,LP,0,0,751
,,,0,,0,0,0,0,0,,,,,,,,0,0,,,Y,,0,0,0,N,41.46006064,-71.30727955,,0,Rovensky Park,,752,MUN,,0,0,0,,0,0,N,,Bellevue,0,,0,Newport,0,0,LP,0,1,752
,,,0,,0,0,0,0,0,,,,,,,,0,0,,,N,,0,0,0,N,41.45068969,-71.49417606,,0,Hazard Memorial Garden,,753,MUN,,0,0,0,,0,0,N,,Kingstown,0,,0,South Kingstown,0,0,LP,0,0,753
,,,1,,0,0,0,1,0,,,,,,,,0,0,,,Y,,0,0,0,N,41.47430425,-71.55432167,,0,South County Bike Path,,754,MUN,,0,0,0,,0,0,N,,Ministerial,0,,0,South Kingstown,0,0,LP,0,1,754
,,,1,,0,0,0,0,1,,,,,,,,1,0,,,Y,,0,0,0,N,41.62038422,-71.41186131,,0,Allen Harbor,,756,MUN,,0,0,0,,0,0,N,,Alllen,0,,0,North Kingstown,0,0,LP,0,0,756
,,,0,,0,0,0,0,0,,,,,,,,0,0,,,N,,0,0,0,N,41.62131921,-71.44985754,,0,Forest Park,,757,MUN,,0,0,0,,0,0,N,,Lynn,0,,0,North Kingstown,0,0,LP,0,0,757
,,,0,,0,0,0,0,0,,,,,,,,1,0,,,Y,,0,0,0,N,41.57016898,-71.45121568,,0,Town Dock Park,,758,MUN,,0,0,1,,0,0,N,,Brown,0,,0,North Kingstown,0,0,LP,0,0,758
,,,0,,0,0,0,0,0,,,,,,,,0,0,,,N,,0,0,0,Y,41.56654673,-71.4503392,,0,Town Hall Memorial Park,,759,MUN,,0,0,0,,0,0,N,,Boston Neck,0,,0,North Kingstown,0,0,LP,0,0,759
,,,0,,0,0,0,0,0,,,,,,,,0,0,,,N,,0,0,0,N,41.57219403,-71.44572182,,0,Town Wharf,,760,MUN,,0,0,0,,0,0,N,,Main,0,,0,North Kingstown,0,0,LP,0,0,760
,,,0,,0,0,0,0,0,,,,,,,,0,0,,,Y,,0,0,0,N,41.60704214,-71.52893352,,0,Mystic Woods,,761,MUN,,0,0,0,,0,0,N,,South,0,,0,East Greenwich,0,0,CA,0,0,761
,,,0,,0,0,0,0,0,,,,,,,,0,0,,,N,,0,0,0,N,41.66398368,-71.44494143,,0,Municipal Cove Overlook,,762,MUN,,0,0,0,,0,0,N,,Division,0,,0,East Greenwich,0,0,LP,0,0,762
,,,1,,1,0,0,0,0,,,,,,,,0,0,,,N,,0,0,0,N,41.63557156,-71.48092302,,0,Meadowbrook Field,,763,MUN,,1,0,0,,0,0,N,,Chestnut,0,,0,East Greenwich,0,0,LP,0,0,763
,,,0,,0,0,0,0,0,,,,,,,,0,0,,,Y,,0,0,0,N,41.58720251,-71.16302238,,0,Weetamo Woods,,764,MUN,,0,0,0,,0,0,N,,Lake,0,,0,Tiverton,0,1,LP,0,0,764
,,,0,,0,0,1,0,0,,,,,,,,0,0,,,Y,,0,0,0,N,41.62505021,-71.21371284,,0,Grinnells Beach,,765,MUN,,0,0,1,,0,0,Y,,Main,0,,0,Tiverton,0,0,LP,0,0,765
,,,1,,1,0,0,0,0,,,,,,,,0,0,,,N,,0,0,0,N,41.57108365,-71.17647008,,0,South Field,,766,MUN,,0,0,0,,0,0,N,,East,0,,0,Tiverton,0,0,AF,0,0,766
,,,1,,1,1,0,0,0,,,,,,,,0,0,,,N,,0,0,0,N,41.66965736,-71.19280863,,1,Bayview Playground,,767,MUN,,0,0,0,,0,0,N,,Hooper,0,,0,Tiverton,0,0,LP,0,0,767
,,,1,,0,0,0,0,0,,,,,,,,0,0,,,N,,0,0,0,N,41.34578753,-71.81475363,,0,Rotary Park,,768,MUN,,1,0,0,,0,0,Y,,Airport,0,,4,Westerly,0,0,LP,4,0,768
,,,0,,0,0,0,0,0,,,,,,,,0,0,,,N,,0,0,0,N,41.40149765,-71.82847905,,1,Springbrook School,,769,SCH,,1,0,0,,0,0,N,,Springbrook,0,,0,Westerly,0,0,SC,0,0,769
,,,0,,0,0,1,0,0,,,,,,,,0,0,,,Y,,0,0,0,N,41.34166151,-71.6949247,,0,Blue Shutters Beach,,770,MUN,,0,0,1,,0,0,N,,Beach,0,,0,Charlestown,0,0,LP,0,0,770
,,,1,,2,0,0,0,0,,,,,,,,0,0,,,Y,,0,0,0,N,41.66588227,-71.62533221,,1,Fish Hill Ball Fields,,771,STA,,0,0,1,,0,3,N,,Fish Hill,0,,0,Coventry,0,0,AF,0,0,771
,,,1,,0,0,0,0,1,,,,,,,,1,0,,,Y,,0,0,0,N,41.67011909,-71.54834396,,0,North Glen Boat Launch,,773,MUN,,0,0,0,,0,0,N,,North Glen,0,,0,Coventry,0,0,LP,0,0,773
,,,1,,0,0,1,0,0,,,,,,,,1,0,,,Y,,0,0,0,N,41.7353064,-71.56554946,,1,Hope Pond Recreation Area & Beach,,774,MUN,,0,0,0,,0,0,N,,Ryefield,0,,1,Scituate,0,0,LP,0,0,774
,,,0,,0,0,0,0,0,,,,,,,,0,0,,,N,,0,0,0,N,41.48749445,-71.62875066,,0,Beaver River Road Playground,,775,MUN,,1,0,0,,0,0,Y,,Beaver River,0,,0,Richmond,0,0,LP,0,0,775
,,,0,,0,0,0,0,0,,,,,,,,0,0,,,N,,0,0,0,N,41.69922648,-71.4574364,,0,Apponaug Park,,776,MUN,,0,0,0,,0,0,N,,Post,0,,0,Warwick,0,0,LP,0,0,776
,,,1,,1,0,0,0,0,,,,,,,,0,0,,,N,,0,0,0,N,41.89408238,-71.38295223,,0,Saul Tarlow Field,,777,MUN,,0,0,0,,0,0,N,,High,0,,0,Central Falls,0,0,AF,0,0,777
,,,1,,3,0,0,0,1,,,,,,,,1,0,,,Y,,0,0,0,N,41.51308193,-71.70585988,,0,Chariho Athletic Association,,778,PRV,,0,0,1,,0,0,N,,Nooseneck Hill,0,,0,Hopkinton,0,0,LP,0,0,778
,,,0,,0,0,0,0,0,,,,,,,,1,0,,,Y,,0,1,0,N,41.64443577,-71.61373137,,0,Big River / Nooseneck Hill Road Fishing Access,,779,STA,,0,0,0,,0,0,N,,Nooseneck Hill,0,,0,West Greenwich,0,1,FB,0,0,779
,,,1,,0,0,0,0,0,,,,,,,,1,0,,,Y,,0,0,0,N,41.61748101,-71.20759657,,0,Nannaquaket Bridge,,780,MUN,,0,0,0,,0,0,N,,Main,0,,0,Tiverton,0,0,FB,0,0,780
,,,1,,0,0,0,0,0,,,,,,,,1,0,,,N,,0,0,0,N,41.55856619,-71.27626431,,0,St. Mary's Pond,,781,MUN,,0,0,0,,0,0,N,,Union,0,,0,Portsmouth,0,0,FB,0,0,781
,,,1,,0,0,0,0,0,,,,,,,,1,0,,,N,,0,0,0,N,41.96570262,-71.64172354,,0,Lampham Pond,,782,MUN,,0,0,0,,0,0,N,,Victory,0,,0,Burrillville,0,0,FB,0,0,782
,,,1,,0,0,0,0,0,,,,,,,,1,0,,,Y,,0,1,0,N,42.00394004,-71.69934659,,0,Round Top,,783,STA,,0,0,0,,0,0,N,,Round Top,0,,0,Burrillville,0,1,MA,0,0,783
,,,1,,0,0,0,0,0,,,,,,,,1,0,,,N,,0,0,0,N,41.89685848,-71.79138305,,0,Mowry Pond,,784,MUN,,0,0,0,,0,0,N,,Killingly,0,,0,Glocester,0,0,FB,0,0,784
,,,0,,0,0,0,0,0,,,,,,,,1,0,,,Y,,0,0,0,N,41.50233956,-71.75287407,,0,Blue Pond,,785,STA,,0,0,0,,0,0,N,,Canonchet,0,,0,Hopkinton,0,1,FB,0,0,785
,,,1,,0,0,0,0,0,,,,,,,,1,0,,,Y,,0,0,0,N,41.5086685,-71.77915789,,0,Long Pond,,786,NGO,,0,0,0,,0,0,N,,North,0,,0,Hopkinton,0,1,FB,0,0,786
,,,1,,0,0,0,0,0,,,,,,,,1,0,,,N,,0,0,0,N,41.95917658,-71.47154914,,0,Upper Rochambeau / Handy Pond,,787,MUN,,0,0,0,,0,0,N,,Old River,0,,0,Lincoln,0,0,FB,0,0,787
,,,1,,0,0,0,0,0,,,,,,,,1,0,,,Y,,0,0,0,N,41.63113431,-71.57110699,,0,Carr Pond,,788,STA,,0,0,1,,0,0,N,,Hopkins Hill,0,,0,West Greenwich,0,1,FB,0,0,788
,,,1,,0,0,0,0,0,,,,,,,,1,0,,,N,,0,0,0,N,41.91467047,-71.54845051,,0,AL Mowry,,789,MUN,,0,0,0,,0,0,N,,Industrial,0,,0,Smithfield,0,0,FB,0,0,789
,,,1,,0,0,0,0,0,,,,,,,,1,0,,,N,,0,0,0,N,41.73713484,-71.54783038,,0,Seidel Pond Fishing Access,,790,MUN,,0,0,0,,0,0,N,,Hall,0,,0,Cranston,0,0,FB,0,0,790
,,,1,,0,0,0,0,0,,,,,,,,1,0,,,Y,,0,0,0,N,41.37882818,-71.5149968,,0,State Pier # 4,,791,STA,,0,0,0,,0,0,N,,Succotash,0,,0,Narragansett,0,0,FB,0,0,791
,,,1,,0,0,0,0,0,,,,,,,,1,0,,,N,,0,0,0,N,41.44841611,-71.44993011,,0,Old Sprague Bridge Fishing Access,,793,MUN,,0,0,0,,0,0,N,,Boston Neck,0,,0,Narragansett,0,0,FB,0,0,793
Yes,http://www.riparks.com/Locations/LocationPulaski.html,100 acres,1,Pulaski State Park and Recreational Area,0,0,1,0,0,Peck Pond / Pulaski Park,,,(401) 568-2085,,"Located within the 3700 acre George Washington Management Area, the 100 acre Pulaski Memorial Recreation Area is a ""day use"" facility offering users a multitude of opportunities to enjoy the outdoors. From the first class trout fishing in the spring, to enjoying a picnic, a short hike, or a cool swim in the 13 acre Peck Pond in the summer, to cross-country skiing on the 10 miles of groomed trails into the adjacent George Washington Management area in the winter, Pulaski provides year round enjoyment for all ages.",Yes,1,0,,,Y,Yes,0,0,0,Y,41.93278647,-71.79680722,,0,Peck Pond / Pulaski Park,,794,STA,Yes,0,0,Yes,,0,0,N,,Unnamed,0,Yes,0,Burrillville,0,1,SP,0,0,794
,,,1,,0,0,0,0,0,,,,,,,,1,0,,,N,,0,0,0,Y,42.00532228,-71.48794217,,0,Cass Pond Fishing Access,,795,MUN,,0,0,0,,0,0,N,,Cass,0,,0,Woonsocket,0,0,FB,0,0,795
,,,1,,0,0,0,0,0,,,,,,,,1,0,,,N,,0,0,0,Y,42.00200809,-71.49574713,,0,Sylvester's Pond Fishing Access,,796,MUN,,0,0,0,,0,0,N,,Woonsocket Hospital,0,,0,Woonsocket,0,0,FB,0,0,796
,,,1,,0,0,0,0,0,,,,,,,,1,0,,,Y,,0,0,0,N,41.89469397,-71.42659672,,0,Olney Pond Fishing Access,,797,STA,,0,0,0,,0,0,N,,Stump Hill,0,,0,Lincoln,0,0,FB,0,0,797
,,,1,,0,0,0,0,0,,,,,,,,1,0,,,Y,,0,0,0,N,41.69536241,-71.75683037,,0,Bucks Horn Brook,,798,STA,,0,0,0,,0,0,N,,Lewis Farm,0,,0,Coventry,0,0,FB,0,0,798
,,,1,,0,0,0,0,0,,,,,,,,1,0,,,Y,,0,0,0,N,41.56175716,-71.71777127,,0,Deep Pond,,800,STA,,0,0,0,,0,0,N,,Deep Pond,0,,0,Exeter,0,0,FB,0,0,800
,,,1,,0,0,0,0,0,,,,,,,,1,0,,,Y,,0,0,0,N,41.59833597,-71.74579559,,0,Falls River - Austin Farm,,801,STA,,0,0,0,,0,0,N,,Plain,0,,0,Exeter,0,1,FB,0,0,801
,,,1,,0,0,0,0,0,,,,,,,,1,0,,,Y,,0,0,0,N,41.58025856,-71.72078324,,0,Lower Fall River,,802,STA,,0,0,0,,0,0,N,,Midway Rail,0,,0,Exeter,0,1,FB,0,0,802
,,,1,,0,0,0,0,0,,,,,,,,1,0,,,Y,,0,0,0,N,41.58738217,-71.73101312,,0,Simon Jordan Fishing Access,,803,STA,,0,0,0,,0,0,N,,Brookie,0,,0,Exeter,0,1,FB,0,0,803
,,,1,,0,0,0,0,0,,,,,,,,1,0,,,Y,,0,0,0,N,41.595625,-71.72031105,,0,Upper Flat River,,804,STA,,0,0,0,,0,0,N,,Plain,0,,0,Exeter,0,1,FB,0,0,804
,,,1,,0,0,0,0,0,,,,,,,,1,0,,,Y,,0,0,0,N,41.57950766,-71.71899383,,0,Lower Flat River,,805,STA,,0,0,0,,0,0,N,,Arcadia Man Area,0,,0,Exeter,0,1,FB,0,0,805
,,,1,,0,0,0,0,0,,,,,,,,1,0,,,Y,,0,0,0,N,41.58768743,-71.70903311,,0,Frosty Hollow Pond,,806,STA,,0,0,0,,0,0,N,,Camp E-hun-tee,0,,0,Exeter,0,1,FB,0,0,806
,,,1,,0,0,0,0,0,,,,,,,,1,0,,,Y,,0,0,0,N,41.56466939,-71.72913979,,0,Paris Brook,,807,STA,,0,0,0,,0,0,N,,Mount Tom,0,,0,Exeter,0,1,FB,0,0,807
,,,1,,0,0,0,0,0,,,,,,,,1,0,,,Y,,0,0,0,N,41.61254977,-71.76062965,,0,Step Stone Falls,,808,STA,,0,0,0,,0,0,N,,Falls River,0,,0,West Greenwich,0,1,FB,0,0,808
,,,1,,0,0,0,0,0,,,,,,,,1,0,,,Y,,0,0,0,N,41.84536618,-71.74319872,,0,Ponagansett,,809,STA,,0,0,0,,0,0,N,,Pine Tree,0,,0,Foster,0,0,FB,0,0,809
,,,1,,0,0,0,0,0,,,,,,,,1,0,,,Y,,0,0,0,N,41.50318705,-71.71673354,,0,Mechanic St,,810,STA,,0,0,0,,0,0,N,,Mechanic,0,,0,Hopkinton,0,0,FB,0,0,810
,,,1,,0,0,0,0,0,,,,,,,,1,0,,,Y,,0,1,0,N,41.53970523,-71.1543782,,0,Simmons Mill Pond,,811,STA,,0,0,0,,0,0,N,,Colebrook,0,,0,Little Compton,0,1,MA,0,0,811
,,,1,,0,0,0,0,0,,,,,,,,1,0,,,Y,,0,0,0,N,41.48576682,-71.70184395,,0,Carolina Trout Pond,,812,STA,,0,0,0,,0,0,N,,Coondog,0,,0,Richmond,0,1,FB,0,0,812
,,,1,,0,0,0,0,0,,,,,,,,1,0,,,Y,,0,0,0,N,41.46635721,-71.69019958,,0,Meadow Brook At Carolina,,813,STA,,0,0,0,,0,0,N,,Pine Hill,0,,0,Richmond,0,0,FB,0,0,813
,,,1,,0,0,0,0,0,,,,,,,,1,0,,,Y,,0,0,0,N,41.37350224,-71.53833316,,0,Deep Hole,,814,STA,,0,0,0,,0,0,N,,Matunuck Beach,0,,0,South Kingstown,0,0,FB,0,0,814
,,,1,,0,0,0,0,0,,,,,,,,1,0,,,N,,0,0,0,N,41.55335611,-71.19737003,,0,Nonquit Pond Fishing Access,,815,UTL,,0,0,0,,0,0,N,,Pond Bridge,0,,0,Tiverton,0,0,FB,0,0,815
,,,1,,0,0,0,0,0,,,,,,,,1,0,,,Y,,0,0,0,N,41.33042917,-71.76349195,,0,Weekapaug Breachway,,816,STA,,0,0,0,,0,0,N,,Wawaloam,0,,0,Westerly,0,0,FB,0,0,816
,,,1,,0,0,1,0,0,,,,,,,,1,0,,,Y,,0,0,0,Y,41.34448545,-71.69007646,,0,East Beach,,817,STA,,0,0,1,,0,0,N,,Beach,0,,0,Charlestown,0,0,FB,0,0,817
,,,1,,0,0,0,0,0,,,,,,,,1,0,,,Y,,0,0,0,N,41.40003629,-71.4645012,,0,Black Point,,818,STA,,0,0,0,,0,0,N,,Ocean,0,,0,Narragansett,0,1,FB,0,0,818
,,,1,,0,0,0,0,0,,,,,,,,1,0,,,Y,,0,0,0,N,41.56231236,-71.13352987,,0,Adamsville Brook,,819,UTL,,0,0,0,,0,0,N,,Crandall,0,,0,Tiverton,0,0,CA,0,0,819
,,,1,,0,0,0,0,0,,,,,,,,1,0,,,N,,0,0,0,N,41.62925465,-71.18638297,,0,Tiverton Trout Pond,,820,MUN,,0,0,0,,0,0,N,,Fish,0,,0,Tiverton,0,0,FB,0,0,820
,,,1,,0,0,0,0,0,,,,,,,,1,0,,,N,,0,0,0,N,41.59072857,-71.27776092,,0,Lower Melville Pond,,823,MUN,,0,0,0,,0,0,N,,Unnamed,0,,0,Portsmouth,0,0,FB,0,0,823
,,,1,,0,0,0,0,0,,,,,,,,1,0,,,N,,0,0,0,N,41.57693547,-71.23482487,,0,McCorey Lane,,824,MUN,,0,0,0,,0,0,N,,Mccorrie,0,,0,Portsmouth,0,0,FB,0,0,824
,,,1,,0,0,0,0,0,,,,,,,,1,0,,,N,,0,0,0,N,41.5840276,-71.27156825,,0,Upper Melville Pond Fishing Access,,825,MUN,,0,0,0,,0,0,N,,Bradford,0,,0,Portsmouth,0,0,FB,0,0,825
,,,1,,0,0,0,0,0,,,,,,,,1,0,,,Y,,0,0,0,N,41.17415685,-71.55462504,,0,Old Harbor Breakwater,,826,STA,,0,0,0,,0,0,N,,Water,0,,0,New Shoreham,0,0,FB,0,0,826
,,,1,,0,0,1,0,0,,,,,,,,1,0,,,Y,,0,0,0,N,41.18254411,-71.56667577,,0,East Beach,,827,MUN,,0,0,1,,0,0,N,,Beach,0,,0,New Shoreham,0,0,LP,0,0,827
No,,28 acres,1,,0,0,0,0,0,Mohegan Bluffs / South East Light Stairway,,,(401) 667-6200,,"Named ""Best Beach for Solitude"" by Yankee Magazine and often compared to the cliffs of Ireland, Mohegan Bluffs are a must-see attraction for Block Island visitors. Nearly 200 feet high, the Bluffs offer stunning ocean views.  To actually get to the beach, you'll have to walk down more than 140 stairs and climb over many yards of rocks and boulders.  Caution must be taken where the stairs meet the beach as the bluffs & beach are subject to extreme erosion from ocean storms.",Yes,1,0,,,Y,Yes,0,0,0,Y,41.15241851,-71.55507655,,0,Mohegan Bluffs / South East Light Stairway,,828,STA,No,0,0,No,,0,0,N,,Spring,0,No,0,New Shoreham,0,0,SP,0,0,828
,,,1,,0,0,0,0,0,,,,,,,,1,0,,,Y,,0,0,0,Y,41.91448137,-71.74253264,,0,Burlingame Reservoir,,829,STA,,0,0,0,,0,0,N,,Elbow Rock,0,,0,Glocester,0,0,FB,0,0,829
,,,1,,0,0,0,0,0,,,,,,,,1,0,,,Y,,0,1,0,N,41.55895787,-71.17129225,,0,Eight Rod Farm,,830,STA,,0,0,0,,0,0,N,,Eight Rod,0,,0,Tiverton,0,1,MA,0,0,830
,,,1,,0,0,0,0,0,,,,,,,,1,0,,,N,,0,0,0,N,41.67772099,-71.55643422,,0,Korea-Vietnam Vets Park,,831,MUN,,0,0,0,,0,0,N,,Arnold,0,,0,Coventry,0,0,LP,0,0,831
,,,1,,0,0,0,0,1,,,,,,,,1,0,,,Y,,0,0,0,N,41.68758193,-71.24241219,,0,Annawanscutt Fishing & Boating Access,,832,STA,,0,0,1,,0,0,N,,Viking,0,,0,Bristol,0,0,FB,0,0,832
,,,1,,0,0,0,0,1,,,,,,,,1,0,,,Y,,0,0,0,N,41.54090109,-71.69631572,,0,Barberville Fishing And Boating Access,,833,NGO,,0,0,1,,0,0,N,,Arcadia,0,,0,Hopkinton,0,0,FB,0,0,833
,,,1,,0,0,0,0,1,,,,,,,,1,0,,,Y,,0,0,0,N,41.74860601,-71.38306105,,0,Gaspee Point,,834,STA,,0,0,0,,0,0,N,,Bay Shore,0,,0,Warwick,0,0,FB,0,0,834
,,,1,,0,0,0,0,1,,,,,,,,1,0,,,Y,,0,0,0,N,41.51567743,-71.71715315,,0,Locustville Pond,,835,STA,,0,0,0,,0,0,N,,Unnamed,0,,0,Hopkinton,0,0,FB,0,0,835
,,,1,,0,0,0,0,1,,,,,,,,1,0,,,Y,,0,0,0,N,41.7044193,-71.36469085,,0,Longmeadow Fishing And Boating Access,,836,MUN,,0,0,0,,0,0,N,,Dorr,0,,0,Warwick,0,0,FB,0,0,836
,,,1,,0,0,0,0,1,,,,,,,,1,0,,,Y,,0,0,0,N,41.90090185,-71.54636063,,0,Stump Pond,,837,STA,,0,0,0,,0,0,N,,Log,0,,0,Smithfield,0,0,FB,0,0,837
,,,1,,0,0,0,0,1,,,,,,,,1,0,,,Y,,0,0,0,N,41.63385044,-71.23081264,,0,Gull Cove Fishing & Boating Access,,838,STA,,0,0,0,,0,0,N,,State 138,0,,0,Portsmouth,0,0,FB,0,0,838
,,,1,,0,0,0,0,1,,,,,,,,1,0,,,Y,,0,0,0,N,41.86893771,-71.37985377,,0,Festival Pier,,839,MUN,,0,0,0,,0,0,Y,,Tim Healey,0,,0,Pawtucket,0,0,FB,0,0,839
,,,1,,0,0,0,0,1,,,,,,,,1,0,,,Y,,0,0,0,N,41.66522839,-71.61887775,,0,Zeke's Bridge,,840,STA,,0,0,0,,0,0,N,,Harkney Hill,0,,0,Coventry,0,0,FB,0,0,840
,,,1,,0,0,0,0,1,,,,,,,,1,0,,,N,,0,0,0,Y,41.92362538,-71.75794486,,0,George Washington Campground,,841,STA,,0,0,0,,0,0,N,,George Washington,0,,0,Glocester,0,1,SP,0,0,841
,,,1,,0,0,0,0,1,,,,,,,,1,0,,,Y,,0,0,0,Y,41.92452215,-71.7878003,,0,Clarkville Pond,,842,STA,,0,0,0,,0,0,N,,Shepard,0,,0,Glocester,0,1,FB,0,0,842
,,,1,,0,0,0,0,1,,,,,,,,1,0,,,Y,,0,0,0,N,41.92723289,-71.71816035,,0,Pascoag Reservoir Fishing Access,,843,STA,,0,0,0,,0,0,N,,Brandy Brook,0,,0,Glocester,0,0,FB,0,0,843
,,,1,,0,0,0,0,1,,,,,,,,1,0,,,Y,,0,0,0,N,41.9173022,-71.75835699,,0,Lake Washington,,844,STA,,0,0,0,,0,0,N,,Lake Washington,0,,0,Glocester,0,0,FB,0,0,844
,,,1,,0,0,0,0,1,,,,,,,,1,0,,,Y,,0,0,0,N,41.52329467,-71.74182579,,0,Moscow Pond,,845,STA,,0,0,0,,0,0,N,,Woody Hill,0,,0,Hopkinton,0,0,FB,0,0,845
,,,1,,0,0,0,0,1,,,,,,,,1,0,,,Y,,0,0,0,Y,41.88947957,-71.42773712,,0,Olney Pond,,846,STA,,0,0,0,,0,0,N,,Les Pawson Loop,0,,0,Lincoln,0,0,FB,0,0,846
,,,1,,0,0,1,0,1,,,,,,,,1,0,,,Y,,0,0,0,N,41.69744185,-71.77004476,,0,Carbuncle Pond,,847,STA,,0,0,0,,0,0,N,,Plainfield Pike,0,,0,Coventry,0,0,FB,0,0,847
No,,338 acres,1,,0,0,0,0,1,JL Curran,,,(401) 789-0281,,This undeveloped state park is mostly forested and managed primarily as wildlife management area.  There are trails here but users must pay heed to safety requirements associated with hunting in this area. ,Yes,1,0,,,Y,Yes,0,1,0,N,41.75072867,-71.55119892,,0,JL Curran,,848,STA,No,0,0,No,,0,0,N,,Seven Mile,0,No,0,Cranston,0,1,SP,0,0,848
,,,1,,0,0,0,0,1,,,,,,,,1,0,,,Y,,0,0,0,N,41.43810936,-71.72243714,,0,Alton Pond Landing,,849,PRV,,0,0,0,,0,0,N,,Alton Bradford,0,,0,Hopkinton,0,0,FB,0,0,849
,,,1,,0,0,0,0,1,,,,,,,,1,0,,,Y,,0,0,0,N,41.49929845,-71.751404,,0,Ashville Pond,,850,STA,,0,0,0,,0,0,N,,Canonchet,0,,0,Hopkinton,0,0,FB,0,0,850
,,,1,,0,0,0,0,1,,,,,,,,1,0,,,Y,,0,0,0,N,41.49842334,-71.71664004,,0,Tefft River Access,,851,STA,,0,0,0,,0,0,N,,Mechanic,0,,0,Hopkinton,0,0,FB,0,0,851
,,,1,,0,0,0,0,0,,,,,,,,1,0,,,Y,,0,0,0,N,41.4923402,-71.62826816,,0,Beaver River Fishing Access,,852,STA,,0,0,0,,0,0,N,,Kingstown,0,,0,Richmond,0,0,FB,0,0,852
,,,1,,0,0,0,0,1,,,,,,,,1,0,,,Y,,0,0,0,N,41.44525056,-71.681354,,0,Richmond Landing,,853,STA,,0,0,0,,0,0,N,,Church,0,,0,Richmond,0,0,FB,0,0,853
,,,1,,0,0,0,0,1,,,,,,,,1,0,,,Y,,0,0,0,Y,41.45790294,-71.51523187,,0,Asa Pond,,854,MUN,,0,0,0,,0,0,N,,Galway,0,,0,South Kingstown,0,0,LP,0,0,854
,,,1,,0,0,0,0,1,,,,,,,,1,0,,,Y,,0,0,0,N,41.49913784,-71.56440216,,0,Barber Pond,,855,STA,,0,0,0,,0,0,N,,Barber's Pond,0,,0,South Kingstown,0,0,FB,0,0,855
,,,1,,0,0,0,0,1,,,,,,,,1,0,,,Y,,0,0,0,N,41.46699509,-71.45019861,,0,Narrow River,,856,STA,,0,0,0,,0,0,N,,Pollock,0,,0,South Kingstown,0,0,FB,0,0,856
,,,1,,0,0,0,0,1,,,,,,,,1,0,,,Y,,0,0,0,N,41.63094661,-71.45379312,,0,Potowomut Pond,,857,STA,,0,0,0,,0,0,N,,Potowomut,0,,0,Warwick,0,0,FB,0,0,857
,,,1,,0,0,0,0,1,,,,,,,,1,0,,,Y,,0,0,0,N,41.38182109,-71.80036587,,0,Chapman Pond,,858,MUN,,0,0,1,,0,0,N,,Town Landfill,0,,0,Westerly,0,0,FB,0,0,858
,,,1,,0,0,0,0,1,,,,,,,,1,0,,,Y,,0,0,0,N,41.39451304,-71.84104449,,0,White Rock,,859,MUN,,0,0,0,,0,0,N,,State 78,0,,0,Westerly,0,0,FB,0,0,859
,,,1,,0,0,0,0,1,,,,,,,,1,0,,,Y,,0,0,0,N,41.5957219,-71.70377555,,0,Breakhart Pond,,860,STA,,0,0,0,,0,0,N,,Austin Farm,0,,0,Exeter,0,1,FB,0,0,860
,,,1,,0,0,0,0,1,,,,,,,,1,0,,,Y,,0,0,0,N,41.40629717,-71.74828321,,0,Bradford Landing,,861,STA,,0,0,0,,0,0,N,,Main,0,,0,Westerly,0,0,FB,0,0,861
,,,1,,0,0,0,0,1,,,,,,,,1,0,,,Y,,0,0,0,N,41.57684173,-71.44779227,,0,Pleasant St Boat Launch,,862,MUN,,0,0,0,,0,0,N,,Pleasant,0,,0,North Kingstown,0,0,FB,0,0,862
,,,1,,0,0,0,0,1,,,,,,,,1,0,,,N,,0,0,0,N,41.42250131,-71.503098,,0,Pond St Boat Launch,,863,MUN,,0,0,0,,0,0,N,,Billington,0,,0,South Kingstown,0,0,FB,0,0,863
,,,1,,0,0,0,0,1,,,,,,,,1,0,,,N,,0,0,0,N,41.38589476,-71.5195838,,0,Gooseberry Rd Boat Launch,,864,MUN,,0,0,0,,0,0,N,,Gooseberry,0,,0,South Kingstown,0,0,FB,0,0,864
,,,1,,0,0,1,0,1,,,,,,,,1,0,,,Y,,0,0,0,N,41.49255867,-71.42050988,,0,South Ferry Rd,,865,MUN,,0,0,0,,0,0,N,,Ferry,0,,0,Narragansett,0,0,LP,0,0,865
,,,1,,0,0,0,0,1,,,,,,,,1,0,,,Y,,0,0,0,N,41.73535787,-71.32526265,,0,Brickyard Pond,,866,MUN,,0,0,0,,0,0,N,,Legion,0,,0,Barrington,0,0,FB,0,0,866
,,,1,,0,0,0,0,0,,,,,,,,1,0,,,N,,0,0,0,N,41.70888864,-71.25372434,,0,Sherman Ave,,867,MUN,,0,0,0,,0,0,N,,Sherman,0,,0,Bristol,0,0,FB,0,0,867
,,,1,,0,0,0,0,1,,,,,,,,1,0,,,Y,,0,0,0,N,41.96502458,-71.59770969,,0,Tarkiln Pond,,869,MUN,,0,0,0,,0,0,N,,Mowry,0,,0,Burrillville,0,0,FB,0,0,869
,,,1,,0,0,0,0,1,,,,,,,,1,0,,,Y,,0,0,0,N,42.00080099,-71.76179221,,0,Wallum Lake,,870,STA,,0,0,0,,0,0,N,,Shore,0,,0,Burrillville,0,0,FB,0,0,870
,,,1,,0,0,0,0,1,,,,,,,,1,0,,,Y,,0,0,0,N,41.97899153,-71.66511638,,0,Spring Lake,,871,STA,,0,0,0,,0,0,N,,Black Hut,0,,0,Burrillville,0,0,FB,0,0,871
,,,1,,0,0,0,0,1,,,,,,,,1,0,,,Y,,0,0,0,N,41.96621191,-71.78852496,,0,Wakefield Pond,,872,STA,,0,0,0,,0,0,N,,Lee,0,,0,Burrillville,0,0,FB,0,0,872
,,,1,,0,0,0,0,1,,,,,,,,1,0,,,Y,,0,0,0,N,41.97000215,-71.72329774,,0,Wilson Reservoir,,873,STA,,0,0,0,,0,0,N,,Wallum Lake,0,,0,Burrillville,0,0,FB,0,0,873
,,,1,,0,0,0,0,1,,,,,,,,1,0,,,Y,,0,0,0,Y,41.37857456,-71.67979539,,0,Barton C. Hurley Landing,,874,STA,,0,0,0,,0,0,N,,Sanctuary,0,,0,Charlestown,0,0,FB,0,0,874
,,,1,,0,0,0,0,1,,,,,,,,1,0,,,Y,,0,0,0,N,41.5604224,-71.68050355,,0,Roaring Brook Pond,,875,STA,,0,0,0,,0,0,N,,Teft Hill,0,,0,Exeter,0,0,FB,0,0,875
,,,1,,0,0,0,0,1,,,,,,,,1,0,,,Y,,0,1,0,N,41.57295831,-71.72106577,,0,Wood River @ Route 165,,876,STA,,0,0,1,,0,0,N,,Ten Rod,0,,0,Exeter,0,0,FB,0,0,876
,,,1,,0,0,0,0,1,,,,,,,,1,0,,,Y,,0,0,0,N,41.87563157,-71.69072589,,0,Keech Pond,,877,STA,,0,0,0,,0,0,N,,Indian,0,,0,Glocester,0,0,FB,0,0,877
,,,1,,0,0,0,0,1,,,,,,,,1,0,,,Y,,0,0,0,N,41.89692732,-71.67769486,,0,Smith & Sayles Reservoir,,878,STA,,0,0,0,,0,0,N,,Point,0,,0,Glocester,0,0,FB,0,0,878
,,,1,,0,0,0,0,1,,,,,,,,1,0,,,Y,,0,0,0,N,41.49346755,-71.71589692,,0,Switch Rd Canoe Access,,879,MUN,,0,0,0,,0,0,N,,Hope Valley,0,,0,Hopkinton,0,0,FB,0,0,879
,,,1,,0,0,0,0,1,,,,,,,,1,0,,,Y,,0,0,0,N,41.46338338,-71.1931316,,0,Sakonnet Point,,880,STA,,0,0,0,,0,0,N,,Sakonnet Point,0,,0,Little Compton,0,0,FB,0,0,880
,,,1,,0,0,0,0,1,,,,,,,,1,0,,,Y,,0,0,0,N,41.38319854,-71.50748385,,0,Galilee Boat Ramp,,881,STA,,0,0,0,,0,0,N,,Great Island,0,,0,Narragansett,0,0,FB,0,0,881
,,,1,,0,0,0,0,1,,,,,,,,1,0,,,Y,,0,0,0,N,41.44941048,-71.44981533,,0,Narrow River Canoe Access,,882,FED,,0,0,0,,0,0,N,,Boston Neck,0,,0,Narragansett,0,0,FB,0,0,882
,,,1,,0,0,0,0,1,,,,,,,,1,0,,,Y,,0,0,0,N,41.5196097,-71.44458262,,0,Pettaquamscutt Pond,,883,MUN,,0,0,0,,0,0,N,,Gilbert Stuart,0,,0,North Kingstown,0,0,FB,0,0,883
,,,1,,0,0,0,0,1,,,,,,,,1,0,,,Y,,0,0,0,N,41.51565261,-71.70283198,,0,Wyoming Dam,,884,STA,,0,0,0,,0,0,N,,Bridge,0,,0,Richmond,0,0,FB,0,0,884
,,,1,,0,0,0,0,1,,,,,,,,1,0,,,Y,,0,0,0,N,41.47410787,-71.46953362,,0,Indian Lake Boat Ramp,,885,MUN,,0,0,0,,0,0,N,,Indian,0,,0,South Kingstown,0,0,FB,0,0,885
,,,1,,0,0,0,0,1,,,,,,,,1,0,,,Y,,0,0,0,N,41.45082335,-71.61579911,,0,Biscuit City,,886,STA,,0,0,0,,0,0,N,,Biscuit City,0,,0,Richmond,0,0,FB,0,0,886
,,,1,,0,0,0,0,1,,,,,,,,1,0,,,Y,,0,0,0,N,41.48254871,-71.5512686,,0,Taylors Landing,,887,STA,,0,0,0,,0,0,N,,Kingstown,0,,0,South Kingstown,0,0,FB,0,0,887
,,,1,,0,0,0,0,1,,,,,,,,1,0,,,Y,,0,0,0,N,41.42608805,-71.54908523,,0,Tucker Pond,,888,STA,,0,0,0,,0,0,N,,Tuckertown,0,,0,South Kingstown,0,0,FB,0,0,888
,,,1,,0,0,0,0,1,,,,,,,,1,0,,,Y,,0,0,0,N,41.42952122,-71.56781604,,0,Worden Pond Boat Launch,,889,STA,,0,0,0,,0,0,N,,Worden's Pond,0,,0,South Kingstown,0,0,FB,0,0,889
,,,1,,0,0,0,0,1,,,,,,,,1,0,,,Y,,0,0,0,N,41.63361436,-71.14877494,,0,Stafford Pond,,890,STA,,0,0,0,,0,0,N,,Old Stafford Rd,0,,0,Tiverton,0,0,FB,0,0,890
,,,1,,0,0,0,0,1,,,,,,,,1,0,,,Y,,0,0,0,N,41.37498351,-71.83214139,,0,Main Street Boat Ramp,,891,STA,,0,0,0,,0,0,N,,Main,0,,0,Westerly,0,0,FB,0,0,891
,,,1,,0,0,0,0,1,,,,,,,,1,0,,,Y,,0,0,0,Y,41.75379483,-71.35272985,,0,Haines Park Boat Ramp,,892,STA,,0,0,1,,0,0,N,,Beach Point,0,,0,East Providence,0,0,FB,0,0,892
,,,1,,0,0,0,0,1,,,,,,,,1,0,,,Y,,0,0,0,N,41.55602721,-71.68527472,,0,Browning Mill Pond,,893,STA,,0,0,0,,0,0,N,,K And G Ranch,0,,0,Richmond,0,0,FB,0,0,893
,,,1,,0,0,0,0,1,,,,,,,,1,0,,,Y,,0,0,0,N,41.42215262,-71.45535413,,0,Monahan's Dock Fishing And Boating Access,,894,STA,,0,0,0,,0,0,N,,Ocean,0,,0,Narragansett,0,0,FB,0,0,894
,,,1,,0,0,0,0,1,,,,,,,,1,0,,,Y,,0,0,0,N,41.64326766,-71.607758,,0,Big River @ Burnt Saw Mill Rd,,895,STA,,0,0,0,,0,0,N,,Burnt Sawmill,0,,0,West Greenwich,0,0,FB,0,0,895
,,,1,,0,0,0,0,1,,,,,,,,1,0,,,Y,,0,0,0,N,41.64941311,-71.61434972,,0,Big River@ Weaver Hill Road,,896,STA,,0,0,0,,0,0,N,,Weaver Hill Road,0,,0,West Greenwich,0,0,FB,0,0,896
,,,1,,0,0,0,0,1,,,,,,,,1,0,,,Y,,0,0,0,N,41.63637741,-71.57355039,,0,Tarbox Pond,,897,STA,,0,0,0,,0,0,N,,Hopkins Hill,0,,0,West Greenwich,0,0,FB,0,0,897
,,,1,,0,0,0,0,1,,,,,,,,1,0,,,Y,,0,0,0,N,41.82413008,-71.70737016,,0,Hopkins Mill Pond,,898,MUN,,0,0,0,,0,0,N,,Winsor,0,,0,Foster,0,0,FB,0,0,898
,,,1,,0,0,0,0,1,,,,,,,,1,0,,,Y,,0,0,0,N,41.51210311,-71.70646264,,0,Wood River Fishing Access @ Chariho Little League,,899,MUN,,0,0,0,,0,0,N,,Nooseneck Hill,0,,0,Hopkinton,0,0,FB,0,0,899
,,,1,,0,0,0,0,1,,,,,,,,1,0,,,Y,,0,0,0,N,41.73108571,-71.56535855,,0,Pawtuxet River Fishing Access,,900,MUN,,0,0,0,,0,0,N,,Hope Furnace,0,,0,Scituate,0,0,FB,0,0,900
,,,1,,0,0,0,0,1,,,,,,,,1,0,,,Y,,0,0,0,N,41.97085488,-71.67879372,,0,Harrisville Pond Fishing Access,,902,STA,,0,0,0,,0,0,N,,Sherman Farm,0,,0,Burrillville,0,0,FB,0,0,902
,,,1,,0,0,0,0,1,,,,,,,,1,0,,,Y,,0,0,0,Y,41.56043459,-71.47568338,,0,Bellville Pond,,903,MUN,,0,0,0,,0,0,N,,Oak Hill,0,,0,North Kingstown,0,1,FB,0,0,903
,,,1,,0,0,0,0,1,,,,,,,,1,0,,,Y,,0,0,0,N,41.57381642,-71.28792903,,0,Weaver Cove,,904,MUN,,0,0,0,,0,0,Y,,Unnamed,0,,0,Portsmouth,0,0,FB,0,0,904
,,,1,,0,0,0,0,1,,,,,,,,1,0,,,N,,0,0,0,N,41.55488291,-71.21348812,,0,Fogland Boat Launch,,905,MUN,,0,0,0,,0,0,N,,Fogland,0,,0,Tiverton,0,0,FB,0,0,905
,,,1,,0,0,0,0,1,,,,,,,,1,0,,,Y,,0,0,0,N,41.67000773,-71.27833438,,0,State Street Boat Launch,,906,MUN,,0,0,0,,0,0,N,,State,0,,0,Bristol,0,0,FB,0,0,906
,,,1,,0,0,0,0,1,,,,,,,,1,0,,,Y,,0,0,0,N,41.72629215,-71.28567973,,0,Town Dock,,907,MUN,,0,0,0,,0,0,N,,Water,0,,0,Warren,0,0,FB,0,0,907
,,,1,,0,0,0,0,1,,,,,,,,1,0,,,Y,,0,0,0,N,41.8988402,-71.39031846,,0,Central Falls Landing,,910,MUN,,0,0,0,,0,0,Y,,Broad,0,,0,Central Falls,0,0,LP,0,0,910
,,,1,,0,0,0,0,1,,,,,,,,1,0,,,Y,,0,0,0,Y,41.77551392,-71.35593482,,0,Willet Pond,,911,MUN,,0,0,0,,0,0,N,,Willett,0,,0,East Providence,0,0,FB,0,0,911
,,,1,,0,0,0,0,1,,,,,,,,1,0,,,Y,,0,0,0,N,41.61980518,-71.30502224,,0,Homestead Boat Ramp,,912,MUN,,0,0,0,,0,0,N,,Narragansett,0,,0,Portsmouth,0,0,FB,0,0,912
,,,1,,0,0,0,0,1,,,,,,,,1,0,,,Y,,0,0,0,N,41.363721,-71.62668927,,0,Charlestown Beach Kayak Launch,,913,MUN,,0,0,0,,0,0,N,,Charlestown Beach,0,,0,Charlestown,0,0,FB,0,0,913
,,,1,,0,0,0,0,1,,,,,,,,1,0,,,Y,,0,0,0,N,41.56528759,-71.71535608,,0,High Banks,,914,STA,,0,0,0,,0,0,N,,Summit,0,,0,Exeter,0,0,FB,0,0,914
,,,1,,0,0,0,0,1,,,,,,,,1,0,,,Y,,0,0,0,N,41.54354105,-71.15054525,,0,Simmons Mill Pond,,915,STA,,0,0,0,,0,0,N,,Colebrook,0,,0,Little Compton,0,0,FB,0,0,915
,,,1,,0,0,0,0,1,,,,,,,,1,0,,,Y,,0,0,0,N,41.82150019,-71.40550855,,0,Corliss Landing,,916,MUN,,0,0,0,,0,0,Y,,Water,0,,0,Providence,0,0,LP,0,0,916
,,,1,,0,0,0,0,1,,,,,,,,1,0,,,N,,0,0,0,N,41.81210684,-71.40175292,,0,Collier Park Ramp,,917,UTL,,0,0,0,,0,0,N,,Henderson,0,,0,Providence,0,0,FB,0,0,917
,,,1,,0,0,0,0,1,,,,,,,,1,0,,,Y,,0,0,0,N,41.64509855,-71.7568902,,0,Tillinghast Pond,,918,STA,,0,0,1,,0,0,N,,Plain,0,,0,West Greenwich,0,0,FB,0,0,918
,,,0,,0,0,0,0,0,,,,,,,,1,0,,,Y,,0,1,0,N,42.01098685,-71.55272771,,0,High Rocks Gorge,,919,STA,,0,0,0,,0,0,N,,Harkness,0,,0,North Smithfield,0,0,CA,0,0,919
,,,0,,0,0,0,0,0,,,,,,,,0,0,,,Y,,0,0,0,N,41.55591511,-71.26147032,,0,Oakland Forest,,920,NGO,,0,0,0,,0,0,Y,,Oakland Farm,0,,0,Portsmouth,0,1,CA,0,0,920
,,,0,,0,0,1,0,0,,,,,,,,1,0,,,Y,,0,0,0,N,41.36205057,-71.48078523,,0,Rose Nulman Memorial Park,,921,PRV,,0,0,0,,0,0,N,,Ocean,0,,0,Narragansett,0,0,LP,0,0,921
,,,0,,0,0,0,0,0,,,,,,,,0,0,,,N,,0,0,0,N,41.48736528,-71.31445273,,0,Queen Ann Park,,922,MUN,,0,0,0,,0,0,N,,Church,0,,0,Newport,0,0,LP,0,0,922
,,,0,,0,0,0,0,0,,,,,,,,0,0,,,N,,0,0,0,N,41.80641112,-71.42273108,,0,Peace & Plenty Park,,923,MUN,,1,0,0,,0,0,N,,Peace Street,0,,0,Providence,0,0,LP,0,0,923
,,,1,,2,2,0,0,0,,,,,,,,0,0,,,N,,0,0,0,N,41.6959553,-71.56246642,,0,Coventry Middle School,,924,SCH,,0,0,0,,0,0,N,,Foster Dr,0,,0,Coventry,0,0,SC,0,0,924
,,,0,,0,0,0,0,0,,,,,,,,0,0,,,N,,0,0,0,N,41.62625421,-71.50656867,,0,Rec Office Playground,,925,MUN,,1,0,0,,0,0,N,,Frenchtown,0,,0,East Greenwich,0,0,LP,0,0,925
,,,0,,0,0,0,0,0,,,,,,,,0,0,,,N,,0,0,0,N,41.61801879,-71.48843669,,0,Sun Valley Playground,,926,MUN,,1,0,0,,0,0,N,,Pequot,0,,0,East Greenwich,0,0,LP,0,0,926
,,,0,,0,0,0,0,0,,,,,,,,0,0,,,Y,,0,0,0,N,41.60826271,-71.50645569,,0,Briggs/Boesch Farm,,927,MUN,,0,0,0,,0,0,N,,South,0,,0,East Greenwich,0,1,CA,0,0,927
,,,0,,0,0,0,0,0,,,,,,,,1,0,,,N,,0,0,0,N,41.65041654,-71.45417719,,0,Scalloptown Park,,928,MUN,,0,0,0,,0,0,N,,Crompton,0,,0,East Greenwich,0,1,CA,0,0,928
,,,0,,0,0,0,1,0,,,,,,,,0,0,,,Y,,0,0,0,N,41.84781017,-71.34557665,,0,Ten Mile River Greenway,,929,MUN,,0,0,1,,0,0,N,,Ferris,0,,0,East Providence,0,0,LP,0,1,929
,,,0,,0,0,0,0,0,,,,,,,,0,0,,,N,,0,0,0,N,41.51054907,-71.2513151,,0,Demery Park,,930,MUN,,0,0,0,,0,0,N,,Riverview,0,,0,Middletown,0,0,LP,0,0,930
,,,0,,0,0,0,0,0,,,,,,,,0,0,,,N,,0,0,0,N,41.48954801,-71.28565404,,0,Dunlap Wheeler Park,,931,MUN,,0,0,0,,0,0,N,,Purgatory,0,,0,Middletown,0,0,LP,0,0,931
,,,0,,0,0,0,0,0,,,,,,,,0,0,,,Y,,0,0,0,N,41.50075928,-71.26956169,,0,Paradise Valley ParK,,932,MUN,,0,0,0,,0,0,N,,Prospect,0,,0,Middletown,0,0,LP,0,1,932
,,,1,,0,0,0,0,0,,,,,,,,0,0,,,N,,0,0,0,N,41.52212763,-71.26454763,,0,Wyatt Road Soccer Complex,,933,MUN,,0,0,0,,0,5,N,,Wyatt,0,,0,Middletown,0,0,AF,0,0,933
,,,1,,1,0,0,0,0,,,,,,,,0,0,,,N,,0,0,0,N,41.47714899,-71.31806491,,0,Robert Douglas Field,,934,MUN,,0,0,0,,0,0,N,,Wellington,0,,0,Newport,0,0,AF,0,0,934
,,,1,,1,0,0,0,0,,,,,,,,0,0,,,N,,0,0,0,N,41.47706648,-71.31728563,,0,Hogan Field,,935,MUN,,0,0,0,,0,0,N,,Wellington,0,,0,Newport,0,0,AF,0,0,935
,,,1,,0,0,0,0,0,,,,,,,,0,0,,,N,,0,0,0,N,41.48261381,-71.31073211,,0,Pop Flack Courts,,936,MUN,,0,0,0,,0,0,N,,King,0,,4,Newport,0,0,AF,0,0,936
,,,0,,0,0,0,0,1,,,,,,,,0,0,,,N,,0,0,0,N,41.57684247,-71.44779609,,0,Pleasant Street Boat Ramp,,938,MUN,,0,0,0,,0,0,N,,Pleasant,0,,0,North Kingstown,0,0,FB,0,0,938
,,,1,,1,0,0,0,1,,,,,,,,1,0,,,Y,,0,0,0,N,41.86564367,-71.4929287,,0,Lee Romano Field,,939,MUN,,1,0,0,,0,0,N,,Greystone,0,,0,North Providence,0,0,AF,0,1,939
,,,0,,0,0,0,0,0,,,,,,,,0,0,,,N,,0,0,0,N,41.98285634,-71.51863091,,0,Bushee Playground,,940,MUN,,1,0,0,,0,0,N,,Merrimac,0,,0,North Smithfield,0,0,LP,0,0,940
,,,0,,0,0,0,0,0,,,,,,,,0,0,,,N,,0,0,0,N,42.00187135,-71.56847608,,0,Halliwell School Playground,,941,SCH,,1,0,0,,0,0,N,,Victory Highway,0,,0,North Smithfield,0,0,SC,0,0,941
,,,0,,0,0,0,0,0,,,,,,,,0,0,,,N,,0,0,0,Y,41.86686674,-71.40153375,,0,Newell Ave Playground,,942,MUN,,1,0,0,,0,0,N,,Newell,0,,0,Pawtucket,0,0,LP,0,0,942
,,,0,,0,0,0,0,0,,,,,,,,0,0,,,N,,0,0,0,N,41.87527709,-71.40071507,,0,Cunningham Elementary School Playground,,943,SCH,,1,0,0,,0,0,N,,Baldwin,0,,0,Pawtucket,0,0,SC,0,0,943
,,,0,,0,0,0,0,0,,,,,,,,0,0,,,N,,0,0,0,N,41.87954341,-71.38202169,,0,Veterans Park Amphitheater,,944,MUN,,0,0,0,,0,0,N,,Roosevelt,0,,0,Pawtucket,0,0,LP,0,0,944
,,,0,,0,0,0,0,0,,,,,,,,0,0,,,N,,0,0,0,N,41.89279514,-71.34726642,,0,Curtis Elementary School,,945,SCH,,1,0,0,,0,0,N,,Benefit,0,,0,Pawtucket,0,0,SC,0,0,945
,,,0,,0,0,0,0,0,,,,,,,,0,0,,,N,,0,0,0,N,41.86938453,-71.38575421,,0,Perez Park,,946,MUN,,0,0,0,,0,0,N,,Pleasant,0,,0,Pawtucket,0,0,LP,0,0,946
,,,0,,0,0,0,0,0,,,,,,,,0,0,,,Y,,0,0,0,N,41.87717767,-71.38302422,,0,Hodgson Rotary Park,,947,MUN,,0,0,0,,0,0,N,,Roosevelt,0,,0,Pawtucket,0,0,LP,0,0,947
,,,1,,0,0,0,0,0,,,,,,,,0,0,,,Y,,0,0,1,N,41.82507848,-71.41288479,,0,Bank of Americal City Center,,948,MUN,,0,0,1,,0,0,N,,Kennedy Plaza,0,,0,Providence,0,0,LP,0,0,948
,,,0,,0,0,0,0,0,,,,,,,,0,0,,,N,,0,0,0,N,41.82502027,-71.41366516,,0,Biltmore Park,,949,MUN,,0,0,0,,0,0,N,,Kennedy Plaza,0,,0,Providence,0,0,LP,0,0,949
,,,0,,0,0,0,0,0,,,,,,,,0,0,,,N,,0,0,0,N,41.81978802,-71.41694241,,0,Cathedral Square,,950,MUN,,0,0,0,,0,0,N,,Jackson Walkway,0,,0,Providence,0,0,LP,0,0,950
,,,0,,0,0,0,0,0,,,,,,,,0,0,,,N,,0,0,0,N,41.81097863,-71.42959901,,0,Diamond St Playground,,951,MUN,,1,0,0,,0,0,N,,Diamond,0,,0,Providence,0,0,LP,0,0,951
,,,0,,0,0,0,0,0,,,,,,,,0,0,,,N,,0,0,0,N,41.82219045,-71.41385479,,0,Freeman Park,,952,MUN,,0,0,0,,0,0,N,,Westminster,0,,0,Providence,0,0,LP,0,0,952
,,,0,,0,0,0,0,0,,,,,,,,0,0,,,N,,0,0,0,N,41.8107341,-71.41982898,,0,Jacqueline Clements Park,,953,MUN,,0,0,0,,0,0,N,,Dudley,0,,0,Providence,0,0,LP,0,0,953
,,,1,,0,1,0,0,0,,,,,,,,0,0,,,N,,0,0,0,N,41.82246751,-71.43124453,,0,Knight St. Park,,954,MUN,,1,0,0,,0,0,N,,Knight,1,,0,Providence,0,0,LP,0,0,954
,,,0,,0,0,0,0,0,,,,,,,,0,0,,,N,,0,0,0,N,41.82956203,-71.40812108,,0,M.E. Sharpe Memorial Park,,955,MUN,,0,0,0,,0,0,N,,Benefit St,0,,0,Providence,0,0,LP,0,0,955
,,,0,,0,0,0,0,0,,,,,,,,0,0,,,N,,0,0,0,Y,41.82589535,-71.40843902,,0,Market Square,,956,MUN,,0,0,0,,0,0,N,,North Main St,0,,0,Providence,0,0,LP,0,0,956
,,,1,,3,0,0,0,0,,,,,,,,0,0,,,N,,0,0,0,N,41.84074489,-71.4534918,,0,Mount Pleasant Little League,,957,MUN,,0,0,0,,0,0,N,,Mount Pleasant,0,,0,Providence,0,0,AF,0,0,957
,,,0,,0,0,0,0,0,,,,,,,,0,0,,,N,,0,0,0,N,41.83946628,-71.4079841,,0,Pleasant St. Park,,958,MUN,,1,0,0,,0,0,N,,Pleasant,0,,0,Providence,0,0,LP,0,0,958
,,,0,,0,0,0,0,0,,,,,,,,0,0,,,N,,0,0,0,N,41.80653272,-71.45684797,,0,Silver Lake Memorial Park,,959,MUN,,0,0,0,,0,0,N,,Pocasset,0,,0,Providence,0,0,LP,0,0,959
,,,0,,0,0,0,0,0,,,,,,,,0,0,,,N,,0,0,0,N,41.85160036,-71.42042743,,0,St Ann's Plaza,,960,MUN,,0,0,0,,0,0,N,,Charles,0,,0,Providence,0,0,LP,0,0,960
,,,0,,0,0,0,0,0,,,,,,,,0,0,,,N,,0,0,0,N,41.82256082,-71.41643669,,0,Trinity Mews,,961,MUN,,0,0,0,,0,0,N,,Fountain,0,,0,Providence,0,0,LP,0,0,961
,,,0,,0,0,0,0,0,,,,,,,,0,0,,,N,,0,0,0,N,41.83490453,-71.4301248,,0,Tom Twitchell Greenway,,962,MUN,,0,0,0,,0,0,N,,Oakland,0,,0,Providence,0,0,LP,0,0,962
,,,1,,3,0,0,0,0,,,,,,,,0,0,,,N,,0,0,0,N,41.45229882,-71.48212323,,0,Broad Rock Playfields,,963,MUN,,0,0,0,,0,0,N,,Broad Rock,0,,0,South Kingstown,0,0,LP,0,0,963
,,,0,,0,0,0,0,0,,,,,,,,0,0,,,Y,,0,0,0,N,41.45130296,-71.48089862,,0,South Kingstown Dog Park,,964,MUN,,0,0,0,,0,0,N,,Broad Rock,0,,0,South Kingstown,0,0,LP,0,0,964
,,,1,,0,1,0,0,0,,,,,,,,0,0,,,N,,0,0,0,N,41.70654058,-71.51911571,,0,Factory St. Playground,,965,MUN,,1,0,0,,0,0,N,,Factory,0,,0,West Warwick,0,0,LP,0,0,965
,,,0,,1,0,0,0,0,,,,,,,,0,0,,,N,,0,0,0,N,41.68590113,-71.51488972,,0,Carlson Circle Park,,966,MUN,,0,0,0,,0,0,N,,Carlson,0,,0,West Warwick,0,0,LP,0,0,966
,,,0,,0,0,0,0,0,,,,,,,,0,0,,,N,,0,0,0,N,41.69825259,-71.52357398,,0,Brookside Ave Playground,,967,MUN,,1,0,0,,0,0,N,,Brookside,0,,0,West Warwick,0,0,LP,0,0,967
,,,1,,0,0,0,0,0,,,,,,,,0,0,,,N,,0,0,0,N,41.39098268,-71.75408558,,2,Bradford Preserve,,968,MUN,,0,0,0,,0,0,N,,Westerly-Bradford Rd,0,,0,Westerly,0,0,CA,0,0,968
,,,1,,0,0,0,1,0,,,,,,,,0,0,,,Y,,0,0,0,N,41.69081879,-71.69921112,,0,Washington Secondary Bikepath,,969,STA,,0,0,0,,0,0,N,,Log Bridge,0,,0,Coventry,0,0,LP,0,1,969
,,,1,,0,1,0,0,0,,,,,,,,0,0,,,N,,0,0,0,N,41.39966844,-71.4766885,,0,Town Recreation Center aka The Camp,,970,MUN,,0,1,1,,0,0,N,,Clarke Rd,0,,3,Narragansett,0,0,LP,0,0,970
,,,0,,0,0,0,1,0,,,,,,,,1,0,,,Y,,0,0,0,N,41.81975348,-71.44895709,,0,Riverside Park,,971,MUN,,1,0,1,,0,0,N,,Aleppo,0,,0,Providence,0,0,LP,0,1,971
,,,0,,0,0,0,1,0,,,,,,,,0,0,,,Y,,0,0,0,N,41.43936569,-71.49883057,,0,South County Bike Path,,972,MUN,,0,0,1,,0,0,N,,Main,0,,0,South Kingstown,0,0,LP,0,1,972
,,,0,,0,0,0,1,0,,,,,,,,0,0,,,Y,,0,0,0,N,41.483037,-71.56230466,,0,South County Bike Path,,973,MUN,,0,0,1,,0,0,N,,Railroad,0,,0,South Kingstown,0,0,LP,0,1,973
,,,0,,0,0,0,1,0,,,,,,,,0,0,,,Y,,0,0,0,N,41.90715993,-71.40089696,,0,Blackstone Bikeway,,974,STA,,0,0,0,,0,0,N,,John,0,,0,Lincoln,0,0,SP,0,1,974
,,,0,,0,0,0,1,0,,,,,,,,0,0,,,Y,,0,0,0,N,41.93764161,-71.4343299,,0,Blackstone Bikeway,,975,STA,,0,0,0,,0,0,N,,Lower River,0,,0,Lincoln,0,0,SP,0,1,975
,,,0,,0,0,0,1,0,,,,,,,,0,0,,,Y,,0,0,0,N,41.93954059,-71.44416746,,0,Blackstone Bikeway,,976,STA,,0,0,1,,0,0,N,,Rte 295,0,,0,Lincoln,0,0,SP,0,1,976
,,,0,,0,0,0,1,0,,,,,,,,0,0,,,Y,,0,0,0,N,41.95310107,-71.45294413,,0,Blackstone Bikeway,,977,STA,,0,0,0,,0,0,N,,School,0,,0,Lincoln,0,0,SP,0,1,977
,,,0,,0,0,0,1,0,,,,,,,,0,0,,,Y,,0,0,0,N,41.96827039,-71.46697109,,0,Blackstone Bikeway,,978,STA,,0,0,0,,0,0,N,,New River,0,,0,Lincoln,0,0,SP,0,1,978
,,,0,,0,0,0,1,0,,,,,,,,0,0,,,Y,,0,0,0,N,41.99613113,-71.49423089,,0,Blackstone Bikeway,,979,STA,,0,0,1,,0,0,N,,Davison Ext,0,,0,Woonsocket,0,0,SP,0,1,979
,,,0,,0,0,0,1,0,,,,,,,,0,0,,,Y,,0,0,0,N,41.86831267,-71.34316793,,0,Ten Mile River Greenway,,980,MUN,,0,0,1,,0,0,N,,Slater Memorial Park,0,,0,Pawtucket,0,0,LP,0,1,980
,,,0,,0,0,0,1,0,,,,,,,,0,0,,,Y,,0,0,0,N,41.81330494,-71.3883932,,0,East Bay Bike Path,,981,STA,,0,0,0,,0,0,N,,Veterans Parkway,0,,0,East Providence,0,0,SP,0,1,981
,,,0,,0,0,0,1,0,,,,,,,,0,0,,,Y,,0,0,0,N,41.77250279,-71.36255605,,0,East Bay Bike Path,,982,STA,,0,0,0,,0,0,N,,Bullocks Point,0,,0,East Providence,0,0,SP,0,1,982
,,,0,,0,0,0,1,0,,,,,,,,0,0,,,Y,,0,0,0,N,41.7539042,-71.34900799,,0,East Bay Bike Path,,983,STA,,0,0,1,,0,0,N,,Metropolitan Park,0,,0,Barrington,0,0,LP,0,1,983
,,,0,,0,0,0,1,0,,,,,,,,0,0,,,Y,,0,0,0,N,41.68690959,-71.28395503,,0,East Bay Bike Path,,984,STA,,0,0,0,,0,0,N,,Asylum,0,,0,Bristol,0,0,SP,0,1,984
,,,0,,0,0,0,1,0,,,,,,,,0,0,,,Y,,0,0,0,N,41.80142462,-71.44331982,,0,Washington Secondary Bikepath,,985,MUN,,0,0,0,,0,0,N,,Depot,0,,0,Cranston,0,0,LP,0,1,985
,,,0,,0,0,0,1,0,,,,,,,,0,0,,,Y,,0,0,0,N,41.78859907,-71.45405211,,0,Washington Secondary Bikepath,,986,MUN,,0,0,0,,0,0,N,,Oak,0,,0,Cranston,0,0,LP,0,1,986
,,,0,,0,0,0,1,0,,,,,,,,0,0,,,Y,,0,0,0,N,41.75859166,-71.47585682,,0,Washington Secondary Bikepath,,987,MUN,,0,0,0,,0,0,N,,Sherman,0,,0,Cranston,0,0,LP,0,1,987
,,,0,,0,0,0,1,0,,,,,,,,0,0,,,Y,,0,0,0,N,41.72894193,-71.48472408,,0,Washington Secondary Bikepath,,988,MUN,,0,0,0,,0,0,N,,West Natick,0,,0,Warwick,0,0,LP,0,1,988
,,,0,,0,0,0,1,0,,,,,,,,0,0,,,Y,,0,0,0,N,41.71548853,-71.51493243,,0,Washington Secondary Bikepath,,989,MUN,,0,0,0,,0,0,N,,Hay,0,,0,West Warwick,0,0,LP,0,1,989
,,,0,,0,0,0,1,0,,,,,,,,0,0,,,Y,,0,0,0,N,41.69466874,-71.547552,,0,Washington Secondary Bikepath,,990,MUN,,0,0,0,,0,0,N,,Pilgrim,0,,0,Coventry,0,0,LP,0,1,990
,,,0,,0,0,0,1,0,,,,,,,,0,0,,,Y,,0,0,0,N,41.70414343,-71.61897791,,0,Washington Secondary Bikepath,,991,STA,,0,0,0,,0,0,N,,Pinehaven,0,,0,Coventry,0,0,LP,0,1,991
,,,0,,0,0,0,1,0,,,,,,,,0,0,,,Y,,0,0,0,N,41.62019171,-71.42212785,,0,Quonset Bike Path,,992,STA,,0,0,0,,0,0,N,,Newcomb,0,,0,North Kingstown,0,0,LP,0,1,992
,,,0,,0,0,0,1,0,,,,,,,,0,0,,,Y,,0,0,0,N,41.82272572,-71.44009779,,0,Fred Lippitt Woonasquatucket River Greenway,,993,MUN,,0,0,0,,0,0,N,,Valley,0,,0,Providence,0,0,LP,0,1,993
,,,0,,0,0,0,1,0,,,,,,,,0,0,,,Y,,0,0,0,N,41.81965414,-71.44810307,,0,Fred Lippitt Woonasquatucket River Greenway,,994,MUN,,0,0,0,,0,0,N,,Aleppo,0,,0,Providence,0,0,LP,0,1,994
,,,0,,0,0,0,1,0,,,,,,,,0,0,,,Y,,0,0,0,N,41.82650537,-71.46044214,,0,Fred Lippitt Woonasquatucket River Greenway,,995,MUN,,0,0,0,,0,0,N,,Manton,0,,0,Providence,0,0,LP,0,1,995
,,,0,,0,0,0,1,0,,,,,,,,0,0,,,Y,,0,0,0,N,41.83454685,-71.47295917,,0,Fred Lippitt Woonasquatucket River Greenway,,996,MUN,,0,0,0,,0,0,N,,Goldsmith,0,,0,Johnston,0,0,LP,0,1,996
,,,1,,0,0,0,0,0,,,,,,,,0,0,,,N,,0,0,0,N,41.96817607,-71.68772598,,0,Burrillville Skate Park,,997,MUN,,0,0,0,,0,0,Y,,Chapel,0,,0,Burrillville,0,0,LP,0,0,997
,,,0,,0,0,0,0,0,,,,,,,,0,0,,,N,,0,0,0,N,41.38957284,-71.83411245,,0,Canal Street Park,,998,MUN,,0,0,0,,0,0,Y,,Canal,0,,0,Westerly,0,0,LP,0,0,998
,,,0,,0,0,0,0,0,,,,,,,,0,0,,,N,,0,0,0,N,41.36110673,-71.68793417,,0,Mud Cove,,999,MUN,,0,0,0,,0,0,Y,,Meadow,0,,0,Charlestown,0,0,LP,0,0,999
,,,0,,0,0,0,0,0,,,,,,,,1,0,,,N,,0,0,0,N,41.3892169,-71.49392489,,0,Knowlesway Extension,,1000,MUN,,0,0,0,,0,0,Y,,Knowlesway,0,,0,Narragansett,0,0,LP,0,0,1000
,,,0,,0,0,0,0,0,,,,,,,,1,0,,,N,,0,0,0,N,41.69394837,-71.45180621,,0,Arnolds Neck Park,,1001,MUN,,1,0,0,,0,0,Y,,Hallworth,0,,0,Warwick,0,0,LP,0,0,1001
,,,0,,0,0,0,0,0,,,,,,,,0,0,,,N,,0,0,0,N,41.78223708,-71.40759351,,0,Roger Williams Park Horticultural Center,,1002,MUN,,0,0,1,,0,0,Y,,Floral,0,,0,Providence,0,0,LP,0,1,1002
,,,1,,0,0,0,0,0,,,,,,,,0,0,,,N,,0,0,0,N,41.80236084,-71.40447728,,0,Meeting Street Field,,1003,MUN,,0,0,0,,0,1,Y,,Haswell,0,,0,Providence,0,0,AF,0,0,1003
,,,1,,0,0,0,1,1,,,,,,,,1,0,,,N,,1,0,0,N,41.99388412,-71.49347343,,0,Woonsocket Municipal Soccer Complex,,1005,MUN,,1,0,1,,0,4,Y,,Davison,0,,0,Woonsocket,0,0,AF,0,1,1005
,,,1,,8,0,0,0,0,,,,,,,,0,0,,,N,,0,0,0,N,41.86777012,-71.35271312,,0,Thomas Duffy Athletic Complex,,1006,MUN,,0,0,1,,0,0,Y,,Newport,0,,0,Pawtucket,0,0,AF,0,0,1006
,,,1,,0,1,0,0,0,,,,,,,,0,0,,,N,,0,0,0,N,41.71998813,-71.2654819,,0,Homestead Playground,,1007,MUN,,1,0,0,,0,0,Y,,Homestead,0,,0,Warren,0,0,LP,0,0,1007
,,,0,,0,0,0,0,0,,,,,,,,0,0,,,N,,0,0,0,N,41.73987804,-71.30757584,,0,Civic Center Historic Park,,1008,MUN,,0,0,0,,0,0,Y,,County,0,,0,Barrington,0,0,LP,0,0,1008
,,,0,,0,0,0,0,0,,,,,,,,0,0,,,N,,0,0,0,N,41.83044779,-71.46801657,,0,Hedley Ave Tot Lot,,1009,MUN,,1,0,0,,0,0,Y,,Hedley Ave,0,,0,Johnston,0,0,LP,0,0,1009
,,,1,,0,0,0,0,0,,,,,,,,0,0,,,N,,0,0,0,N,41.83439308,-71.50270237,,0,Johnston Community Park,,1010,MUN,,0,0,0,,0,2,Y,,Atwood,0,,0,Johnston,0,0,AF,0,0,1010