ADA,About_Links,Acres_Miles,Active Rec,Additional_Names,Ball Field,Basketball Court,Beach,Bike Path,Boating,ConsJuri,ConsType,Contact_Info,Contact_Info_Seasonal,Description,Dogs_Allowed,Fishing,Football Field,GoRI_Incude_Suggestion,GoRI_TestFlag,GoRI_subset,Golf,Hunting,Ice Hockey Rink,LWCFGrant,Lat,Lon,Map_Links,Multi-use Field,Name,NoGoRI_Incude_Why,OBJECTID,OwnerTyp,Picnic_Area,Playground,Pool,RestRoom,Short_Description,Skate Park,Soccer Field,StateGrant,Steward,Street,Street_Type,Street Hockey Rink,Stroller_Friendly,Tennis,Town,Track,Trails,Type,Volleyball Court,Walking Path,KeyID
,,,0,,0,0,1,0,0,,,,,,,0,0,,,Y,0,0,0,N,41.91343805,-71.65384876,,0,Spring Grove Beach,,3,MUN,,0,0,0,Spring Grove Beach is a Local Park located in Glocester,0,0,N,,Spring Grove,Road,0,,0,Glocester,0,0,Local Park,0,0,3
,,,1,,2,0,0,0,0,,,,,,,0,0,,,Y,0,0,0,Y,41.91061853,-71.46989147,,0,Lime Acres,,4,MUN,,0,0,0,Lime Acres is a Local Park located in Lincoln,0,0,Y,,Jenckes Hill,Road,0,,3,Lincoln,0,0,Local Park,0,0,4
,,,1,,9,0,0,0,0,,,,,,,1,0,,,Y,0,0,0,Y,41.86992267,-71.34632972,,1,Slater Park,,23,MUN,,0,0,1,Slater Park is a Local Park located in Pawtucket,0,0,Y,,Armistice,Boulevard,0,,10,Pawtucket,0,0,Local Park,0,0,23
,,,1,,0,0,0,0,0,,,,,,,1,1,,,Y,0,0,0,Y,41.86435228,-71.38112414,,2,Max Read Field,,28,MUN,,0,0,0,Max Read Field is a Local Park located in Pawtucket,0,2,Y,,Pleasant,Street,0,,0,Pawtucket,1,0,Local Park,0,0,28
,,,0,,0,0,0,0,0,,,,,,,0,0,,,Y,0,0,0,Y,41.85210415,-71.38779002,,0,Blackstone Blvd. Park,,33,MUN,,0,0,0,Blackstone Blvd. Park is a Local Park located in Providence,0,0,N,,Blackstone,Boulevard,0,,0,Providence,0,0,Local Park,0,1,33
,,,1,,4,1,0,0,0,,,,,,,0,0,,,Y,0,0,0,Y,41.85542754,-71.45349281,,1,Stephen Olney Park,,34,MUN,,2,0,0,Stephen Olney Park is a Local Park located in North Providence,1,0,Y,,Smithfield,Road,0,,4,North Providence,0,0,Local Park,0,1,34
,,,1,,4,0,0,0,0,,,,,,,0,0,,,Y,0,0,0,N,41.84853354,-71.34647216,,0,Kimberly Ann Rock Memorial Athletic Complex,,38,MUN,,0,0,1,Kimberly Ann Rock Memorial Athletic Complex is a Athletic Field located in East Providence,0,0,N,,Ferris,Avenue,0,,0,East Providence,0,0,Athletic Field,0,0,38
,,,0,,0,0,0,0,0,,,,,,,0,0,,,Y,0,0,0,Y,41.83378567,-71.37948814,,0,Blackstone Park / Patterson Park,,44,MUN,,0,0,0,Blackstone Park / Patterson Park is a Local Park located in Providence,0,0,N,,Parkside,Road,0,,0,Providence,0,1,Local Park,0,0,44
,,,1,,0,0,0,0,0,,,,,,,0,0,,,Y,0,0,0,N,41.83789995,-71.42711446,,0,Father Lennon Park,,45,MUN,,1,1,0,Father Lennon Park is a School located in Providence,0,0,N,,Camden,Avenue,0,,0,Providence,0,0,School,0,0,45
,,,1,,0,0,0,0,0,,,,,,,0,0,,,Y,0,0,0,N,41.82256999,-71.43073097,,0,Angelo Zuccolo Pool,,56,MUN,,0,1,1,Angelo Zuccolo Pool is a Local Park located in Providence,0,0,N,,Knight,Street,0,,0,Providence,0,0,Local Park,0,0,56
,,,1,Valley Street Field,1,1,0,0,0,,,,,,,0,0,,,Y,0,0,0,Y,41.82326371,-71.44082556,,1,John Donigian Memorial Park,,57,MUN,,1,0,0,John Donigian Memorial Park is a Local Park located in Providence,0,0,N,,Valley,Street,0,,0,Providence,0,0,Local Park,0,1,57
,,,1,,0,0,0,0,0,,,,,,,1,0,,,Y,0,0,0,Y,41.81784486,-71.39236738,,1,India Point Park,,62,MUN,,1,0,0,India Point Park is a Local Park located in Providence,0,1,Y,,India,Street,0,,0,Providence,0,0,Local Park,0,0,62
,,,1,,4,0,0,0,0,,,,,,,0,0,,,Y,0,0,0,Y,41.78294441,-71.41229964,,2,Roger Williams Park,,71,MUN,,1,0,1,Roger Williams Park is a Local Park located in Providence,0,0,Y,,Elmwood,Avenue,0,,10,Providence,0,1,Local Park,0,1,71
,,,1,,2,1,1,0,0,,,,,,,0,0,,,Y,0,0,0,Y,41.77517449,-71.40733039,,0,Beachmont / Hayes Field,,86,MUN,,1,0,0,Beachmont / Hayes Field is a Local Park located in Cranston,0,0,N,,Calvin,Avenue,0,,2,Cranston,0,0,Local Park,0,0,86
,,,0,,0,0,0,0,0,,,,,,,1,0,,,Y,0,0,0,N,41.77013939,-71.38991687,,0,Stillhouse Cove,,87,STA,,0,0,0,Stillhouse Cove is a Local Park located in Cranston,0,0,N,,Narragansett,Boulevard,0,,0,Cranston,0,0,Local Park,0,0,87
,,,1,Budlong Pool,4,2,0,0,0,,,,,,,0,0,,,Y,0,0,0,N,41.77069353,-71.44475406,,0,Aqueduct Field,,88,MUN,,0,1,0,Aqueduct Field is a Local Park located in Cranston,0,0,N,,Aqueduct,Street,0,,0,Cranston,0,0,Local Park,0,0,88
,,,1,,0,0,0,0,0,,,,,,,1,0,,,Y,0,0,0,N,41.77035999,-71.32296077,,0,Osamequin Nature Trail,,89,MUN,,0,0,0,Osamequin Nature Trail is a Local Park located in Barrington,0,0,N,,Wampanoag,Trail,0,,0,Barrington,0,1,Local Park,0,0,89
,,,1,,0,1,0,0,1,,,,,,,1,0,,,Y,0,0,0,Y,41.76564025,-71.36795302,,1,Sabin Point Park,,91,MUN,,1,0,0,Sabin Point Park is a Local Park located in East Providence,0,0,Y,,Shore,Road,0,,0,East Providence,0,0,Local Park,0,0,91
,,,1,,0,0,0,0,1,,,,,,,1,0,,,Y,0,0,0,Y,41.75707894,-71.35919226,,0,Crescent Park / Loof Carousel,,97,MUN,,0,0,1,Crescent Park / Loof Carousel is a Local Park located in East Providence,0,0,N,,Bullocks Point,Avenue,0,,0,East Providence,0,0,Local Park,0,0,97
,,,1,,5,0,0,0,0,,,,,,,0,0,,,Y,0,0,0,Y,41.75207533,-71.51155515,,5,Briggs Farm,,99,MUN,,0,0,1,Briggs Farm is a Athletic Field located in Cranston,0,5,Y,,Hope,Road,0,,2,Cranston,0,1,Athletic Field,0,0,99
,,,1,,0,0,0,0,0,,,,,,,1,0,,,Y,0,0,0,N,41.74580144,-71.35212189,,0,Latham Ave. Park,,100,MUN,,1,0,0,Latham Ave. Park is a Local Park located in Barrington,0,0,Y,,Latham ,Avenue,0,,0,Barrington,0,0,Local Park,0,0,100
,,,1,,3,2,0,0,0,,,,,,,0,0,,,Y,0,0,1,Y,41.70995384,-71.41457582,,0,Mickey Stevens Sports Center,,107,MUN,,0,1,1,Mickey Stevens Sports Center is a Local Park located in Warwick,1,0,N,,Sandy,Lane,0,,8,Warwick,0,0,Local Park,0,0,107
,,,0,,0,0,1,0,0,,,,,,,0,0,,,Y,0,0,0,N,41.70495199,-71.40768156,,0,Little Pond Beach,,109,SCH,,0,0,0,Little Pond Beach is a Local Park located in Warwick,0,0,N,,Albert,Road,0,,0,Warwick,0,0,Local Park,0,0,109
,,,1,,0,0,0,0,1,,,,,,,1,0,,,Y,0,0,0,Y,41.70461966,-71.55418808,,0,Upper Dam Pond,,110,MUN,,0,0,0,Upper Dam Pond is a Local Park located in Coventry,0,0,N,,White Rock,Road,0,,0,Coventry,0,0,Local Park,0,0,110
,,,0,,0,0,1,0,0,,,,,,,0,0,,,Y,0,0,0,Y,41.67430178,-71.54967928,,0,Briar Point Beach Area,,120,MUN,,1,0,1,Briar Point Beach Area is a Local Park located in Coventry,0,0,Y,,Briar Point,Avenue,0,,0,Coventry,0,0,Local Park,0,0,120
,,,1,,0,0,0,1,1,,,,,,,1,0,,,Y,0,0,0,N,41.67378512,-71.27948701,,0,Independence Park,,121,MUN,,0,0,1,Independence Park is a Local Park located in Bristol,0,0,Y,,Thames,Street,0,,0,Bristol,0,0,Local Park,0,1,121
,,,1,,3,2,0,0,1,,,,,,,1,0,,,Y,0,0,0,Y,41.57463658,-71.45923147,,10,Wilson Park,,127,MUN,,1,0,1,Wilson Park is a Local Park located in North Kingstown,0,10,Y,,Roosevelt,Avenue,0,,2,North Kingstown,0,0,Local Park,0,0,127
,,,0,,0,0,0,0,0,,,,,,,1,0,,,Y,0,0,0,N,41.49683146,-71.32163792,,0,Battery Park / Fort Greene,,140,MUN,,0,0,0,Battery Park / Fort Greene is a Local Park located in Newport,0,0,N,,Washington,Street,0,,0,Newport,0,0,Local Park,0,0,140
,,,1,,0,0,1,0,1,,,,,,,1,0,,,Y,0,0,0,N,41.48653722,-71.24563061,,0,Third Beach,,152,MUN,,0,0,0,Third Beach is a Local Park located in Middletown,0,0,N,,Third Beach,Road,0,,0,Middletown,0,0,Local Park,0,0,152
,,,1,,0,0,0,0,1,,,,,,,1,0,,,Y,0,0,0,Y,41.45636193,-71.51092917,,0,Tri-Pond Park,,160,MUN,,0,0,0,Tri-Pond Park is a Local Park located in South Kingstown,0,0,N,,Asa Pond,,0,,0,South Kingstown,0,1,Local Park,0,0,160
,,,1,,2,1,0,0,0,,,,,,,0,0,,,Y,0,0,0,Y,41.42675869,-71.55684564,,1,Tuckertown Recreation Area,,163,MUN,,1,0,1,Tuckertown Recreation Area is a Local Park located in South Kingstown,0,4,N,,Tuckertown Park,Drive,0,,2,South Kingstown,0,1,Local Park,0,0,163
,,,0,,0,0,0,0,0,,,,,,,0,0,,,Y,0,0,0,N,41.3786039,-71.82813437,,1,Wilcox Park,,168,MUN,,0,0,1,Wilcox Park is a Local Park located in Westerly,0,0,Y,,High,Street,0,,0,Westerly,0,0,Local Park,0,1,168
,,,1,,1,1,0,0,0,,,,,,,1,0,,,Y,0,0,0,Y,41.37002108,-71.66593747,,2,Ninigret Park,,169,MUN,,1,1,1,Ninigret Park is a Local Park located in Charlestown,0,1,Y,,Park,,0,,4,Charlestown,0,0,Local Park,0,0,169
,,,1,,0,0,0,0,0,,,,,,,0,0,,,Y,0,0,0,N,41.69506959,-71.57399033,,0,Coventry Greenway And Bike Path,,172,MUN,,0,0,0,Coventry Greenway And Bike Path is a Local Park located in Coventry,0,0,N,,Main,,0,,0,Coventry,0,0,Local Park,0,0,172
,,,0,,0,0,1,0,0,,,,,,,0,0,,,Y,0,0,0,Y,41.37555167,-71.55058944,,0,South Kingstown Town Beach,,174,MUN,,0,0,1,South Kingstown Town Beach is a Local Park located in South Kingstown,0,0,Y,,Matunuck Beach,Road,0,,0,South Kingstown,0,0,Local Park,0,0,174
,,,0,,1,0,0,0,0,,,,,,,0,1,,,Y,0,0,0,N,41.72505231,-71.26117284,,1,Britto's Park,,177,MUN,,0,0,0,Britto's Park is a Local Park located in Warren,0,1,N,,Unnamed,,0,,0,Warren,0,0,Local Park,0,0,177
,,,1,,1,0,0,0,0,,,,,,,0,0,,,Y,0,0,0,N,41.72736375,-71.25711183,,0,Cole Avenue Field,,178,MUN,,0,0,1,Cole Avenue Field is a Local Park located in Warren,0,1,N,,Hugh Cole,Road,0,,0,Warren,1,0,Local Park,0,0,178
,,,1,,5,0,0,0,0,,,,,,,0,0,,,Y,0,0,0,Y,41.88639259,-71.34528756,,1,Doreen Tomlinson Complex,,194,STA,,0,0,1,Doreen Tomlinson Complex is a Athletic Field located in Pawtucket,0,1,N,,Daggett,Avenue,0,,0,Pawtucket,0,0,Athletic Field,0,0,194
,,,0,,0,0,0,0,0,,,,,,,1,0,,,Y,0,0,0,N,41.82976755,-71.34344604,,0,Turner Reservoir,,195,MUN,,0,0,0,Turner Reservoir is a Local Park located in East Providence,0,0,N,,Pleasant,Street,0,,0,East Providence,0,1,Local Park,0,0,195
,,,1,,1,0,0,0,1,,,,,,,1,0,,,Y,0,0,0,N,41.73586873,-71.31315699,,0,Veterans Memorial Park,,199,MUN,,0,0,0,Veterans Memorial Park is a Local Park located in Barrington,0,0,N,,Park,Road,0,,0,Barrington,0,1,Local Park,0,0,199
,,,1,,1,2,0,0,0,,,,,,,0,1,,,Y,0,0,0,Y,41.88519239,-71.40245514,,1,Higginson Avenue Sports Complex,,200,MUN,,0,0,1,Higginson Avenue Sports Complex is a Local Park located in Central Falls,0,1,Y,,Crow Point,Road,0,,0,Central Falls,1,0,Local Park,0,0,200
,,,1,,4,2,0,1,0,,,,,,,0,0,,,Y,0,0,0,Y,41.69276337,-71.56969147,,0,Herbert F. Paine Memorial Park,,202,MUN,,1,0,0,Herbert F. Paine Memorial Park is a Local Park located in Coventry,1,0,Y,,Main,Street,0,,4,Coventry,0,0,Local Park,0,1,202
,,,1,,4,0,0,0,0,,,,,,,0,0,,,Y,0,0,0,N,41.74681344,-71.47229938,,0,Brayton Ave. Field,,204,MUN,,1,0,1,Brayton Ave. Field is a Local Park located in Cranston,0,0,N,,Brayton,Avenue,0,,0,Cranston,0,0,Local Park,0,1,204
,,,1,,3,1,0,0,0,,,,,,,0,0,,,Y,0,0,0,N,41.77221325,-71.41453689,,1,Park View Field,,205,MUN,,1,0,1,Park View Field is a Local Park located in Cranston,0,0,Y,,Park View,Boulevard,0,,4,Cranston,0,0,Local Park,0,1,205
,,,1,,4,2,0,0,0,,,,,,,0,0,,,Y,0,0,0,N,41.81060238,-71.38240482,,1,Pierce Field Athletic Complex,,210,MUN,,1,0,1,Pierce Field Athletic Complex is a Athletic Field located in East Providence,0,0,Y,,Mercer,Street,0,,2,East Providence,1,0,Athletic Field,0,0,210
,,,1,,2,0,0,0,1,,,,,,,1,0,,,Y,0,0,0,N,41.47654996,-71.31980592,,0,King Park,,216,MUN,,1,0,1,King Park is a Local Park located in Newport,0,0,Y,,Wellington,Avenue,0,,0,Newport,0,0,Local Park,0,0,216
,,,1,,3,1,0,0,0,,,,,,,0,0,,,Y,0,0,0,Y,41.86743701,-71.4102577,,1,Fairlawn Veterans' Park,,219,MUN,,1,1,1,Fairlawn Veterans' Park is a Local Park located in Pawtucket,0,1,Y,,Legion,Drive,0,,4,Pawtucket,0,0,Local Park,0,0,219
,,,0,,1,1,0,0,0,,,,,,,0,0,,,Y,0,0,0,N,41.82117529,-71.44671035,,0,Joslin Playground,,224,MUN,,1,1,0,Joslin Playground is a Local Park located in Providence,0,0,N,,Florence,Street,0,,0,Providence,0,0,Local Park,0,0,224
,,,1,,2,1,0,0,0,,,,,,,0,0,,,Y,0,0,0,Y,41.8141905,-71.46331751,,0,Neutaconkanut Park,,226,MUN,,1,1,0,Neutaconkanut Park is a Local Park located in Providence,1,0,Y,,Killingly,Street,0,,0,Providence,0,1,Local Park,0,0,226
,,,1,,2,0,0,0,0,,,,,,,1,0,,,Y,0,0,0,N,41.44620996,-71.48843399,,0,Old Mountain Field,,227,MUN,,1,0,0,Old Mountain Field is a Local Park located in South Kingstown,1,0,Y,,Kingstown,Road,1,,4,South Kingstown,0,1,Local Park,0,0,227
,,,1,,3,0,0,0,0,,,,,,,0,0,,,Y,0,0,0,N,41.58292839,-71.19211558,,2,Town Farm Recreation Area,,229,MUN,,1,0,0,Town Farm Recreation Area is a Local Park located in Tiverton,0,1,Y,,Main,Road,0,,4,Tiverton,0,0,Local Park,0,1,229
,,,1,,1,1,1,0,1,,,,,,,1,0,,,Y,0,0,0,Y,41.68513423,-71.39643398,,1,Oakland Beach Park,,232,MUN,,1,0,1,Oakland Beach Park is a Local Park located in Warwick,0,0,Y,,Stender ,Boulevard,0,,0,Warwick,0,0,Local Park,0,0,232
,,,1,,4,2,0,1,0,,,,,,,0,0,,,Y,0,0,0,Y,41.6926006,-71.41248189,,0,City Park,,234,MUN,,1,0,1,City Park is a Local Park located in Warwick,0,2,Y,,Steven O'Connor,Boulevard,0,,0,Warwick,0,0,Local Park,0,1,234
,,,1,,3,0,0,0,0,,,,,,,0,0,,,Y,0,0,0,N,41.72627732,-71.4952641,,0,Natick Fields,,237,MUN,,0,0,0,Natick Fields is a Local Park located in West Warwick,0,0,N,,Crossland,Street,0,,1,West Warwick,0,0,Local Park,0,0,237
,,,1,,5,2,0,1,0,,,,,,,1,0,,,Y,0,0,0,Y,41.71751213,-71.51524934,,0,Riverpoint Park,,238,MUN,,20,0,1,Riverpoint Park is a Athletic Field located in West Warwick,0,3,Y,,Hay,Street,0,,0,West Warwick,0,0,Athletic Field,0,1,238
,,,1,,0,0,0,0,0,,,,,,,0,0,,,Y,0,1,0,N,41.98720971,-71.64867624,,0,Black Hut Management Area,,245,STA,,0,0,0,Black Hut Management Area is a Management Area located in Burrillville,0,0,N,,Spring Lake ,Road,0,,0,Burrillville,0,1,Management Area,0,0,245
,,,1,,0,2,0,0,0,,,,,,,0,0,,,Y,0,0,0,Y,41.77068351,-71.42990723,,1,Doric Ave / Osler Field,,248,MUN,,1,0,1,Doric Ave / Osler Field is a Local Park located in Cranston,0,1,Y,,Doric,Avenue ,0,,1,Cranston,0,0,Local Park,0,1,248
,,,1,,0,0,0,0,1,,,,,,,1,0,,,Y,0,0,0,N,42.01312872,-71.44660116,,0,Carl's Pond,,262,STA,,0,0,0,Carl's Pond is a Fishing & Boating Area located in Cumberland,0,0,N,,Jencks,Road,0,,0,Cumberland,0,0,Fishing & Boating Area,0,0,262
,,,0,,0,0,0,0,0,,,,,,,0,0,,,Y,0,0,0,Y,42.01398697,-71.54062787,,0,St Paul / Waterford Playground,,263,MUN,,1,0,0,St Paul / Waterford Playground is a Local Park located in North Smithfield,0,0,N,,Saint Paul,Street,0,,0,North Smithfield,0,0,Local Park,0,0,263
,,,0,,0,0,0,0,0,,,,,,,1,0,,,Y,0,1,0,N,41.99706348,-71.78728439,,0,Buck Hill Management Area,,264,STA,,0,0,0,Buck Hill Management Area is a Management Area located in Burrillville,0,0,N,,Starr,Road,0,,0,Burrillville,0,1,Management Area,0,0,264
,,,1,,0,1,0,0,0,,,,,,,0,0,,,Y,0,0,0,N,42.00706746,-71.49996486,,0,Kendrick Ave. Playlot,,265,MUN,,1,0,0,Kendrick Ave. Playlot is a Local Park located in Woonsocket,0,0,N,,Kendrick,Avenue,0,,0,Woonsocket,0,0,Local Park,0,0,265
,,,1,,2,1,0,0,0,,,,,,,1,0,,,Y,0,0,0,Y,42.00384364,-71.48963718,,3,Cass Park,,266,MUN,,1,0,0,Cass Park is a Local Park located in Woonsocket,0,3,Y,,Newland,Avenue,0,,5,Woonsocket,1,0,Local Park,0,1,266
,,,1,,2,0,0,0,0,,,,,,,0,0,,,Y,0,0,0,Y,41.99959722,-71.41804724,,2,Diamond Hill Park,,267,MUN,,0,0,0,Diamond Hill Park is a Local Park located in Cumberland,0,2,Y,,Diamond Hill,Road,0,,0,Cumberland,0,1,Local Park,0,0,267
,,,1,,3,0,0,0,0,,,,,,,0,1,,,Y,0,0,0,N,41.98605713,-71.51870073,,2,Barry Memorial Field,,277,MUN,,0,0,1,Barry Memorial Field is a Athletic Field located in Woonsocket,0,2,N,,Smithfield,Road,0,,0,Woonsocket,0,0,Athletic Field,0,0,277
,,,0,,0,0,0,0,0,,,,,,,0,0,,,Y,0,0,0,Y,41.93570732,-71.40973156,,0,Monastery,,289,MUN,,1,0,0,Monastery is a Local Park located in Cumberland,0,0,N,,Diamond Hill,Road,0,,0,Cumberland,0,1,Local Park,0,0,289
,,,1,,0,0,0,0,0,,,,,,,0,0,,,Y,0,0,0,N,41.91162597,-71.40835476,,0,Blackstone Bikeway,,290,STA,,0,0,0,Blackstone Bikeway is a State Park located in Lincoln,0,0,N,,Farnworth,,0,,0,Lincoln,0,0,State Park,0,1,290
,,,1,,0,0,0,0,0,,,,,,,1,0,,,Y,0,1,0,Y,41.94266103,-71.7685075,,0,George Washington Management Area,,291,STA,,0,0,0,George Washington Management Area is a Management Area located in Burrillville,0,0,N,,Richardson,,0,,0,Burrillville,0,1,Management Area,0,0,291
,,,0,,0,0,0,0,0,,,,,,,0,0,,,Y,0,0,0,Y,41.91281288,-71.53817926,,0,Washington Grove,,294,STA,,0,0,0,Washington Grove is a State Park located in Smithfield,0,0,N,,Washington,Highway,0,,0,Smithfield,0,0,State Park,0,0,294
,,,0,,0,0,0,0,0,,,,,,,1,0,,,Y,0,0,0,Y,41.90761051,-71.54101704,,0,Woonasquatucket Reservoir,,296,STA,,0,0,0,Woonasquatucket Reservoir is a Fishing & Boating Area located in Smithfield,0,0,N,,Farnum Pike,Pike,0,,0,Smithfield,0,0,Fishing & Boating Area,0,0,296
,,,0,,0,0,0,0,0,,,,,,,0,0,,,Y,0,1,0,Y,41.90439763,-71.74745167,,0,Durfee Hill Management Area,,298,STA,,0,0,0,Durfee Hill Management Area is a Management Area located in Glocester,0,0,N,,Durfee Hill ,Road,0,,0,Glocester,0,1,Management Area,0,0,298
,,,0,,0,0,0,0,0,,,,,,,0,0,,,Y,0,0,0,Y,41.90922216,-71.42516672,,0,Chase Farm Conservation Area,,299,MUN,,0,0,0,Chase Farm Conservation Area is a Conservation Area located in Lincoln,0,0,Y,,Hollywood,Lane,0,,0,Lincoln,0,1,Conservation Area,0,1,299
,,,1,,0,0,1,0,1,,,,,,,1,0,,,Y,0,0,0,N,41.89053593,-71.50851584,,0,Georgiaville Beach,,304,MUN,,0,0,1,Georgiaville Beach is a Local Park located in Smithfield,0,0,N,,Stillwater,Road,0,,0,Smithfield,0,0,Local Park,0,0,304
Yes,http://www.riparks.com/Locations/LocationLincolnWoods.html,627 acres,1,Lincoln Woods State Park,1,0,0,0,1,,,(401) 723-7892,,"This 627-acre park is located just outside of Providence. It includes all of Olney Pond and offers facilities used by thousand of visitors each year for picnicking, boating, baseball, freshwater, swimming, fishing, horseback riding and hiking. It is also very popular for jogging and walking. During the winter months it is popular for ice fishing, ice skating and snowmobiling.",Yes,1,0,,,Y,0,0,0,Y,41.89726179,-71.43139699,,1,Lincoln Woods,,306,STA,Yes,0,0,1,Lincoln Woods is a State Park located in Lincoln,0,0,N,,Lincoln Woods,Road,0,Yes,0,Lincoln,0,1,State Park,0,1,306
,,,0,,0,0,1,0,0,,,,,,,0,0,,,Y,0,0,0,N,41.87961516,-71.62581788,,0,Marion Irons Beach,,312,MUN,,0,0,0,Marion Irons Beach is a Local Park located in Glocester,0,0,N,,Snake Hill,Road,0,,0,Glocester,0,0,Local Park,0,0,312
,,,0,,0,0,1,0,0,,,,,,,1,0,,,Y,0,0,0,N,41.86526486,-71.55183922,,0,Greenlake Beach,,322,MUN,,0,0,1,Greenlake Beach is a Local Park located in Smithfield,0,0,N,,Green Lake ,Drive,0,,0,Smithfield,0,0,Local Park,0,0,322
,,,1,,2,1,0,0,0,,,,,,,1,0,,,Y,0,0,0,N,41.86300335,-71.3764615,,1,McCarthy Park,,323,MUN,,1,0,0,McCarthy Park is a Local Park located in Pawtucket,0,1,Y,,School,Street,1,,3,Pawtucket,0,0,Local Park,0,0,323
,,,0,,0,0,0,0,0,,,,,,,0,0,,,Y,0,1,0,Y,41.84130031,-71.5320006,,0,Snake Den State Park,,327,STA,,0,0,0,Snake Den State Park is a Conservation Area located in Johnston,0,0,N,,Hartford,Ave,0,,0,Johnston,0,1,Conservation Area,0,0,327
,,,0,,0,0,0,0,0,,,,,,,0,0,,,Y,0,0,0,Y,41.85471096,-71.39145097,,0,Lippitt Park,,328,MUN,,1,0,0,Lippitt Park is a Local Park located in Providence,0,0,N,,Hope,Street,0,,0,Providence,0,0,Local Park,0,1,328
,,,1,,1,0,0,0,0,,,,,,,0,0,,,Y,0,0,0,N,41.85135922,-71.43286975,,1,Iola French Park,,333,MUN,,0,0,0,Iola French Park is a Local Park located in Providence,0,0,N,,Stansbury,Street,0,,0,Providence,0,0,Local Park,0,1,333
,,,1,,0,0,0,0,0,,,,,,,0,0,,,Y,0,0,0,N,41.84820321,-71.47159759,,3,Ricci School Athletic Complex,,334,MUN,,0,0,0,Ricci School Athletic Complex is a Athletic Field located in North Providence,0,3,N,,Intervale,,0,,4,North Providence,1,0,Athletic Field,0,0,334
,,,1,,1,1,0,0,0,,,,,,,0,1,,,Y,0,0,0,N,41.83821984,-71.45356928,,2,Mount Pleasant H. S. Fields,,340,SCH,,0,0,0,Mount Pleasant H. S. Fields is a School located in Providence,0,2,Y,,Mount Pleasant,Avenue,0,,2,Providence,1,0,School,0,0,340
,,,1,,0,0,0,0,0,,,,,,,0,1,,,Y,0,0,0,N,41.83301314,-71.50100627,,2,Johnston Sr High School,,345,SCH,,0,0,0,Johnston Sr High School is a School located in Johnston,0,1,N,,Cherry Hill,Road,0,,0,Johnston,1,0,School,0,0,345
,,,1,,0,0,0,0,1,,,,,,,1,0,,,Y,0,0,0,N,41.83379245,-71.75236647,,0,Shippee Sawmill Pond,,348,STA,,0,0,0,Shippee Sawmill Pond is a Fishing & Boating Area located in Foster,0,0,N,,Willoughby Young,Road,0,,0,Foster,0,0,Fishing & Boating Area,0,0,348
,,,1,,1,0,0,0,0,,,,,,,1,0,,,Y,0,0,0,N,41.82929879,-71.60489262,,1,Dean Andrews Memorial Field,,352,STA,,1,0,0,Dean Andrews Memorial Field is a Local Park located in Scituate,0,0,N,,Battey Meetinghouse,Road,0,,0,Scituate,0,0,Local Park,0,0,352
,,,0,,0,0,0,0,0,,,,,,,0,0,,,Y,0,0,0,N,41.83000824,-71.41054609,,0,Roger Williams National Park,,355,FED,,0,0,0,Roger Williams National Park is a Local Park located in Providence,0,0,N,,Main,,0,,0,Providence,0,0,Local Park,0,1,355
,,,1,,0,0,0,0,0,,,,,,,0,1,,,Y,0,0,0,N,41.82462196,-71.61897724,,1,Scituate Jr.-Sr. High School,,356,SCH,,0,0,0,Scituate Jr.-Sr. High School is a School located in Scituate,0,1,N,,Rockland,Road,0,,4,Scituate,1,0,School,0,0,356
,,,1,,1,0,0,0,0,,,,,,,0,1,,,Y,0,0,0,N,41.81696043,-71.41934975,,1,Central / Classical  High Schools,,363,SCH,,0,0,0,Central / Classical  High Schools is a School located in Providence,0,1,N,,Broad,Street,0,,0,Providence,0,0,School,0,0,363
,,,1,,0,0,0,0,1,,,,,,,1,0,,,Y,0,0,0,Y,41.815222,-71.39097296,,0,Bold Point Park,,368,MUN,,0,0,0,Bold Point Park is a Local Park located in East Providence,0,0,Y,,Pier,Road,0,,0,East Providence,0,0,Local Park,0,0,368
,,,1,,0,1,0,0,0,,,,,,,0,0,,,Y,0,0,0,N,41.81035173,-71.41596265,,0,Davey Lopes Park,,371,MUN,,1,1,0,Davey Lopes Park is a Local Park located in Providence,0,0,N,,Prairie,Avenue,0,,1,Providence,0,0,Local Park,0,0,371
,,,1,,1,2,0,0,0,,,,,,,0,0,,,Y,0,0,0,N,41.8051943,-71.42864702,,1,Bucklin St. Park / McCrane Pool,,379,MUN,,1,1,0,Bucklin St. Park / McCrane Pool is a Local Park located in Providence,0,1,N,,Bucklin,Street,0,,0,Providence,0,0,Local Park,0,0,379
,,,0,,0,0,0,0,0,,,,,,,1,0,,,Y,0,0,0,N,41.7945202,-71.36986782,,0,Squantum Woods Grove,,386,MUN,,0,0,0,Squantum Woods Grove is a Local Park located in East Providence,0,0,N,,Veterans Memorial,Parkway,0,,0,East Providence,0,1,Local Park,0,0,386
,,,1,,3,0,0,0,1,,,,,,,1,0,,,Y,0,0,0,Y,41.79338767,-71.43684644,,0,JT Owens Park,,387,STA,,1,0,0,JT Owens Park is a Local Park located in Providence,0,0,N,,Niantic,Avenue,0,,2,Providence,0,0,Local Park,0,0,387
,,,1,,3,0,0,0,0,,,,,,,0,0,,,Y,0,0,0,N,41.770825,-71.4003067,,0,Fay Memorial Field,,392,STA,,0,0,0,Fay Memorial Field is a Local Park located in Cranston,0,0,N,,Dallas,Avenue,0,,0,Cranston,0,0,Local Park,0,0,392
Yes,,31 acres,0,,0,0,0,0,0,,,(401) 667-6200,,"Although State owned, Meshanticut is really more of a neighborhood park.  However it is situated along the Washington Secondary Bikeway and a great place to take a break or enjoy a picnic.",Yes,1,0,,,Y,0,0,0,N,41.76870451,-71.47604276,,0,Meshanticut Park,,393,STA,Yes,0,0,0,Meshanticut Park is a State Park located in Cranston,0,0,N,,Lakeview,Road,0,Yes,0,Cranston,0,0,State Park,0,0,393
,,,1,,0,0,0,0,1,,,,,,,1,0,,,Y,0,0,0,Y,41.75303517,-71.32167619,,0,Walker Farm,,397,MUN,,0,0,0,Walker Farm is a Fishing & Boating Area located in Barrington,0,0,N,,County,Road,0,,0,Barrington,0,0,Fishing & Boating Area,0,0,397
,,,1,,0,1,0,0,0,,,,,,,0,0,,,Y,0,0,0,Y,41.75852018,-71.39780118,,0,Adams Playground,,400,MUN,,1,0,0,Adams Playground is a Local Park located in Warwick,0,0,N,,Washington ,Street,0,,0,Warwick,0,0,Local Park,0,1,400
Yes,http://www.riparks.com/Locations/LocationHaines.html,102 acres,1,Haines Memorial State Park,3,0,0,0,1,,,(401) 253-7482,,"Overlooking the water of Narragansett Bay. Intersected by East Bay Bike Path. 33 picnic sites each with a fireplace. Two baseball fields, and a dog walking area called Paws path. (The Eastern portion of this, including ball fields and dog path, is operated by the town of Barrington)",Yes,1,0,,,Y,0,0,0,Y,41.75232442,-71.34613697,,1,Haines Park,,404,STA,Yes,0,0,1,Haines Park is a State Park located in Barrington,0,1,N,,Haines Park,Road,0,No,0,Barrington,0,0,State Park,0,0,404
,,,1,,0,0,0,0,1,,,,,,,1,0,,,Y,0,0,0,N,41.75286131,-71.38346168,,0,Salter Grove,,405,STA,,1,0,0,Salter Grove is a Local Park located in Warwick,0,0,N,,Narragansett,Parkway,0,,0,Warwick,0,0,Local Park,0,0,405
,,,0,,0,0,0,0,0,,,,,,,0,0,,,Y,0,0,0,N,41.74818174,-71.29998844,,0,Hampdem Meadows Greenbelt,,407,MUN,,0,0,0,Hampdem Meadows Greenbelt is a Conservation Area located in Barrington,0,0,Y,,Lafayette,Court,0,,0,Barrington,0,1,Conservation Area,0,0,407
,,,1,,1,0,0,0,0,,,,,,,0,0,,,Y,0,0,0,N,41.73250523,-71.71844719,,1,Woody Lowden Recreation Center,,416,MUN,,1,0,0,Woody Lowden Recreation Center is a Athletic Field located in Foster,0,1,Y,,Howard Hill,Road,0,,0,Foster,0,0,Athletic Field,0,1,416
,,,0,,0,0,1,0,0,,,,,,,0,0,,,Y,0,0,0,N,41.72286827,-71.31019269,,0,Barrington Town Beach,,425,MUN,,0,0,1,Barrington Town Beach is a Local Park located in Barrington,0,0,Y,,Bay,Road,0,,0,Barrington,0,0,Local Park,0,0,425
,,,0,,0,0,1,0,0,,,,,,,0,0,,,Y,0,0,0,N,41.72295818,-71.28495673,,0,Warren Town Beach,,426,MUN,,1,0,0,Warren Town Beach is a Local Park located in Warren,0,0,N,,Water,Street,0,,0,Warren,0,0,Local Park,0,0,426
,,,0,,0,0,1,0,0,,,,,,,0,0,,,Y,0,0,0,Y,41.71665252,-71.35973888,,0,Conimicut Pt. Beach,,429,MUN,,0,0,1,Conimicut Pt. Beach is a Local Park located in Warwick,0,0,Y,,Point,Avenue,0,,0,Warwick,0,0,Local Park,0,0,429
,,,0,,0,0,0,0,0,,,,,,,1,0,,,Y,0,1,0,N,41.69342239,-71.7727351,,0,Nicholas Farm,,438,STA,,0,0,0,Nicholas Farm is a Management Area located in Coventry,0,0,N,,Plainfield Pike,,0,,0,Coventry,0,1,Management Area,0,0,438
,,,0,,0,0,1,0,0,,,,,,,1,0,,,Y,0,0,0,Y,41.70325121,-71.45480306,,0,Gorton's Pond Beach,,441,MUN,,1,0,0,Gorton's Pond Beach is a Local Park located in Warwick,0,0,Y,,Post ,Road,0,,0,Warwick,0,0,Local Park,0,0,441
,,,1,,1,0,0,0,0,,,,,,,0,1,,,Y,0,0,0,N,41.68800767,-71.27165638,,2,Bristol Junior-Senior High Sch.,,451,SCH,,0,0,0,Bristol Junior-Senior High Sch. is a School located in Bristol,0,2,N,,Chestnut,Street,0,,6,Bristol,1,0,School,0,0,451
Yes,http://www.riparks.com/Locations/LocationColt.html,464 acres,1,,0,0,0,0,1,,,[401] 253-7482,,"Colt State Park is often referred to as the 'Gem' of the State Parks System. The entire western border of the park is an open panorama onto Narragansett Bay. Open year round, the park offers four miles of bicycle trails passing along the Bay and through 464 acres of groomed fruit trees, carefully nurtured flowering bushes, and manicured lawns. Rich in history, it proudly displays ten large playfields, a historical museum, six picnic groves containing 400+ picnic tables, and its popular open air Chapel-By-The-Sea.",Yes,1,0,,,Y,0,0,0,N,41.6770906,-71.29746634,,4,Colt State Park,,457,STA,Yes,0,0,1,Colt State Park is a State Park located in Bristol,0,0,N,,Asylum,Road,0,Yes,0,Bristol,0,0,State Park,0,1,457
,,,1,,0,0,0,0,0,,,,,,,0,0,,,Y,0,1,0,N,41.63472387,-71.60385252,,0,Big River Reservoir,,461,STA,,0,0,0,Big River Reservoir is a Management Area located in West Greenwich,0,0,N,,Burnt Sawmill,,0,,0,West Greenwich,0,1,Management Area,0,0,461
Yes,http://www.riparks.com/Locations/LocationGoddard.html,490 acres,1,Goddard Memorial State Park,0,0,0,0,1,,,(401) 884-0088,,"One of Rhode Island's most popular local parks, offering a 9 hole golf course, an equestrian show area, bridle trails, picnic tables, game fields and a new performing arts center for weddings, concerts, picnics and special events.",Yes,1,0,,,Y,1,0,0,Y,41.65924781,-71.43722388,,0,Goddard Park,,464,STA,Yes,0,0,1,Goddard Park is a State Park located in Warwick,0,0,N,,Ives,Road,0,Yes,0,Warwick,0,1,State Park,0,1,464
,,,0,,0,0,0,0,0,,,,,,,0,0,,,Y,0,1,0,N,41.65590721,-71.34316306,,0,North Prudence Island,,467,STA,,0,0,0,North Prudence Island is a Management Area located in Portsmouth,0,0,N,,Neck Farm,Road,0,,0,Portsmouth,0,1,Management Area,0,0,467
,,,0,,0,0,0,0,0,,,,,,,0,0,,,Y,0,1,0,N,41.65565899,-71.36003371,,0,Patience Island,,469,STA,,0,0,0,Patience Island is a Management Area located in Portsmouth,0,0,N,,Neck Farm,Road,0,,0,Portsmouth,0,1,Management Area,0,0,469
,,,1,,0,0,0,0,1,,,,,,,1,0,,,Y,0,0,0,Y,41.65670916,-71.44894529,,0,East Greenwich Town Boat Launch,,473,MUN,,0,0,0,East Greenwich Town Boat Launch is a Local Park located in East Greenwich,0,0,Y,,Crompton,Avenue,0,,0,East Greenwich,0,0,Local Park,0,0,473
,,,0,,0,0,0,0,0,,,,,,,0,0,,,Y,0,0,0,N,41.63571918,-71.24364399,,0,Boyds Marsh,,477,STA,,0,0,0,Boyds Marsh is a Management Area located in Portsmouth,0,0,N,,Bay View,Avenue,0,,0,Portsmouth,0,0,Management Area,0,0,477
,,,1,,0,0,1,0,1,,,,,,,1,0,,,Y,0,0,0,N,41.62541621,-71.21983186,,0,Teddy's Beach,,484,MUN,,0,0,0,Teddy's Beach is a Local Park located in Portsmouth,0,0,N,,Park,Avenue,0,,0,Portsmouth,0,0,Local Park,0,0,484
,,,1,,4,3,0,0,0,,,,,,,0,1,,,Y,0,0,0,N,41.6108262,-71.25101714,,4,Portsmouth High School,,489,SCH,,0,0,0,Portsmouth High School is a School located in Portsmouth,0,2,N,,Education,Lane,0,,8,Portsmouth,1,0,School,0,0,489
Yes,,,0,,0,0,0,0,0,,,,,A scenic overlook on West Main Road in Portsmouth with a view of Narragansett Bay's East Passage & Prudence Island.,Yes,0,0,,,Y,0,0,0,N,41.61138656,-71.26029934,,0,Lehigh Hill Grove,,490,STA,No,0,0,0,Lehigh Hill Grove is a State Park located in Portsmouth,0,0,N,,Main,Road,0,,0,Portsmouth,0,0,State Park,0,0,490
No,,5 acres,0,,0,0,0,0,0,,,(401) 667-6200,,A shady grove at the foot of the Mt Hope bridge in Portsmouth with a monument commemorating the participation African American soldiers in the 1st Rhode Island Regiment of the Continental Army.,Yes,0,0,,,Y,0,0,0,N,41.63357825,-71.25514099,,0,Black Regiment Memorial Park,not much of a destination,495,STA,Yes,0,0,0,Black Regiment Memorial Park is a State Park located in Portsmouth,0,0,N,,Musselbed Shoal,Road,0,No,0,Portsmouth,0,0,State Park,0,0,495
,,,0,,0,0,0,0,0,,,,,,,0,0,,,Y,0,0,0,N,41.6026252,-71.45646622,,0,Devil's Foot Rock,,496,STA,,0,0,0,Devil's Foot Rock is a Conservation Area located in North Kingstown,0,0,N,,Post,Road,0,,0,North Kingstown,0,0,Conservation Area,0,0,496
,,,0,,0,0,0,0,0,,,,,,,0,0,,,Y,0,1,0,Y,41.58792314,-71.32357555,,0,South Prudence Island,,497,STA,,0,0,0,South Prudence Island is a Management Area located in Portsmouth,0,0,N,,Pleasant,Avenue,0,,0,Portsmouth,0,1,Management Area,0,0,497
,,62 acres,0,,0,0,0,0,0,,,,,A Native American stone fortification set into massive glacial boulders.,,0,0,,,Y,0,0,0,N,41.59032929,-71.52201244,,0,Queen's Fort Historic Site,Overgrown trails and limited parking.  Archaelogical sensitivity ,500,STA,,0,0,0,Queen's Fort Historic Site is a State Park located in Exeter,0,0,N,,Lantern,Lane,0,,0,Exeter,0,0,State Park,0,0,500
,,,0,,0,0,0,0,0,,,,,,,0,0,,,Y,0,1,0,Y,41.58142007,-71.47315269,,0,Cocumscussoc Park,,501,STA,,0,0,0,Cocumscussoc Park is a Conservation Area located in North Kingstown,0,0,N,,Post,Road,0,,0,North Kingstown,0,1,Conservation Area,0,0,501
,,,1,,0,0,0,0,1,,,,,,,1,0,,,Y,0,0,0,N,41.58218504,-71.20941082,,0,Seapowet Marsh,,502,STA,,0,0,0,Seapowet Marsh is a Fishing & Boating Area located in Tiverton,0,0,N,,Seapowet,Avenue,0,,0,Tiverton,0,0,Fishing & Boating Area,0,0,502
,,,0,,0,0,0,0,0,,,,,,,1,0,,,Y,0,1,0,Y,41.57405751,-71.78637554,,0,Beach Pond State Park,,504,STA,,0,0,0,Beach Pond State Park is a Fishing & Boating Area located in Exeter,0,0,N,,Ten Rod,Road,0,,0,Exeter,0,1,Fishing & Boating Area,0,0,504
,,,1,,0,0,0,0,1,,,,,,,1,0,,,Y,0,0,0,N,41.57787738,-71.45280048,,0,North Kingstown Town Boat Launch,,505,MUN,,0,0,0,North Kingstown Town Boat Launch is a Local Park located in North Kingstown,0,0,N,,Flat Fish,Alley,0,,0,North Kingstown,0,0,Local Park,0,0,505
,,,0,,0,0,1,0,0,,,,,,,0,0,,,Y,0,0,0,N,41.56669276,-71.44397787,,0,North Kingstown Town Beach,,509,MUN,,1,0,1,North Kingstown Town Beach is a Local Park located in North Kingstown,0,0,N,,Beach,Street,0,,0,North Kingstown,0,0,Local Park,0,0,509
,,,1,,0,0,1,0,1,,,,,,,1,0,,,Y,0,0,0,N,41.55625372,-71.21317045,,0,Fogland Beach,,510,MUN,,0,0,1,Fogland Beach is a Local Park located in Tiverton,0,0,N,,Three Rod,Way,0,,0,Tiverton,0,0,Local Park,0,0,510
,,,1,,2,0,0,0,0,,,,,,,0,1,,,Y,0,0,0,N,41.55709243,-71.44660868,,3,North Kingstown High School,,512,SCH,,0,0,0,North Kingstown High School is a School located in North Kingstown,0,3,N,,Fairway,Drive,0,,6,North Kingstown,1,0,School,0,0,512
,,,2,,0,0,0,0,0,,,,,,,0,0,,,Y,0,1,0,N,41.58083531,-71.72419876,,0,Arcadia Management Area,,513,STA,,0,0,0,Arcadia Management Area is a Management Area located in Exeter,0,0,N,,Ten Rod,Road,0,,0,Exeter,0,1,Management Area,0,0,513
,,,0,,0,0,1,0,0,,,,,,,0,0,,,Y,0,0,0,Y,41.55332581,-71.23627473,,0,Sandy Point Beach,,515,MUN,,0,0,1,Sandy Point Beach is a Local Park located in Portsmouth,0,0,Y,,Sandy Point,Avenue,0,,0,Portsmouth,0,0,Local Park,0,0,515
No,http://www.riparks.com/Locations/LocationJohnHChafee.html,248 acres,0,John H. Chafee Nature Preserve,0,0,0,0,0,,,(401) 884-2010,,This is a popular destination for casual hikers and dog walkers.  From the parking area on Boston Neck Road a unpaved road leads to Narragansett Bay and several intersecting trails.  It's great seal watching spot in winter.,Yes,1,0,,,Y,0,0,0,N,41.54018644,-71.43125142,,0,John H Chafee Rome Point Preserve,,516,STA,No,0,0,0,John H Chafee Rome Point Preserve is a State Park located in North Kingstown,0,0,N,,Boston Neck,Road,0,No,0,North Kingstown,0,1,State Park,0,0,516
,,,0,,0,0,0,0,0,,,,,,,0,0,,,Y,0,0,0,N,41.54493826,-71.20302047,,0,May C. Donovan Marsh,,517,STA,,0,0,0,May C. Donovan Marsh is a Conservation Area located in Little Compton,0,0,N,,Francis,Lane,0,,0,Little Compton,0,0,Conservation Area,0,0,517
,,,1,,0,0,0,0,1,,,,,,,1,0,,,Y,0,0,0,N,41.54067467,-71.47031642,,0,Shady Lea,,520,STA,,0,0,0,Shady Lea is a Conservation Area located in North Kingstown,0,0,N,,Colonel Rodman,Hwy,0,,0,North Kingstown,0,0,Conservation Area,0,0,520
,,,1,,0,0,0,0,1,,,,,,,1,0,,,Y,0,0,0,N,41.53821344,-71.47007532,,0,Silver Spring Lake Fishing Area,,522,STA,,0,0,0,Silver Spring Lake Fishing Area is a Fishing & Boating Area located in North Kingstown,0,0,N,,Silver Spring,Road,0,,0,North Kingstown,0,0,Fishing & Boating Area,0,0,522
,,,0,,0,0,1,0,0,,,,,,,1,0,,,Y,0,0,0,N,41.53823655,-71.38578005,,0,Jamestown Shores Beach,,523,MUN,,0,0,0,Jamestown Shores Beach is a Local Park located in Jamestown,0,0,N,,Seaside,Drive,0,,0,Jamestown,0,0,Local Park,0,0,523
,,,0,,0,0,0,0,0,,,,,,,1,0,,,Y,0,1,0,N,41.50593813,-71.75704728,,0,Rockville Management,,527,STA,,0,0,0,Rockville Management is a Management Area located in Hopkinton,0,0,N,,Canonchet,Road,0,,0,Hopkinton,0,1,Management Area,0,0,527
,,,0,,0,0,0,0,0,,,,,,,1,0,,,Y,0,0,0,N,41.49841364,-71.32250821,,0,Van Zandt Pier,,535,MUN,,0,0,0,Van Zandt Pier is a Local Park located in Newport,0,0,Y,,Van Zandt,Street,0,,0,Newport,0,0,Local Park,0,0,535
Yes,,2 acres,0,The Tower,0,0,0,0,0,,,(401) 667-6200,,"This iconic landmark at the intersection of Routes 1 & 138 offers a sweeping view of Narragansett Bay and the Atlantic Ocean.  Built by the Civilian Conservation Corps in 1938, it was rebuilt in 1988 using the original timber framework.",No,0,0,,,Y,0,0,0,N,41.49504847,-71.45588557,,0,Hannah Robinson Tower,,540,STA,,0,0,0,Hannah Robinson Tower is a State Park located in South Kingstown,0,0,N,,Bridgetown,Road,0,No,0,South Kingstown,0,0,State Park,0,0,540
,,,0,,0,0,1,0,0,,,,,,,0,0,,,Y,0,0,0,N,41.49385842,-71.13778201,,0,Little Compton Town Beach,,541,MUN,,0,0,0,Little Compton Town Beach is a Local Park located in Little Compton,0,0,N,,Shore,Road,0,,0,Little Compton,0,0,Local Park,0,0,541
,,,0,,0,0,0,0,0,,,,,,,0,0,,,Y,0,0,0,N,41.48052468,-71.24299068,,0,Sachuest Pt. National Refuge,,545,FED,,0,0,0,Sachuest Pt. National Refuge is a Conservation Area located in Middletown,0,0,N,,Sachuest Point,Road,0,,0,Middletown,0,1,Conservation Area,0,1,545
,,,1,,0,0,0,0,0,,,,,,,0,0,,,Y,0,1,0,N,41.46908363,-71.68852297,,0,Carolina Management  Area,,546,STA,,0,0,0,Carolina Management  Area is a Management Area located in Richmond,0,0,N,,Meadowbrook,Trail,0,,0,Richmond,0,1,Management Area,0,0,546
,,,0,,0,0,1,0,0,,,,,,,0,0,,,Y,0,0,0,Y,41.48765177,-71.25745258,,0,Second Beach,,547,MUN,,0,0,1,Second Beach is a Local Park located in Middletown,0,0,N,,Sachuest Point,Road,0,,0,Middletown,0,0,Local Park,0,0,547
,,,0,,0,0,1,0,0,,,,,,,0,0,,,Y,0,0,0,Y,41.48795321,-71.29183492,,0,Easton's Beach,,548,MUN,,0,0,0,Easton's Beach is a Local Park located in Newport,0,0,Y,,Memorial,Boulevard,0,,0,Newport,0,0,Local Park,0,0,548
,,,0,,0,0,1,0,0,,,,,,,0,0,,,Y,0,0,0,N,41.48891754,-71.38410629,,0,Jamestown Town Beach,,549,MUN,,0,0,0,Jamestown Town Beach is a Local Park located in Jamestown,0,0,N,,Beavertail,Road,0,,0,Jamestown,0,0,Local Park,0,0,549
,,3 acres,0,,0,0,0,0,0,,,,,"Just a short walk from the parking area on Tuckerman Ave in Middletown.  Purgatory Chasm is deep, narrow cleft in the cliff overlooking Second Beach and the Atlantic Ocean.  The site is well worth a visit.",Yes,0,0,,,Y,0,0,0,N,41.48681422,-71.2684191,,0,Purgatory Chasm,,550,STA,No,0,0,0,Purgatory Chasm is a State Park located in Middletown,0,0,N,,Tuckerman,Avenue,0,,0,Middletown,0,0,State Park,0,0,550
,,,0,,0,0,0,0,0,,,,,,,0,0,,,Y,0,1,0,N,41.46467079,-71.57805349,,0,Great Swamp Management Area,,552,STA,,0,0,0,Great Swamp Management Area is a Management Area located in South Kingstown,0,0,N,,Great Neck,Road,0,,0,South Kingstown,0,1,Management Area,0,0,552
,,,0,,0,0,0,0,0,,,,,,,0,0,,,Y,0,0,0,Y,41.47589496,-71.29730786,,0,Cliff Walk,,553,MUN,,0,0,0,Cliff Walk is a Local Park located in Newport,0,0,N,,Narragansett,,0,,0,Newport,0,0,Local Park,0,1,553
Yes,http://www.riparks.com/Locations/LocationFortAdams.html,100 acres,1,,0,0,0,0,1,,,[401] 847-2400,,"The second largest bastioned fort in the U.S. Key to Narragansett Bay area defenses, 1799 to 1945. Designed to be the most heavily armed fort in America and to garrison 2,400 troops. Three tiers of guns defended Narragansett Bay's East Passage. Situated at the mouth of the Newport Harbor, offers panoramic view of both Newport Harbor and the East Passage of Narragansett Bay. Activities including salt water bathing, fishing, boating, soccer, rugby and picnicking. Fort Adams is perhaps best known for its annual summer concerts when the jazz and folk festivals draw thousands to enjoy the music and beautiful surroundings.",Yes,1,0,,,Y,0,0,0,Y,41.47532818,-71.33828531,,3,Fort Adams State Park,,554,STA,Yes,0,0,1,Fort Adams State Park is a State Park located in Newport,0,3,N,,Fort Adams,Drive,0,Yes,0,Newport,0,0,State Park,0,1,554
Yes,http://www.riparks.com/Locations/LocationFortWetherill.html,61.5 acres,1,,0,0,0,0,1,,,(401) 423-1771,,"Fort Wetherill State Park, situated upon 100 foot high granite cliffs across the water from Fort Adams State Park, is a former coastal defense battery and training camp. Known for its spectacular view of Newport Harbor and the East Passage of Narragansett Bay, Fort Wetherill has been a popular sight for viewing the numerous Tall Ship Events and America平s Cup Races. The area is also a major attraction for scuba diving, with Diving Clubs from New York State, Connecticut, Massachusetts and Rhode Island using the facilities at the boat ramp year round. Additionally, the park offers family and group picnicking, boating, fishing, hiking and exploring on the park平s 61.5 acres of property.",Yes,1,0,,,Y,0,0,0,Y,41.48021883,-71.36527682,,0,Fort Wetherill,,555,STA,Yes,0,0,1,Fort Wetherill is a State Park located in Jamestown,0,0,N,,Fort Wetherill,,0,Yes,0,Jamestown,0,0,State Park,0,0,555
,,,1,,0,0,0,0,0,,,,,,,0,0,,,Y,0,0,0,N,41.46977997,-71.32053993,,0,Rogers High School,,557,SCH,,0,0,0,Rogers High School is a School located in Newport,0,1,N,,Wickham,Road,0,,6,Newport,1,0,School,0,0,557
Yes,http://www.riparks.com/Locations/LocationBeavertail.html,194 acres,0,Beavertail Light,0,0,0,0,0,,,[401] 884-2010,[401] 423-9941,"Beavertail State Park, located in Jamestown, Rhode Island, is known for offering some of the most beautiful vistas along the New England coastline. The Park attracts people from all over the country, to enjoy its pristine environment. Beavertail平s most popular activity is sightseeing, and can be done from the comfort of a vehicle, in one of the four overlooks or on foot, from the rocky coastline. Beavertail also provides some of the best saltwater fishing in the area, along with offering hiking trails, and a naturalist program that attracts hundreds of people each year._",Yes,1,0,,,Y,0,0,0,Y,41.45677614,-71.39702944,,0,Beavertail State Park,,560,STA,Yes,0,0,1,Beavertail State Park is a State Park located in Jamestown,0,0,N,,Beavertail,Road,0,No,0,Jamestown,0,0,State Park,0,0,560
Yes,http://www.riparks.com/Locations/LocationBrentonPoint.html,88.9 acres,0,Brenton Reef,0,0,0,0,0,,,[401] 847-2400,[401] 849-4562,"Occupying the former grounds of one of Newport's grandest estates, Brenton Point State Park affords its visitors one of the most commanding and spectacular views on the East Coast. The park is located at the point of land where Narragansett Bay meets the Atlantic, midway along renowned Ocean Drive. Visitors can enjoy picnicking, hiking, fishing or just relaxing with the cool breezes and majestic views of the Atlantic.",Yes,1,0,,,Y,0,0,0,Y,41.45196351,-71.35443376,,1,Brenton Point Park,,561,STA,Yes,0,0,1,Brenton Point Park is a State Park located in Newport,0,0,N,,Atlantic,Avenue,0,Yes,0,Newport,0,0,State Park,0,0,561
,,,0,,0,0,1,0,0,,,,,,,1,0,,,Y,0,0,0,Y,41.45435982,-71.34235338,,0,Kings Beach,,562,STA,,0,0,0,Kings Beach is a Fishing & Boating Area located in Newport,0,0,N,,Price's Neck,Road,0,,0,Newport,0,0,Fishing & Boating Area,0,0,562
,,,1,,0,1,0,0,0,,,,,,,0,0,,,Y,0,0,0,Y,41.45324731,-71.50685616,,0,Frank Fagan Park,,563,MUN,,1,0,0,Frank Fagan Park is a Local Park located in South Kingstown,0,0,Y,,Dam,Street,0,,0,South Kingstown,0,0,Local Park,0,1,563
,,,1,,4,0,0,0,0,,,,,,,0,1,,,Y,0,0,0,N,41.45079299,-71.69733893,,2,Chariho High School,,564,SCH,,0,0,0,Chariho High School is a School located in Richmond,0,2,N,,Switch,Road,0,,4,Richmond,1,0,School,0,0,564
,,,1,,3,0,0,0,0,,,,,,,0,2,,,Y,0,0,0,Y,41.63710485,-71.48366356,,4,East Greenwich High School,,569,MUN,,1,0,0,East Greenwich High School is a Athletic Field located in East Greenwich,1,4,N,,Avenger,Drive,0,,6,East Greenwich,1,0,Athletic Field,0,0,569
,,,1,,0,0,0,0,0,,,,,,,0,0,,,Y,0,0,0,Y,42.0100352,-71.50952688,,0,World War II Park,,570,MUN,,1,0,1,World War II Park is a Local Park located in Woonsocket,0,0,N,,School,Street,0,,4,Woonsocket,0,0,Local Park,0,0,570
,,,1,,1,2,0,0,0,,,,,,,0,0,,,Y,0,0,0,Y,41.99774171,-71.53058882,,1,Dunn Park,,571,MUN,,1,0,0,Dunn Park is a Local Park located in Woonsocket,0,1,N,,Mason,Street,1,,3,Woonsocket,0,0,Local Park,0,1,571
,,,0,,0,0,0,0,0,,,,,,,0,0,,,Y,0,0,0,Y,41.43964766,-71.4609173,,0,Canonchet Farm,,574,MUN,,0,0,1,Canonchet Farm is a Conservation Area located in Narragansett,0,0,N,,Anne Hoxsie,Lane,0,,0,Narragansett,0,1,Conservation Area,0,0,574
,,,1,,0,0,0,0,0,,,,,,,1,0,,,Y,0,0,0,N,41.43840127,-71.69017184,,0,Meadow Brook Pond,,576,STA,,0,0,0,Meadow Brook Pond is a Fishing & Boating Area located in Richmond,0,0,N,,Church,Street,0,,0,Richmond,0,1,Fishing & Boating Area,0,0,576
,,,0,,0,0,1,0,0,,,,,,,0,0,,,Y,0,0,0,N,41.43560611,-71.45525383,,0,Narragansett Town Beach,,577,MUN,,0,0,1,Narragansett Town Beach is a Local Park located in Narragansett,0,0,N,,Beach,Street,0,,0,Narragansett,0,0,Local Park,0,0,577
,,,0,,0,0,0,0,0,,,,,,,1,0,,,Y,0,0,0,N,41.42804251,-71.497271,,1,Marina Park,,580,MUN,,0,0,1,Marina Park is a Local Park located in South Kingstown,0,0,Y,,Salt Pond,Road,0,,0,South Kingstown,0,0,Local Park,0,1,580
,,,1,,2,0,0,0,0,,,,,,,0,1,,,Y,0,0,0,N,41.42977653,-71.47056645,,3,Narragansett High School,,581,SCH,,0,0,0,Narragansett High School is a School located in Narragansett,0,3,N,,S Pier,Road,0,,0,Narragansett,1,0,School,0,0,581
Yes,http://www.riparks.com/Locations/LocationScarborough.html,30 acres,0,Scarborough State Beach Complex,0,0,1,0,0,,,(401) 789-8374,(401) 789-2324,"People of all ages will find activities of interest from sun bathing on Scarborough's sandy beach, and people watching on its boardwalk to picnicking under shaded shelters, and saltwater bathing in one of Rhode Island平s most popular spots.",No,0,0,,,Y,0,0,0,Y,41.38970208,-71.4726791,,0,Scarborough State Beach,,585,STA,Yes,0,0,1,Scarborough State Beach is a State Park located in Narragansett,0,0,N,,Ocean,Road,0,Yes,0,Narragansett,0,0,State Park,0,0,585
,,,1,,0,0,0,0,0,,,,,,,0,0,,,Y,0,1,0,N,41.37737746,-71.74580578,,0,Woody Hill Area,,586,STA,,0,0,0,Woody Hill Area is a Management Area located in Westerly,0,0,N,,Woody Hill,Road,0,,0,Westerly,0,1,Management Area,0,0,586
,,,0,,0,0,0,0,0,,,,,,,0,0,,,Y,0,1,0,N,41.3815532,-71.77534604,,0,Newton Swamp,,587,STA,,0,0,0,Newton Swamp is a Management Area located in Westerly,0,0,N,,Westerly-Bradford,Road,0,,0,Westerly,0,1,Management Area,0,0,587
,,,0,,0,0,0,0,0,,,,,,,0,0,,,Y,0,0,0,N,41.38295796,-71.58502628,,0,Trustom Pond National Wildlife Refuge,,589,FED,,0,0,0,Trustom Pond National Wildlife Refuge is a Conservation Area located in South Kingstown,0,0,N,,Matunuck Schoolhouse,Road,0,,0,South Kingstown,0,1,Conservation Area,0,0,589
No,,2 acres,0,,0,0,0,0,0,,,(401) 667-6200,,An historic fort or trading post was once situated on this spot overlooking Ninigret Pond in Charlestown. ,Yes,0,0,,,Y,0,0,0,N,41.38111243,-71.64786675,,0,Fort Ninigret,,591,STA,Yes,0,0,0,Fort Ninigret is a State Park located in Charlestown,0,0,N,,Fort Ninigret,Road,0,No,0,Charlestown,0,0,State Park,0,0,591
,,,0,,0,0,0,0,0,,,,,,,0,0,,,Y,0,1,0,N,41.40476861,-71.70753614,,0,Burlingame Management Area,,592,STA,,0,0,0,Burlingame Management Area is a Management Area located in Charlestown,0,0,N,,Buckeye Brook,Road,0,,0,Charlestown,0,1,Management Area,0,0,592
,,,1,,1,0,0,0,0,,,,,,,0,1,,,Y,0,0,0,N,41.37632833,-71.82043132,,1,Babcock Hall,,595,SCH,,0,0,0,Babcock Hall is a School located in Westerly,0,0,N,,Ward,Avenue,0,,0,Westerly,1,0,School,0,0,595
Yes,http://www.riparks.com/Locations/LocationEastMatunuck.html,144 acres,0,,0,0,1,0,0,,,(401) 789-8374,(401) 789-8585,"Located on the east side of ""the Breachway"" is a camping area for self contained RV's, a state beach, some of the best salt water fishing in South County and a panoramic view of Block Island Sound. The Charlestown Breachway does not have accomodations for canvas camping._ All units must be self contained: Unit must have permanent holding tanks for potable water, grey water and black water. Bathroom equipment must be permanently fixed to the unit. This location also has boat launch with limited parking.",No,0,0,,,Y,0,0,0,Y,41.37781081,-71.5259904,,0,East Matunuck State Beach,,596,STA,Yes,0,0,1,East Matunuck State Beach is a State Park located in South Kingstown,0,0,N,,Succotash,Road,0,Yes,0,South Kingstown,0,0,State Park,0,0,596
Yes,,,0,,0,0,1,0,0,,,,,The beach here is protected by the outer breakwater of the Point Judith Habor of Refuge.  The limited wave action makes this a popular beach for families with small children.,No,0,0,,,Y,0,0,0,Y,41.37331525,-71.49946588,,0,Roger Wheeler State Beach,,597,STA,Yes,1,0,1,Roger Wheeler State Beach is a State Park located in Narragansett,0,0,N,,Sand Hill Cove,Road,0,No,0,Narragansett,0,0,State Park,0,0,597
,,,0,,0,0,0,0,0,,,,,,,1,0,,,Y,0,0,0,Y,41.36221751,-71.48584687,,0,Camp Cronin,,600,STA,,0,0,0,Camp Cronin is a Fishing & Boating Area located in Narragansett,0,0,N,,Ocean,Road,0,,0,Narragansett,0,0,Fishing & Boating Area,0,0,600
,,,0,,0,0,1,0,0,,,,,,,0,0,,,Y,0,0,0,N,41.36121066,-71.6256669,,0,Charlestown Town Beach,,601,MUN,,0,0,1,Charlestown Town Beach is a Local Park located in Charlestown,0,0,N,,Brown Hill,Road,0,,0,Charlestown,0,0,Local Park,0,0,601
Yes,http://www.riparks.com/Locations/LocationCharlestownBreachway.html,14 acres,1,Charlestown Breachway State Beach,0,0,0,0,1,,,[401] 322-8910,[401] 364-7000,"In 1904, the townsfolk asked the General Assembly to appropriate monies for a permanent breachway using the arguments that the natural breach was filled in by the tides depositing sand thereby creating a barrier that separated the pond from the ocean. Also, a permanent breach would prevent the water in Ninigret/Pawaget/ Charlestown pond from becoming brackish and unfit for the cultivation and harvesting of oysters, an industry important to this area._",No,1,0,,,Y,0,0,0,Y,41.35821598,-71.63808469,,0,Charlestown Breachway Campground,,602,STA,,0,0,1,Charlestown Breachway Campground is a State Park located in Charlestown,0,0,N,,Charlestown Beach,Road,0,No,0,Charlestown,0,0,State Park,0,0,602
,,,0,,0,0,1,0,0,,,,,,,1,0,,,Y,0,1,0,Y,41.34807129,-71.67544304,,0,Ninigret Conservation Area,,604,STA,,0,0,0,Ninigret Conservation Area is a Conservation Area located in Charlestown,0,0,N,,Beach,Road,0,,0,Charlestown,0,0,Conservation Area,0,0,604
,,,1,,0,0,0,0,1,,,,,,,1,0,,,Y,0,0,0,N,41.33657338,-71.72224585,,0,Quonochontaug Fishing Area,,605,STA,,0,0,0,Quonochontaug Fishing Area is a Fishing & Boating Area located in Charlestown,0,0,N,,Beach,Road,0,,0,Charlestown,0,0,Fishing & Boating Area,0,0,605
Yes,http://www.riparks.com/Locations/LocationMisquamicut.html,51 acres,0,,0,0,1,0,0,,,(401) 322-8910,(401) 596-9097,"One of the state's most popular beaches with over a half mile of beach front, there are also many local attractions for children. This modern pavilion includes many new features including rails, outside showers, and composting toilets. This beach does fill to capacity during sunny summer weekends.",No,0,0,,,Y,0,0,0,N,41.32316413,-71.80357795,,0,Misquamicut State Beach,,606,STA,Yes,1,0,1,Misquamicut State Beach is a State Park located in Westerly,0,0,N,,Atlantic,Avenue,0,Yes,0,Westerly,0,0,State Park,0,0,606
,,,0,,0,0,1,0,0,,,,,,,0,0,,,Y,0,0,0,N,41.32500682,-71.79054511,,0,Westerly Town Beach,,607,MUN,,0,0,1,Westerly Town Beach is a Local Park located in Westerly,0,0,Y,,Atlantic,Avenue,0,,0,Westerly,0,0,Local Park,0,0,607
,,,0,,0,0,0,0,0,,,,,,,1,0,,,Y,0,0,0,N,41.22459995,-71.5674552,,0,Settler's Rock,,609,MUN,,0,0,0,Settler's Rock is a Local Park located in New Shoreham,0,0,N,,Corn Neck,Road,0,,0,New Shoreham,0,0,Local Park,0,0,609
,,,0,,0,0,0,0,0,,,,,,,0,0,,,Y,0,0,0,Y,41.20854164,-71.5620784,,0,Clay Head,,611,NGO,,0,0,0,Clay Head is a Conservation Area located in New Shoreham,0,0,N,,Clayhead,Trail,0,,0,New Shoreham,0,1,Conservation Area,0,0,611
,,,0,,0,0,0,0,0,,,,,,,0,0,,,Y,0,0,0,Y,41.15257053,-71.59078978,,0,Rodman's Hollow,,614,STA,,0,0,0,Rodman's Hollow is a Conservation Area located in New Shoreham,0,0,N,,Black Rock,Road,0,,0,New Shoreham,0,1,Conservation Area,0,0,614
,,,0,,0,0,0,0,0,,,,,,,1,0,,,Y,0,0,0,N,41.67358217,-71.4421003,,0,Chepiwanoxet,,616,MUN,,0,0,0,Chepiwanoxet is a Local Park located in Warwick,0,0,N,,John Wickes,Avenue,0,,0,Warwick,0,1,Local Park,0,0,616
,,,0,,0,0,0,0,0,,,,,,,0,0,,,Y,0,0,0,N,41.73703027,-71.43691366,,0,Lincoln Park,,617,MUN,,1,0,0,Lincoln Park is a Local Park located in Warwick,0,0,N,,Kentucky,Avenue,0,,0,Warwick,0,0,Local Park,0,1,617
,,,0,,0,0,0,0,0,,,,,,,1,0,,,Y,0,1,0,N,41.68816757,-71.55630418,,0,Merrill S. Whipple Conservation,,621,STA,,0,0,0,Merrill S. Whipple Conservation is a Management Area located in Coventry,0,0,N,,Sandy Bottom,Road,0,,0,Coventry,0,1,Management Area,0,0,621
,,,1,,0,0,0,1,0,,,,,,,0,0,,,Y,0,0,0,N,41.72581274,-71.28067042,,0,East Bay Bike Path,,624,STA,,0,0,0,East Bay Bike Path is a State Park located in Warren,0,0,N,,Franklin,,0,,0,Warren,0,0,State Park,0,1,624
,,,1,,0,0,0,0,0,,,,,,,0,0,,,Y,1,0,0,Y,41.82532304,-71.46350954,,0,Buttonhole Golf Course,,627,STA,,0,0,1,Buttonhole Golf Course is a Local Park located in Johnston,0,0,N,,King Philip,Street,0,,0,Johnston,0,0,Local Park,0,0,627
,,,0,,0,0,0,0,0,,,,,,,0,0,,,Y,0,0,0,N,41.82719903,-71.41397029,,0,Waterplace Park,,628,MUN,,0,0,0,Waterplace Park is a Local Park located in Providence,0,0,N,,Finance,Way,0,,0,Providence,0,0,Local Park,0,1,628
,,,1,,0,0,0,0,0,,,,,,,0,0,,,Y,0,0,0,N,41.74869683,-71.33137675,,1,St. Andrew's Farm,,635,MUN,,0,0,0,St. Andrew's Farm is a Athletic Field located in Barrington,0,1,Y,,Middle,Highway,0,,0,Barrington,0,0,Athletic Field,0,1,635
Yes,http://www.riparks.com/Locations/LocationSaltyBrine.html,1.3 acres,0,,0,0,1,0,0,,,(401) 789-8374,(401) 789-3563,"Named for local radio legend, Walter ""Salty Brine"" Brian, this beach abuts the entrance channel to Point Judith Pond.  Boat watching and fishing along the breakwater are popular attractions in addition to the beach.",No,0,0,,,Y,0,0,0,Y,41.37543555,-71.51280235,,0,Salty Brine State Beach,,636,STA,Yes,0,0,1,Salty Brine State Beach is a State Park located in Narragansett,0,0,N,,Sand Hill Cove,Road,0,Yes,0,Narragansett,0,0,State Park,0,0,636
,,,1,,3,0,0,0,0,,,,,,,0,1,,,Y,0,0,0,N,41.74769443,-71.32001409,,4,Barrington High School,,640,SCH,,0,0,0,Barrington High School is a School located in Barrington,0,3,N,,Lincoln,Avenue,0,,0,Barrington,1,0,School,0,0,640
,,,1,,1,0,0,0,0,,,,,,,0,1,,,Y,0,0,0,N,41.68457091,-71.59456721,,2,Coventry High School,,641,SCH,,0,0,0,Coventry High School is a School located in Coventry,0,1,N,,Club House,Road,0,,6,Coventry,1,0,School,0,0,641
,,,1,,1,0,0,0,0,,,,,,,0,1,,,Y,0,0,0,N,41.7733679,-71.4789983,,1,Cranston High School West,,642,SCH,,0,0,0,Cranston High School West is a School located in Cranston,0,1,Y,,Metropolitan,Avenue,0,,6,Cranston,1,0,School,0,0,642
,,,1,,2,0,0,0,0,,,,,,,0,1,,,Y,0,0,0,N,41.96369436,-71.44360105,,2,Tucker Field,,644,MUN,,0,0,0,Tucker Field is a Athletic Field located in Cumberland,0,1,Y,,Mendon,Road,0,,4,Cumberland,1,0,Athletic Field,0,0,644
,,,1,,3,0,0,0,0,,,,,,,0,1,,,Y,0,0,0,N,41.81922773,-71.35266303,,6,East Providence High School,,646,SCH,,0,0,0,East Providence High School is a School located in East Providence,0,6,N,,Pawtucket,Avenue,0,,4,East Providence,1,0,School,0,0,646
,,,1,,2,0,0,0,0,,,,,,,0,1,,,Y,0,0,0,Y,41.86730856,-71.71449857,,2,Ponagansett School,,648,SCH,,0,0,0,Ponagansett School is a School located in Glocester,0,2,Y,,Anan Wade,Road,0,,4,Glocester,1,0,School,0,0,648
,,,1,,2,0,0,0,0,,,,,,,0,1,,,Y,0,0,0,N,41.93773507,-71.45139089,,2,Lincoln Junior / Senior High,,650,SCH,,0,0,0,Lincoln Junior / Senior High is a School located in Lincoln,0,2,N,,Old River,Road,0,,8,Lincoln,1,0,School,0,0,650
,,,1,,1,0,0,0,0,,,,,,,1,0,,,Y,0,0,0,Y,41.8715035,-71.46275956,,0,Notte Memorial Park,,655,MUN,,0,0,0,Notte Memorial Park is a Local Park located in North Providence,0,0,Y,,Douglas,Avenue,0,,2,North Providence,0,0,Local Park,0,0,655
,,,1,,2,2,0,0,0,,,,,,,0,1,,,Y,0,0,0,Y,41.95165709,-71.54447129,,1,North Smithfield High School,,657,SCH,,0,0,0,North Smithfield High School is a School located in North Smithfield,0,1,N,,Greenville,Road,0,,4,North Smithfield,1,0,School,0,0,657
,,,1,,2,1,0,0,0,,,,,,,0,1,,,Y,0,0,0,N,41.83429541,-71.40379536,,2,Hope High School,,658,SCH,,1,0,0,Hope High School is a School located in Providence,0,1,Y,,Olney,Street,0,,8,Providence,1,0,School,0,0,658
,,,1,,2,0,0,0,0,,,,,,,0,1,,,Y,0,0,0,N,41.87980813,-71.54400591,,1,Smithfield High School,,660,SCH,,0,0,0,Smithfield High School is a School located in Smithfield,0,1,N,,Rosewood,Drive,0,,4,Smithfield,1,0,School,0,0,660
,,,1,,0,0,0,0,0,,,,,,,0,0,,,Y,0,0,0,N,41.70618989,-71.37778216,,2,Gorton School,,664,SCH,,0,0,0,Gorton School is a School located in Warwick,0,2,N,,Draper,Avenue,0,,2,Warwick,0,0,School,0,1,664
,,,1,,1,2,0,1,0,,,,,,,0,0,,,Y,0,0,0,Y,41.72366878,-71.4852603,,0,Father Tirocchi Playground,,666,MUN,,1,0,0,Father Tirocchi Playground is a Local Park located in Warwick,0,0,N,,Pontiac,Street,0,,0,Warwick,0,0,Local Park,0,1,666
,,,1,,1,0,0,0,0,,,,,,,0,1,,,Y,0,0,0,N,41.74608269,-71.40910366,,2,Pilgrim High School,,667,SCH,,0,0,0,Pilgrim High School is a School located in Warwick,0,2,N,,Pilgrim,Parkway,0,,0,Warwick,1,0,School,0,0,667
,,,1,,1,0,0,0,0,,,,,,,0,1,,,Y,0,0,0,N,41.70881945,-71.51573101,,3,West Warwick School Complex,,669,SCH,,0,0,0,West Warwick School Complex is a School located in West Warwick,0,3,N,,Webster Knight,Drive,0,,3,West Warwick,1,0,School,0,0,669
,,,1,,2,1,0,0,1,,,,,,,1,0,,,Y,0,0,0,Y,42.00914135,-71.52519899,,0,Cold Spring Park,,670,MUN,,1,0,0,Cold Spring Park is a Local Park located in Woonsocket,0,0,Y,,Katherine,Road,0,,2,Woonsocket,0,0,Local Park,0,0,670
,,,1,,0,0,0,0,0,,,,,,,0,0,,,Y,0,0,0,N,41.63929988,-71.68619008,,1,Exeter / West Greenwich Soccer,,672,MUN,,0,0,0,Exeter / West Greenwich Soccer is a Athletic Field located in West Greenwich,0,7,N,,Victory,Highway,0,,0,West Greenwich,0,1,Athletic Field,0,0,672
,,,1,,2,0,0,0,0,,,,,,,0,1,,,Y,0,0,0,N,41.60582734,-71.63713366,,3,Exeter / West Greenwich Jr-Sr High,,673,SCH,,0,0,0,Exeter / West Greenwich Jr-Sr High is a School located in West Greenwich,0,2,Y,,Nooseneck Hill,Road,0,,4,West Greenwich,1,0,School,0,0,673
,,,1,,0,0,0,0,0,,,,,,,0,0,,,Y,0,0,0,N,41.45534247,-71.48454369,,2,Broad Rock Middle School,,675,SCH,,0,0,0,Broad Rock Middle School is a School located in South Kingstown,0,2,N,,Broad Rock,Road,0,,6,South Kingstown,0,0,School,0,1,675
,,,1,,2,2,0,0,0,,,,,,,0,0,,,Y,0,0,0,N,41.98054383,-71.62338553,,1,Burrillville Middle School,,679,SCH,,1,0,0,Burrillville Middle School is a School located in Burrillville,0,1,Y,,Broncos,Highway,0,,2,Burrillville,1,0,School,0,0,679
,,,0,,0,0,0,0,0,,,,,,,0,0,,,Y,0,0,0,N,41.66762549,-71.2549365,,0,Mt. Hope Farm,,688,MUN,,0,0,0,Mt. Hope Farm is a Local Park located in Bristol,0,0,N,,Metacom,Avenue,0,,0,Bristol,0,1,Local Park,0,0,688
,,,1,,0,0,0,0,1,,,,,,,1,0,,,Y,0,0,0,N,41.69712892,-71.24639464,,0,Waypoyset Preserve / Bristol Narrows,,689,NGO,,0,0,0,Waypoyset Preserve / Bristol Narrows is a Conservation Area located in Bristol,0,0,N,,Narrows,Road,0,,0,Bristol,0,1,Conservation Area,0,0,689
,,,0,Compass Rose Beach,0,0,1,0,0,,,,,,,1,0,,,Y,0,0,0,N,41.58681103,-71.41568632,,0,Blue Beach,,691,MUN,,0,0,0,Blue Beach is a Local Park located in North Kingstown,0,0,N,,Roger Williams,Way,0,,0,North Kingstown,0,0,Local Park,0,0,691
,,,0,,0,0,0,0,0,,,,,,,0,0,,,Y,0,1,0,N,41.86515979,-71.7805479,,0,Killingly Pond,,692,STA,,0,0,0,Killingly Pond is a Management Area located in Glocester,0,0,N,,Cook Estate,Road,0,,0,Glocester,0,1,Management Area,0,0,692
,,,1,,0,0,0,0,0,,,,,,,0,1,,,Y,0,0,0,Y,41.87414987,-71.36843788,,1,Mccoy Stadium Annex,,701,MUN,,0,0,1,Mccoy Stadium Annex is a Athletic Field located in Pawtucket,0,1,Y,,Ben Mondor,Way,0,,0,Pawtucket,1,0,Athletic Field,0,0,701
,,,1,,0,0,0,0,1,,,,,,,1,0,,,Y,0,0,0,N,41.87176792,-71.38403546,,0,Town Landing,,702,MUN,,0,0,0,Town Landing is a Local Park located in Pawtucket,0,0,Y,,Taft,Street,0,,0,Pawtucket,0,0,Local Park,0,0,702
,,,0,,0,0,0,0,0,,,,,,,1,0,,,Y,0,0,0,N,42.00001235,-71.51758254,,0,Thunder Mist Overlook,,705,MUN,,0,0,0,Thunder Mist Overlook is a Local Park located in Woonsocket,0,0,N,,River,Street,0,,0,Woonsocket,0,0,Local Park,0,0,705
,,,0,,0,0,0,0,0,,,,,,,0,0,,,Y,0,0,0,N,41.89863454,-71.38679313,,1,Blackstone River Park,,706,MUN,,0,0,1,Blackstone River Park is a Local Park located in Central Falls,0,1,Y,,High,Street,0,,1,Central Falls,0,0,Local Park,0,1,706
,,,1,,2,0,0,1,0,,,,,,,0,0,,,Y,0,0,0,N,41.46387404,-71.52194837,,2,Curtis Corner Playfields,,709,MUN,,1,0,0,Curtis Corner Playfields is a Athletic Field located in South Kingstown,0,1,Y,,Curtis Corner,Road,0,,0,South Kingstown,1,0,Athletic Field,0,1,709
,,,1,,0,0,0,0,1,,,,,,,1,0,,,Y,0,0,0,N,41.95180725,-71.70395425,,0,Union Pond Fishing Access,,716,STA,,0,0,1,Union Pond Fishing Access is a Fishing & Boating Area located in Burrillville,0,0,N,,Reservoir,Road,0,,0,Burrillville,0,0,Fishing & Boating Area,0,0,716
,,,0,,0,0,1,0,0,,,,,,,0,0,,,Y,0,0,0,N,41.9868258,-71.65743615,,0,Spring Lake Beach,,717,MUN,,0,0,1,Spring Lake Beach is a Local Park located in Burrillville,0,0,Y,,Old Hillside,Drive,0,,0,Burrillville,0,0,Local Park,0,0,717
,,,0,,0,0,0,0,1,,,,,,,0,0,,,Y,0,0,0,N,41.98708714,-71.60088324,,0,Slatersville Pond Fishing Access,,718,STA,,0,0,0,Slatersville Pond Fishing Access is a Fishing & Boating Area located in North Smithfield,0,0,N,,Victory Highway,Highway,0,,0,North Smithfield,0,0,Fishing & Boating Area,0,0,718
,,,1,,2,1,0,0,0,,,,,,,1,0,,,Y,0,0,0,N,41.96587709,-71.47804045,,1,Manville Memorial Park,,720,MUN,,1,0,0,Manville Memorial Park is a Local Park located in Lincoln,0,0,N,,High,Street,0,,0,Lincoln,0,0,Local Park,0,1,720
,,,0,Gateway to Great Rd; Eleazer Arnold House,0,0,0,0,0,,,,,,,0,0,,,Y,0,0,0,N,41.90353666,-71.41950228,,0,Great Road Gateway,,721,MUN,,0,0,0,Great Road Gateway is a Local Park located in Lincoln,0,0,N,,Great,Road,0,,0,Lincoln,0,0,Local Park,0,1,721
,,,1,,0,0,0,0,0,,,,,,,0,0,,,Y,0,0,0,N,41.83630533,-71.57127346,,1,Tasca Field,,722,MUN,,0,0,0,Tasca Field is a Athletic Field located in Scituate,0,4,Y,,Hartford ,Avenue,0,,0,Scituate,0,0,Athletic Field,0,1,722
,,,0,,0,0,0,0,0,,,,,,,1,0,,,Y,0,0,0,Y,41.49643398,-71.3667924,,0,Jamestown Town Pier,,729,MUN,,0,0,0,Jamestown Town Pier is a Local Park located in Jamestown,0,0,N,,Conanicus,Avenue,0,,0,Jamestown,0,0,Local Park,0,0,729
,,,0,,0,0,0,0,0,,,,,,,1,0,,,Y,0,0,0,N,41.51020062,-71.35974913,,0,Potter Cove Access,,731,MUN,,0,0,0,Potter Cove Access is a Fishing & Boating Area located in Jamestown,0,0,N,,Bayview,Drive,0,,0,Jamestown,0,0,Fishing & Boating Area,0,0,731
,,,0,,0,0,0,0,0,,,,,,,1,0,,,Y,0,0,0,N,41.68834371,-71.36678937,,0,Rocky Point Park,,735,STA,,0,0,1,Rocky Point Park is a Local Park located in Warwick,0,0,N,,Rocky Point,,0,,0,Warwick,0,1,Local Park,0,1,735
,,,0,,0,0,0,0,0,,,,,,,1,0,,,Y,0,0,0,Y,41.75674146,-71.3609321,,0,Rose Larisa Memorial Park,,748,MUN,,0,0,0,Rose Larisa Memorial Park is a Local Park located in East Providence,0,0,N,,Bullocks Point,Avenue,0,,0,East Providence,0,0,Local Park,0,1,748
,,,0,,0,0,0,1,0,,,,,,,0,0,,,Y,0,0,0,N,41.77178597,-71.36202108,,0,Riverside Square Park,,750,MUN,,0,0,0,Riverside Square Park is a Local Park located in East Providence,0,0,N,,Bullocks Point,,0,,0,East Providence,0,0,Local Park,0,1,750
,,,0,,0,0,0,0,0,,,,,,,0,0,,,Y,0,0,0,N,41.46006064,-71.30727955,,0,Rovensky Park,,752,MUN,,0,0,0,Rovensky Park is a Local Park located in Newport,0,0,N,,Rovensky,Avenue,0,,0,Newport,0,0,Local Park,0,1,752
,,,1,,0,0,0,1,0,,,,,,,0,0,,,Y,0,0,0,N,41.47430425,-71.55432167,,0,South County Bike Path,,754,MUN,,0,0,0,South County Bike Path is a Local Park located in South Kingstown,0,0,N,,Ministerial,Road,0,,0,South Kingstown,0,0,Local Park,0,1,754
,,,1,,0,0,0,0,1,,,,,,,1,0,,,Y,0,0,0,N,41.62038422,-71.41186131,,0,Allen Harbor,,756,MUN,,0,0,0,Allen Harbor is a Local Park located in North Kingstown,0,0,N,,Alllen Harbor,Road,0,,0,North Kingstown,0,0,Local Park,0,0,756
,,,0,,0,0,0,0,0,,,,,,,1,0,,,Y,0,0,0,N,41.57016898,-71.45121568,,0,Town Dock Park,,758,MUN,,0,0,1,Town Dock Park is a Local Park located in North Kingstown,0,0,N,,Brown,Street,0,,0,North Kingstown,0,0,Local Park,0,0,758
,,,0,,0,0,0,0,0,,,,,,,0,0,,,Y,0,0,0,N,41.60704214,-71.52893352,,0,Mystic Woods,,761,MUN,,0,0,0,Mystic Woods is a Conservation Area located in East Greenwich,0,0,N,,South,Road,0,,0,East Greenwich,0,0,Conservation Area,0,0,761
,,,0,,0,0,0,0,0,,,,,,,0,0,,,Y,0,0,0,N,41.58720251,-71.16302238,,0,Weetamo Woods,,764,MUN,,0,0,0,Weetamo Woods is a Local Park located in Tiverton,0,0,N,,Lake,Road,0,,0,Tiverton,0,1,Local Park,0,0,764
,,,0,,0,0,1,0,0,,,,,,,0,0,,,Y,0,0,0,N,41.62505021,-71.21371284,,0,Grinnells Beach,,765,MUN,,0,0,1,Grinnells Beach is a Local Park located in Tiverton,0,0,Y,,Main,Road,0,,0,Tiverton,0,0,Local Park,0,0,765
,,,0,,0,0,1,0,0,,,,,,,0,0,,,Y,0,0,0,N,41.34166151,-71.6949247,,0,Blue Shutters Beach,,770,MUN,,0,0,1,Blue Shutters Beach is a Local Park located in Charlestown,0,0,N,,Beach,Road,0,,0,Charlestown,0,0,Local Park,0,0,770
,,,1,,2,0,0,0,0,,,,,,,0,0,,,Y,0,0,0,N,41.66588227,-71.62533221,,1,Fish Hill Ball Fields,,771,STA,,0,0,1,Fish Hill Ball Fields is a Athletic Field located in Coventry,0,3,N,,Fish Hill,Road,0,,0,Coventry,0,0,Athletic Field,0,0,771
,,,1,,0,0,0,0,1,,,,,,,1,0,,,Y,0,0,0,N,41.67011909,-71.54834396,,0,North Glen Boat Launch,,773,MUN,,0,0,0,North Glen Boat Launch is a Local Park located in Coventry,0,0,N,,North Glen,Drive,0,,0,Coventry,0,0,Local Park,0,0,773
,,,1,,0,0,1,0,0,,,,,,,1,0,,,Y,0,0,0,N,41.7353064,-71.56554946,,1,Hope Pond Recreation Area & Beach,,774,MUN,,0,0,0,Hope Pond Recreation Area & Beach is a Local Park located in Scituate,0,0,N,,Ryefield,Road,0,,1,Scituate,0,0,Local Park,0,0,774
,,,1,,3,0,0,0,1,,,,,,,1,0,,,Y,0,0,0,N,41.51308193,-71.70585988,,0,Chariho Athletic Association,,778,PRV,,0,0,1,Chariho Athletic Association is a Local Park located in Hopkinton,0,0,N,,Nooseneck Hill,Road,0,,0,Hopkinton,0,0,Local Park,0,0,778
,,,0,,0,0,0,0,0,,,,,,,1,0,,,Y,0,1,0,N,41.64443577,-71.61373137,,0,Big River / Nooseneck Hill Road Fishing Access,,779,STA,,0,0,0,Big River / Nooseneck Hill Road Fishing Access is a Fishing & Boating Area located in West Greenwich,0,0,N,,Nooseneck Hill,Road,0,,0,West Greenwich,0,1,Fishing & Boating Area,0,0,779
,,,1,,0,0,0,0,0,,,,,,,1,0,,,Y,0,0,0,N,41.61748101,-71.20759657,,0,Nannaquaket Bridge,,780,MUN,,0,0,0,Nannaquaket Bridge is a Fishing & Boating Area located in Tiverton,0,0,N,,Nannaquaket,Road,0,,0,Tiverton,0,0,Fishing & Boating Area,0,0,780
,,,1,,0,0,0,0,0,,,,,,,1,0,,,Y,0,1,0,N,42.00394004,-71.69934659,,0,Round Top,,783,STA,,0,0,0,Round Top is a Management Area located in Burrillville,0,0,N,,Round Top,Road,0,,0,Burrillville,0,1,Management Area,0,0,783
,,,0,,0,0,0,0,0,,,,,,,1,0,,,Y,0,0,0,N,41.50233956,-71.75287407,,0,Blue Pond,,785,STA,,0,0,0,Blue Pond is a Fishing & Boating Area located in Hopkinton,0,0,N,,Canonchet,Road,0,,0,Hopkinton,0,1,Fishing & Boating Area,0,0,785
,,,1,,0,0,0,0,0,,,,,,,1,0,,,Y,0,0,0,N,41.5086685,-71.77915789,,0,Long Pond,,786,NGO,,0,0,0,Long Pond is a Fishing & Boating Area located in Hopkinton,0,0,N,,North,Road,0,,0,Hopkinton,0,1,Fishing & Boating Area,0,0,786
,,,1,,0,0,0,0,0,,,,,,,1,0,,,Y,0,0,0,N,41.63113431,-71.57110699,,0,Carr Pond,,788,STA,,0,0,1,Carr Pond is a Fishing & Boating Area located in West Greenwich,0,0,N,,Hopkins Hill,Road,0,,0,West Greenwich,0,1,Fishing & Boating Area,0,0,788
,,,1,,0,0,0,0,0,,,,,,,1,0,,,Y,0,0,0,N,41.37882818,-71.5149968,,0,State Pier # 4,,791,STA,,0,0,0,State Pier # 4 is a Fishing & Boating Area located in Narragansett,0,0,N,,Succotash,Road,0,,0,Narragansett,0,0,Fishing & Boating Area,0,0,791
Yes,http://www.riparks.com/Locations/LocationPulaski.html,100 acres,1,Pulaski State Park and Recreational Area; Peck Pond,0,0,1,0,0,,,(401) 568-2085,,"Located within the 3700 acre George Washington Management Area, the 100 acre Pulaski Memorial Recreation Area is a ""day use"" facility offering users a multitude of opportunities to enjoy the outdoors. From the first class trout fishing in the spring, to enjoying a picnic, a short hike, or a cool swim in the 13 acre Peck Pond in the summer, to cross-country skiing on the 10 miles of groomed trails into the adjacent George Washington Management area in the winter, Pulaski provides year round enjoyment for all ages.",Yes,1,0,,,Y,0,0,0,Y,41.93278647,-71.79680722,,0,Pulaski Park,,794,STA,Yes,0,0,1,Peck Pond / Pulaski Park is a State Park located in Burrillville,0,0,N,,Pulaski,Road,0,Yes,0,Burrillville,0,1,State Park,0,0,794
,,,1,,0,0,0,0,0,,,,,,,1,0,,,Y,0,0,0,N,41.89469397,-71.42659672,,0,Olney Pond Fishing Access,,797,STA,,0,0,0,Olney Pond Fishing Access is a Fishing & Boating Area located in Lincoln,0,0,N,,Stump Hill,Road,0,,0,Lincoln,0,0,Fishing & Boating Area,0,0,797
,,,1,,0,0,0,0,0,,,,,,,1,0,,,Y,0,0,0,N,41.69536241,-71.75683037,,0,Bucks Horn Brook,,798,STA,,0,0,0,Bucks Horn Brook is a Fishing & Boating Area located in Coventry,0,0,N,,Lewis Farm,Road,0,,0,Coventry,0,0,Fishing & Boating Area,0,0,798
,,,1,,0,0,0,0,0,,,,,,,1,0,,,Y,0,0,0,N,41.56175716,-71.71777127,,0,Deep Pond,,800,STA,,0,0,0,Deep Pond is a Fishing & Boating Area located in Exeter,0,0,N,,Blitzkrieg,Trail,0,,0,Exeter,0,0,Fishing & Boating Area,0,0,800
,,,1,,0,0,0,0,0,,,,,,,1,0,,,Y,0,0,0,N,41.59833597,-71.74579559,,0,Falls River - Austin Farm,,801,STA,,0,0,0,Falls River - Austin Farm is a Fishing & Boating Area located in Exeter,0,0,N,,Plain,Road,0,,0,Exeter,0,1,Fishing & Boating Area,0,0,801
,,,1,,0,0,0,0,0,,,,,,,1,0,,,Y,0,0,0,N,41.58025856,-71.72078324,,0,Lower Fall River,,802,STA,,0,0,0,Lower Fall River is a Fishing & Boating Area located in Exeter,0,0,N,,Midway Rail,,0,,0,Exeter,0,1,Fishing & Boating Area,0,0,802
,,,1,,0,0,0,0,0,,,,,,,1,0,,,Y,0,0,0,N,41.58738217,-71.73101312,,0,Simon Jordan Fishing Access,,803,STA,,0,0,0,Simon Jordan Fishing Access is a Fishing & Boating Area located in Exeter,0,0,N,,Brookie,Trail,0,,0,Exeter,0,1,Fishing & Boating Area,0,0,803
,,,1,,0,0,0,0,0,,,,,,,1,0,,,Y,0,0,0,N,41.595625,-71.72031105,,0,Upper Flat River,,804,STA,,0,0,0,Upper Flat River is a Fishing & Boating Area located in Exeter,0,0,N,,Plain,Road,0,,0,Exeter,0,1,Fishing & Boating Area,0,0,804
,,,1,,0,0,0,0,0,,,,,,,1,0,,,Y,0,0,0,N,41.57950766,-71.71899383,,0,Lower Flat River,,805,STA,,0,0,0,Lower Flat River is a Fishing & Boating Area located in Exeter,0,0,N,,Ten Rod,Road,0,,0,Exeter,0,1,Fishing & Boating Area,0,0,805
,,,1,,0,0,0,0,0,,,,,,,1,0,,,Y,0,0,0,N,41.58768743,-71.70903311,,0,Frosty Hollow Pond,,806,STA,,0,0,0,Frosty Hollow Pond is a Fishing & Boating Area located in Exeter,0,0,N,,Frosty Hollow Road,Road,0,,0,Exeter,0,1,Fishing & Boating Area,0,0,806
,,,1,,0,0,0,0,0,,,,,,,1,0,,,Y,0,0,0,N,41.56466939,-71.72913979,,0,Paris Brook,,807,STA,,0,0,0,Paris Brook is a Fishing & Boating Area located in Exeter,0,0,N,,Mount Tom,Road,0,,0,Exeter,0,1,Fishing & Boating Area,0,0,807
,,,1,,0,0,0,0,0,,,,,,,1,0,,,Y,0,0,0,N,41.61254977,-71.76062965,,0,Step Stone Falls,,808,STA,,0,0,0,Step Stone Falls is a Fishing & Boating Area located in West Greenwich,0,0,N,,Falls River,Road,0,,0,West Greenwich,0,1,Fishing & Boating Area,0,0,808
,,,1,,0,0,0,0,0,,,,,,,1,0,,,Y,0,0,0,N,41.84536618,-71.74319872,,0,Ponagansett,,809,STA,,0,0,0,Ponagansett is a Fishing & Boating Area located in Foster,0,0,N,,Pine Tree,Lane,0,,0,Foster,0,0,Fishing & Boating Area,0,0,809
,,,1,,0,0,0,0,0,,,,,,,1,0,,,Y,0,0,0,N,41.50318705,-71.71673354,,0,Mechanic St,,810,STA,,0,0,0,Mechanic St is a Fishing & Boating Area located in Hopkinton,0,0,N,,Mechanic,Street,0,,0,Hopkinton,0,0,Fishing & Boating Area,0,0,810
,,,1,,0,0,0,0,0,,,,,,,1,0,,,Y,0,1,0,N,41.53970523,-71.1543782,,0,Simmons Mill Pond,,811,STA,,0,0,0,Simmons Mill Pond is a Management Area located in Little Compton,0,0,N,,Colebrook,Road,0,,0,Little Compton,0,1,Management Area,0,0,811
,,,1,,0,0,0,0,0,,,,,,,1,0,,,Y,0,0,0,N,41.48576682,-71.70184395,,0,Carolina Trout Pond,,812,STA,,0,0,0,Carolina Trout Pond is a Fishing & Boating Area located in Richmond,0,0,N,,Coondog,Trail,0,,0,Richmond,0,1,Fishing & Boating Area,0,0,812
,,,1,,0,0,0,0,0,,,,,,,1,0,,,Y,0,0,0,N,41.46635721,-71.69019958,,0,Meadow Brook At Carolina,,813,STA,,0,0,0,Meadow Brook At Carolina is a Fishing & Boating Area located in Richmond,0,0,N,,Pine Hill,Road,0,,0,Richmond,0,0,Fishing & Boating Area,0,0,813
,,,1,,0,0,0,0,0,,,,,,,1,0,,,Y,0,0,0,N,41.37350224,-71.53833316,,0,Deep Hole,,814,STA,,0,0,0,Deep Hole is a Fishing & Boating Area located in South Kingstown,0,0,N,,Matunuck Beach,Road,0,,0,South Kingstown,0,0,Fishing & Boating Area,0,0,814
,,,1,,0,0,0,0,0,,,,,,,1,0,,,Y,0,0,0,N,41.33042917,-71.76349195,,0,Weekapaug Breachway,,816,STA,,0,0,0,Weekapaug Breachway is a Fishing & Boating Area located in Westerly,0,0,N,,Atlantic ,Avenue,0,,0,Westerly,0,0,Fishing & Boating Area,0,0,816
,,,1,,0,0,1,0,0,,,,,,,1,0,,,Y,0,0,0,Y,41.34448545,-71.69007646,,0,East Beach,,817,STA,,0,0,1,East Beach is a Fishing & Boating Area located in Charlestown,0,0,N,,Beach,Road,0,,0,Charlestown,0,0,Fishing & Boating Area,0,0,817
,,,1,,0,0,0,0,0,,,,,,,1,0,,,Y,0,0,0,N,41.40003629,-71.4645012,,0,Black Point,,818,STA,,0,0,0,Black Point is a Fishing & Boating Area located in Narragansett,0,0,N,,Ocean,Road,0,,0,Narragansett,0,1,Fishing & Boating Area,0,0,818
,,,1,,0,0,0,0,0,,,,,,,1,0,,,Y,0,0,0,N,41.56231236,-71.13352987,,0,Adamsville Brook,,819,UTL,,0,0,0,Adamsville Brook is a Conservation Area located in Tiverton,0,0,N,,Crandall,Road,0,,0,Tiverton,0,0,Conservation Area,0,0,819
,,,1,,0,0,0,0,0,,,,,,,1,0,,,Y,0,0,0,N,41.17415685,-71.55462504,,0,Old Harbor Breakwater,,826,STA,,0,0,0,Old Harbor Breakwater is a Fishing & Boating Area located in New Shoreham,0,0,N,,Water,Street,0,,0,New Shoreham,0,0,Fishing & Boating Area,0,0,826
,,,1,,0,0,1,0,0,,,,,,,1,0,,,Y,0,0,0,N,41.18254411,-71.56667577,,0,East Beach,,827,MUN,,0,0,1,East Beach is a Local Park located in New Shoreham,0,0,N,,Beach,Road,0,,0,New Shoreham,0,0,Local Park,0,0,827
No,,28 acres,1,,0,0,0,0,0,,,(401) 667-6200,,"Named ""Best Beach for Solitude"" by Yankee Magazine and often compared to the cliffs of Ireland, Mohegan Bluffs are a must-see attraction for Block Island visitors. Nearly 200 feet high, the Bluffs offer stunning ocean views.  To actually get to the beach, you'll have to walk down more than 140 stairs and climb over many yards of rocks and boulders.  Caution must be taken where the stairs meet the beach as the bluffs & beach are subject to extreme erosion from ocean storms.",Yes,1,0,,,Y,0,0,0,Y,41.15241851,-71.55507655,,0,Mohegan Bluffs / South East Light Stairway,,828,STA,No,0,0,0,Mohegan Bluffs / South East Light Stairway is a State Park located in New Shoreham,0,0,N,,Spring,Street,0,No,0,New Shoreham,0,0,State Park,0,0,828
,,,1,,0,0,0,0,0,,,,,,,1,0,,,Y,0,0,0,Y,41.91448137,-71.74253264,,0,Burlingame Reservoir,,829,STA,,0,0,0,Burlingame Reservoir is a Fishing & Boating Area located in Glocester,0,0,N,,Elbow Rock,Road,0,,0,Glocester,0,0,Fishing & Boating Area,0,0,829
,,,1,,0,0,0,0,0,,,,,,,1,0,,,Y,0,1,0,N,41.55895787,-71.17129225,,0,Eight Rod Farm,,830,STA,,0,0,0,Eight Rod Farm is a Management Area located in Tiverton,0,0,N,,Eight Rod,Way,0,,0,Tiverton,0,1,Management Area,0,0,830
,,,1,,0,0,0,0,1,,,,,,,1,0,,,Y,0,0,0,N,41.68758193,-71.24241219,,0,Annawanscutt Fishing & Boating Access,,832,STA,,0,0,1,Annawanscutt Fishing & Boating Access is a Fishing & Boating Area located in Bristol,0,0,N,,Viking,,0,,0,Bristol,0,0,Fishing & Boating Area,0,0,832
,,,1,,0,0,0,0,1,,,,,,,1,0,,,Y,0,0,0,N,41.54090109,-71.69631572,,0,Barberville Fishing And Boating Access,,833,NGO,,0,0,1,Barberville Fishing And Boating Access is a Fishing & Boating Area located in Hopkinton,0,0,N,,Arcadia,Road,0,,0,Hopkinton,0,0,Fishing & Boating Area,0,0,833
,,,1,Passeonkquis Cove Fishing Access,0,0,0,0,1,,,,,,,1,0,,,Y,0,0,0,N,41.74860601,-71.38306105,,0,Gaspee Point,,834,STA,,0,0,0,Gaspee Point is a Fishing & Boating Area located in Warwick,0,0,N,,Narragansett,Parkway,0,,0,Warwick,0,0,Fishing & Boating Area,0,0,834
,,,1,,0,0,0,0,1,,,,,,,1,0,,,Y,0,0,0,N,41.51567743,-71.71715315,,0,Locustville Pond,,835,STA,,0,0,0,Locustville Pond is a Fishing & Boating Area located in Hopkinton,0,0,N,,Sunset,Drive,0,,0,Hopkinton,0,0,Fishing & Boating Area,0,0,835
,,,1,,0,0,0,0,1,,,,,,,1,0,,,Y,0,0,0,N,41.7044193,-71.36469085,,0,Longmeadow Fishing And Boating Access,,836,MUN,,0,0,0,Longmeadow Fishing And Boating Access is a Fishing & Boating Area located in Warwick,0,0,N,,Dorr,Street,0,,0,Warwick,0,0,Fishing & Boating Area,0,0,836
,,,1,,0,0,0,0,1,,,,,,,1,0,,,Y,0,0,0,N,41.90090185,-71.54636063,,0,Stump Pond,,837,STA,,0,0,0,Stump Pond is a Fishing & Boating Area located in Smithfield,0,0,N,,Log,Road,0,,0,Smithfield,0,0,Fishing & Boating Area,0,0,837
,,,1,,0,0,0,0,1,,,,,,,1,0,,,Y,0,0,0,N,41.63385044,-71.23081264,,0,Gull Cove Fishing & Boating Access,,838,STA,,0,0,0,Gull Cove Fishing & Boating Access is a Fishing & Boating Area located in Portsmouth,0,0,N,,State 138,,0,,0,Portsmouth,0,0,Fishing & Boating Area,0,0,838
,,,1,,0,0,0,0,1,,,,,,,1,0,,,Y,0,0,0,N,41.86893771,-71.37985377,,0,Festival Pier,,839,MUN,,0,0,0,Festival Pier is a Fishing & Boating Area located in Pawtucket,0,0,Y,,Tim Healey,Way,0,,0,Pawtucket,0,0,Fishing & Boating Area,0,0,839
,,,1,,0,0,0,0,1,,,,,,,1,0,,,Y,0,0,0,N,41.66522839,-71.61887775,,0,Zeke's Bridge,,840,STA,,0,0,0,Zeke's Bridge is a Fishing & Boating Area located in Coventry,0,0,N,,Harkney Hill,Road,0,,0,Coventry,0,0,Fishing & Boating Area,0,0,840
,,,1,,0,0,0,0,1,,,,,,,1,0,,,Y,0,0,0,Y,41.92452215,-71.7878003,,0,Clarkville Pond,,842,STA,,0,0,0,Clarkville Pond is a Fishing & Boating Area located in Glocester,0,0,N,,Shepard,Way,0,,0,Glocester,0,1,Fishing & Boating Area,0,0,842
,,,1,,0,0,0,0,1,,,,,,,1,0,,,Y,0,0,0,N,41.92723289,-71.71816035,,0,Pascoag Reservoir Fishing Access,,843,STA,,0,0,0,Pascoag Reservoir Fishing Access is a Fishing & Boating Area located in Glocester,0,0,N,,Brandy Brook,Road,0,,0,Glocester,0,0,Fishing & Boating Area,0,0,843
,,,1,,0,0,0,0,1,,,,,,,1,0,,,Y,0,0,0,N,41.9173022,-71.75835699,,0,Lake Washington,,844,STA,,0,0,0,Lake Washington is a Fishing & Boating Area located in Glocester,0,0,N,,Lake Washington,Drive,0,,0,Glocester,0,0,Fishing & Boating Area,0,0,844
,,,1,,0,0,0,0,1,,,,,,,1,0,,,Y,0,0,0,N,41.52329467,-71.74182579,,0,Moscow Pond,,845,STA,,0,0,0,Moscow Pond is a Fishing & Boating Area located in Hopkinton,0,0,N,,Woody Hill,Road,0,,0,Hopkinton,0,0,Fishing & Boating Area,0,0,845
,,,1,,0,0,0,0,1,,,,,,,1,0,,,Y,0,0,0,Y,41.88947957,-71.42773712,,0,Olney Pond,,846,STA,,0,0,0,Olney Pond is a Fishing & Boating Area located in Lincoln,0,0,N,,Les Pawson Loop,,0,,0,Lincoln,0,0,Fishing & Boating Area,0,0,846
,,,1,,0,0,1,0,1,,,,,,,1,0,,,Y,0,0,0,N,41.69744185,-71.77004476,,0,Carbuncle Pond,,847,STA,,0,0,0,Carbuncle Pond is a Fishing & Boating Area located in Coventry,0,0,N,,Plainfield Pike,,0,,0,Coventry,0,0,Fishing & Boating Area,0,0,847
No,,338 acres,1,,0,0,0,0,1,,,(401) 789-0281,,This undeveloped state park is mostly forested and managed primarily as wildlife management area.  There are trails here but users must pay heed to safety requirements associated with hunting in this area. ,Yes,1,0,,,Y,0,1,0,N,41.75072867,-71.55119892,,0,JL Curran,,848,STA,No,0,0,0,JL Curran is a State Park located in Cranston,0,0,N,,Seven Mile,Road,0,No,0,Cranston,0,1,State Park,0,0,848
,,,1,,0,0,0,0,1,,,,,,,1,0,,,Y,0,0,0,N,41.43810936,-71.72243714,,0,Alton Pond Landing,,849,PRV,,0,0,0,Alton Pond Landing is a Fishing & Boating Area located in Hopkinton,0,0,N,,Alton Bradford,Road,0,,0,Hopkinton,0,0,Fishing & Boating Area,0,0,849
,,,1,,0,0,0,0,1,,,,,,,1,0,,,Y,0,0,0,N,41.49929845,-71.751404,,0,Ashville Pond,,850,STA,,0,0,0,Ashville Pond is a Fishing & Boating Area located in Hopkinton,0,0,N,,Canonchet,Road,0,,0,Hopkinton,0,0,Fishing & Boating Area,0,0,850
,,,1,,0,0,0,0,1,,,,,,,1,0,,,Y,0,0,0,N,41.49842334,-71.71664004,,0,Tefft River Access,,851,STA,,0,0,0,Tefft River Access is a Fishing & Boating Area located in Hopkinton,0,0,N,,Mechanic,Street,0,,0,Hopkinton,0,0,Fishing & Boating Area,0,0,851
,,,1,,0,0,0,0,0,,,,,,,1,0,,,Y,0,0,0,N,41.4923402,-71.62826816,,0,Beaver River Fishing Access,,852,STA,,0,0,0,Beaver River Fishing Access is a Fishing & Boating Area located in Richmond,0,0,N,,Kingstown,Road,0,,0,Richmond,0,0,Fishing & Boating Area,0,0,852
,,,1,,0,0,0,0,1,,,,,,,1,0,,,Y,0,0,0,N,41.44525056,-71.681354,,0,Richmond Landing,,853,STA,,0,0,0,Richmond Landing is a Fishing & Boating Area located in Richmond,0,0,N,,Alton Carolina,Road,0,,0,Richmond,0,0,Fishing & Boating Area,0,0,853
,,,1,,0,0,0,0,1,,,,,,,1,0,,,Y,0,0,0,Y,41.45790294,-71.51523187,,0,Asa Pond,,854,MUN,,0,0,0,Asa Pond is a Local Park located in South Kingstown,0,0,N,,Asa Pond,Road,0,,0,South Kingstown,0,0,Local Park,0,0,854
,,,1,,0,0,0,0,1,,,,,,,1,0,,,Y,0,0,0,N,41.49913784,-71.56440216,,0,Barber Pond,,855,STA,,0,0,0,Barber Pond is a Fishing & Boating Area located in South Kingstown,0,0,N,,Barber's Pond,Road,0,,0,South Kingstown,0,0,Fishing & Boating Area,0,0,855
,,,1,,0,0,0,0,1,,,,,,,1,0,,,Y,0,0,0,N,41.46699509,-71.45019861,,0,Narrow River,,856,STA,,0,0,0,Narrow River is a Fishing & Boating Area located in South Kingstown,0,0,N,,Pollock,Avenue,0,,0,South Kingstown,0,0,Fishing & Boating Area,0,0,856
,,,1,,0,0,0,0,1,,,,,,,1,0,,,Y,0,0,0,N,41.63094661,-71.45379312,,0,Potowomut Pond,,857,STA,,0,0,0,Potowomut Pond is a Fishing & Boating Area located in Warwick,0,0,N,,Potowomut,Road,0,,0,Warwick,0,0,Fishing & Boating Area,0,0,857
,,,1,,0,0,0,0,1,,,,,,,1,0,,,Y,0,0,0,N,41.38182109,-71.80036587,,0,Chapman Pond,,858,MUN,,0,0,1,Chapman Pond is a Fishing & Boating Area located in Westerly,0,0,N,,Town Landfill,Road,0,,0,Westerly,0,0,Fishing & Boating Area,0,0,858
,,,1,,0,0,0,0,1,,,,,,,1,0,,,Y,0,0,0,N,41.39451304,-71.84104449,,0,White Rock,,859,MUN,,0,0,0,White Rock is a Fishing & Boating Area located in Westerly,0,0,N,,State 78,,0,,0,Westerly,0,0,Fishing & Boating Area,0,0,859
,,,1,,0,0,0,0,1,,,,,,,1,0,,,Y,0,0,0,N,41.5957219,-71.70377555,,0,Breakhart Pond,,860,STA,,0,0,0,Breakhart Pond is a Fishing & Boating Area located in Exeter,0,0,N,,Hicks,Trail,0,,0,Exeter,0,1,Fishing & Boating Area,0,0,860
,,,1,,0,0,0,0,1,,,,,,,1,0,,,Y,0,0,0,N,41.40629717,-71.74828321,,0,Bradford Landing,,861,STA,,0,0,0,Bradford Landing is a Fishing & Boating Area located in Westerly,0,0,N,,Main,Street,0,,0,Westerly,0,0,Fishing & Boating Area,0,0,861
,,,1,,0,0,0,0,1,,,,,,,1,0,,,Y,0,0,0,N,41.57684173,-71.44779227,,0,Pleasant St Boat Launch,,862,MUN,,0,0,0,Pleasant St Boat Launch is a Fishing & Boating Area located in North Kingstown,0,0,N,,Pleasant,Street,0,,0,North Kingstown,0,0,Fishing & Boating Area,0,0,862
,,,1,,0,0,1,0,1,,,,,,,1,0,,,Y,0,0,0,N,41.49255867,-71.42050988,,0,South Ferry Rd,,865,MUN,,0,0,0,South Ferry Rd is a Local Park located in Narragansett,0,0,N,,Ferry,Road,0,,0,Narragansett,0,0,Local Park,0,0,865
,,,1,,0,0,0,0,1,,,,,,,1,0,,,Y,0,0,0,N,41.73535787,-71.32526265,,0,Brickyard Pond,,866,MUN,,0,0,0,Brickyard Pond is a Fishing & Boating Area located in Barrington,0,0,N,,Legion,Way,0,,0,Barrington,0,0,Fishing & Boating Area,0,0,866
,,,1,,0,0,0,0,1,,,,,,,1,0,,,Y,0,0,0,N,41.96502458,-71.59770969,,0,Tarkiln Pond,,869,MUN,,0,0,0,Tarkiln Pond is a Fishing & Boating Area located in Burrillville,0,0,N,,Mowry,Road,0,,0,Burrillville,0,0,Fishing & Boating Area,0,0,869
,,,1,,0,0,0,0,1,,,,,,,1,0,,,Y,0,0,0,N,42.00080099,-71.76179221,,0,Wallum Lake,,870,STA,,0,0,0,Wallum Lake is a Fishing & Boating Area located in Burrillville,0,0,N,,Shore,Road,0,,0,Burrillville,0,0,Fishing & Boating Area,0,0,870
,,,1,,0,0,0,0,1,,,,,,,1,0,,,Y,0,0,0,N,41.97899153,-71.66511638,,0,Spring Lake,,871,STA,,0,0,0,Spring Lake is a Fishing & Boating Area located in Burrillville,0,0,N,,Black Hut,Road,0,,0,Burrillville,0,0,Fishing & Boating Area,0,0,871
,,,1,,0,0,0,0,1,,,,,,,1,0,,,Y,0,0,0,N,41.96621191,-71.78852496,,0,Wakefield Pond,,872,STA,,0,0,0,Wakefield Pond is a Fishing & Boating Area located in Burrillville,0,0,N,,Lee,Circle,0,,0,Burrillville,0,0,Fishing & Boating Area,0,0,872
,,,1,,0,0,0,0,1,,,,,,,1,0,,,Y,0,0,0,N,41.97000215,-71.72329774,,0,Wilson Reservoir,,873,STA,,0,0,0,Wilson Reservoir is a Fishing & Boating Area located in Burrillville,0,0,N,,Wallum Lake,Road,0,,0,Burrillville,0,0,Fishing & Boating Area,0,0,873
,,,1,,0,0,0,0,1,,,,,,,1,0,,,Y,0,0,0,Y,41.37857456,-71.67979539,,0,Barton C. Hurley Landing,,874,STA,,0,0,0,Barton C. Hurley Landing is a Fishing & Boating Area located in Charlestown,0,0,N,,Sanctuary,Road,0,,0,Charlestown,0,0,Fishing & Boating Area,0,0,874
,,,1,,0,0,0,0,1,,,,,,,1,0,,,Y,0,0,0,N,41.5604224,-71.68050355,,0,Roaring Brook Pond,,875,STA,,0,0,0,Roaring Brook Pond is a Fishing & Boating Area located in Exeter,0,0,N,,Teft Hill,Trail,0,,0,Exeter,0,0,Fishing & Boating Area,0,0,875
,,,1,,0,0,0,0,1,,,,,,,1,0,,,Y,0,1,0,N,41.57295831,-71.72106577,,0,Wood River @ Route 165,,876,STA,,0,0,1,Wood River @ Route 165 is a Fishing & Boating Area located in Exeter,0,0,N,,Ten Rod,Road,0,,0,Exeter,0,0,Fishing & Boating Area,0,0,876
,,,1,,0,0,0,0,1,,,,,,,1,0,,,Y,0,0,0,N,41.87563157,-71.69072589,,0,Keech Pond,,877,STA,,0,0,0,Keech Pond is a Fishing & Boating Area located in Glocester,0,0,N,,Indian,Trail,0,,0,Glocester,0,0,Fishing & Boating Area,0,0,877
,,,1,,0,0,0,0,1,,,,,,,1,0,,,Y,0,0,0,N,41.89692732,-71.67769486,,0,Smith & Sayles Reservoir,,878,STA,,0,0,0,Smith & Sayles Reservoir is a Fishing & Boating Area located in Glocester,0,0,N,,Point,Way,0,,0,Glocester,0,0,Fishing & Boating Area,0,0,878
,,,1,,0,0,0,0,1,,,,,,,1,0,,,Y,0,0,0,N,41.49346755,-71.71589692,,0,Switch Rd Canoe Access,,879,MUN,,0,0,0,Switch Rd Canoe Access is a Fishing & Boating Area located in Hopkinton,0,0,N,,Switch,Road,0,,0,Hopkinton,0,0,Fishing & Boating Area,0,0,879
,,,1,,0,0,0,0,1,,,,,,,1,0,,,Y,0,0,0,N,41.46338338,-71.1931316,,0,Sakonnet Point,,880,STA,,0,0,0,Sakonnet Point is a Fishing & Boating Area located in Little Compton,0,0,N,,Sakonnet Point,Road,0,,0,Little Compton,0,0,Fishing & Boating Area,0,0,880
,,,1,,0,0,0,0,1,,,,,,,1,0,,,Y,0,0,0,N,41.38319854,-71.50748385,,0,Galilee Boat Ramp,,881,STA,,0,0,0,Galilee Boat Ramp is a Fishing & Boating Area located in Narragansett,0,0,N,,Great Island,Road,0,,0,Narragansett,0,0,Fishing & Boating Area,0,0,881
,,,1,,0,0,0,0,1,,,,,,,1,0,,,Y,0,0,0,N,41.44941048,-71.44981533,,0,Narrow River Canoe Access,,882,FED,,0,0,0,Narrow River Canoe Access is a Fishing & Boating Area located in Narragansett,0,0,N,,Boston Neck,Road,0,,0,Narragansett,0,0,Fishing & Boating Area,0,0,882
,,,1,,0,0,0,0,1,,,,,,,1,0,,,Y,0,0,0,N,41.5196097,-71.44458262,,0,Pettaquamscutt Pond,,883,MUN,,0,0,0,Pettaquamscutt Pond is a Fishing & Boating Area located in North Kingstown,0,0,N,,Gilbert Stuart,Road,0,,0,North Kingstown,0,0,Fishing & Boating Area,0,0,883
,,,1,,0,0,0,0,1,,,,,,,1,0,,,Y,0,0,0,N,41.51565261,-71.70283198,,0,Wyoming Dam,,884,STA,,0,0,0,Wyoming Dam is a Fishing & Boating Area located in Richmond,0,0,N,,Bridge,Street,0,,0,Richmond,0,0,Fishing & Boating Area,0,0,884
,,,1,,0,0,0,0,1,,,,,,,1,0,,,Y,0,0,0,N,41.47410787,-71.46953362,,0,Indian Lake Boat Ramp,,885,MUN,,0,0,0,Indian Lake Boat Ramp is a Fishing & Boating Area located in South Kingstown,0,0,N,,Indian,Trail,0,,0,South Kingstown,0,0,Fishing & Boating Area,0,0,885
,,,1,,0,0,0,0,1,,,,,,,1,0,,,Y,0,0,0,N,41.45082335,-71.61579911,,0,Biscuit City,,886,STA,,0,0,0,Biscuit City is a Fishing & Boating Area located in Richmond,0,0,N,,Biscuit City,Road,0,,0,Richmond,0,0,Fishing & Boating Area,0,0,886
,,,1,,0,0,0,0,1,,,,,,,1,0,,,Y,0,0,0,N,41.48254871,-71.5512686,,0,Taylors Landing,,887,STA,,0,0,0,Taylors Landing is a Fishing & Boating Area located in South Kingstown,0,0,N,,Kingstown,Road,0,,0,South Kingstown,0,0,Fishing & Boating Area,0,0,887
,,,1,,0,0,0,0,1,,,,,,,1,0,,,Y,0,0,0,N,41.42608805,-71.54908523,,0,Tucker Pond,,888,STA,,0,0,0,Tucker Pond is a Fishing & Boating Area located in South Kingstown,0,0,N,,Tuckertown,Road,0,,0,South Kingstown,0,0,Fishing & Boating Area,0,0,888
,,,1,,0,0,0,0,1,,,,,,,1,0,,,Y,0,0,0,N,41.42952122,-71.56781604,,0,Worden Pond Boat Launch,,889,STA,,0,0,0,Worden Pond Boat Launch is a Fishing & Boating Area located in South Kingstown,0,0,N,,Worden's Pond,Road,0,,0,South Kingstown,0,0,Fishing & Boating Area,0,0,889
,,,1,,0,0,0,0,1,,,,,,,1,0,,,Y,0,0,0,N,41.63361436,-71.14877494,,0,Stafford Pond,,890,STA,,0,0,0,Stafford Pond is a Fishing & Boating Area located in Tiverton,0,0,N,,Old Stafford,Road,0,,0,Tiverton,0,0,Fishing & Boating Area,0,0,890
,,,1,,0,0,0,0,1,,,,,,,1,0,,,Y,0,0,0,N,41.37498351,-71.83214139,,0,Main Street Boat Ramp,,891,STA,,0,0,0,Main Street Boat Ramp is a Fishing & Boating Area located in Westerly,0,0,N,,Main,Street,0,,0,Westerly,0,0,Fishing & Boating Area,0,0,891
,,,1,,0,0,0,0,1,,,,,,,1,0,,,Y,0,0,0,Y,41.75379483,-71.35272985,,0,Haines Park Boat Ramp,,892,STA,,0,0,1,Haines Park Boat Ramp is a Fishing & Boating Area located in East Providence,0,0,N,,Beach Point,Drive,0,,0,East Providence,0,0,Fishing & Boating Area,0,0,892
,,,1,,0,0,0,0,1,,,,,,,1,0,,,Y,0,0,0,N,41.55602721,-71.68527472,,0,Browning Mill Pond,,893,STA,,0,0,0,Browning Mill Pond is a Fishing & Boating Area located in Richmond,0,0,N,,K And G Ranch,Road,0,,0,Richmond,0,0,Fishing & Boating Area,0,0,893
,,,1,,0,0,0,0,1,,,,,,,1,0,,,Y,0,0,0,N,41.42215262,-71.45535413,,0,Monahan's Dock Fishing And Boating Access,,894,STA,,0,0,0,Monahan's Dock Fishing And Boating Access is a Fishing & Boating Area located in Narragansett,0,0,N,,Ocean,Road,0,,0,Narragansett,0,0,Fishing & Boating Area,0,0,894
,,,1,,0,0,0,0,1,,,,,,,1,0,,,Y,0,0,0,N,41.64326766,-71.607758,,0,Big River @ Burnt Saw Mill Rd,,895,STA,,0,0,0,Big River @ Burnt Saw Mill Rd is a Fishing & Boating Area located in West Greenwich,0,0,N,,Burnt Sawmill,Road,0,,0,West Greenwich,0,0,Fishing & Boating Area,0,0,895
,,,1,,0,0,0,0,1,,,,,,,1,0,,,Y,0,0,0,N,41.64941311,-71.61434972,,0,Big River@ Weaver Hill Road,,896,STA,,0,0,0,Big River@ Weaver Hill Road is a Fishing & Boating Area located in West Greenwich,0,0,N,,Weaver Hill ,Road,0,,0,West Greenwich,0,0,Fishing & Boating Area,0,0,896
,,,1,,0,0,0,0,1,,,,,,,1,0,,,Y,0,0,0,N,41.63637741,-71.57355039,,0,Tarbox Pond,,897,STA,,0,0,0,Tarbox Pond is a Fishing & Boating Area located in West Greenwich,0,0,N,,Hopkins Hill,Road,0,,0,West Greenwich,0,0,Fishing & Boating Area,0,0,897
,,,1,,0,0,0,0,1,,,,,,,1,0,,,Y,0,0,0,N,41.82413008,-71.70737016,,0,Hopkins Mill Pond,,898,MUN,,0,0,0,Hopkins Mill Pond is a Fishing & Boating Area located in Foster,0,0,N,,Winsor,Road,0,,0,Foster,0,0,Fishing & Boating Area,0,0,898
,,,1,,0,0,0,0,1,,,,,,,1,0,,,Y,0,0,0,N,41.51210311,-71.70646264,,0,Wood River Fishing Access @ Chariho Little League,,899,MUN,,0,0,0,Wood River Fishing Access @ Chariho Little League is a Fishing & Boating Area located in Hopkinton,0,0,N,,Nooseneck Hill,Road,0,,0,Hopkinton,0,0,Fishing & Boating Area,0,0,899
,,,1,,0,0,0,0,1,,,,,,,1,0,,,Y,0,0,0,N,41.73108571,-71.56535855,,0,Pawtuxet River Fishing Access,,900,MUN,,0,0,0,Pawtuxet River Fishing Access is a Fishing & Boating Area located in Scituate,0,0,N,,Hope Furnace,Road,0,,0,Scituate,0,0,Fishing & Boating Area,0,0,900
,,,1,,0,0,0,0,1,,,,,,,1,0,,,Y,0,0,0,N,41.97085488,-71.67879372,,0,Harrisville Pond Fishing Access,,902,STA,,0,0,0,Harrisville Pond Fishing Access is a Fishing & Boating Area located in Burrillville,0,0,N,,Sherman Farm,Road,0,,0,Burrillville,0,0,Fishing & Boating Area,0,0,902
,,,1,,0,0,0,0,1,,,,,,,1,0,,,Y,0,0,0,Y,41.56043459,-71.47568338,,0,Bellville Pond,,903,MUN,,0,0,0,Bellville Pond is a Fishing & Boating Area located in North Kingstown,0,0,N,,Oak Hill,Road,0,,0,North Kingstown,0,1,Fishing & Boating Area,0,0,903
,,,1,,0,0,0,0,1,,,,,,,1,0,,,Y,0,0,0,N,41.57381642,-71.28792903,,0,Weaver Cove,,904,MUN,,0,0,0,Weaver Cove is a Fishing & Boating Area located in Portsmouth,0,0,Y,,Burma,Road,0,,0,Portsmouth,0,0,Fishing & Boating Area,0,0,904
,,,1,,0,0,0,0,1,,,,,,,1,0,,,Y,0,0,0,N,41.67000773,-71.27833438,,0,State Street Boat Launch,,906,MUN,,0,0,0,State Street Boat Launch is a Fishing & Boating Area located in Bristol,0,0,N,,State,Street,0,,0,Bristol,0,0,Fishing & Boating Area,0,0,906
,,,1,,0,0,0,0,1,,,,,,,1,0,,,Y,0,0,0,N,41.72629215,-71.28567973,,0,Town Dock,,907,MUN,,0,0,0,Town Dock is a Fishing & Boating Area located in Warren,0,0,N,,Water,Street,0,,0,Warren,0,0,Fishing & Boating Area,0,0,907
,,,1,,0,0,0,0,1,,,,,,,1,0,,,Y,0,0,0,N,41.8988402,-71.39031846,,0,Central Falls Landing,,910,MUN,,0,0,0,Central Falls Landing is a Local Park located in Central Falls,0,0,Y,,Broad,Street,0,,0,Central Falls,0,0,Local Park,0,0,910
,,,1,,0,0,0,0,1,,,,,,,1,0,,,Y,0,0,0,Y,41.77551392,-71.35593482,,0,Willet Pond,,911,MUN,,0,0,0,Willet Pond is a Fishing & Boating Area located in East Providence,0,0,N,,Willett,Avenue,0,,0,East Providence,0,0,Fishing & Boating Area,0,0,911
,,,1,,0,0,0,0,1,,,,,,,1,0,,,Y,0,0,0,N,41.61980518,-71.30502224,,0,Homestead Boat Ramp,,912,MUN,,0,0,0,Homestead Boat Ramp is a Fishing & Boating Area located in Portsmouth,0,0,N,,Narragansett,Avenue,0,,0,Portsmouth,0,0,Fishing & Boating Area,0,0,912
,,,1,,0,0,0,0,1,,,,,,,1,0,,,Y,0,0,0,N,41.363721,-71.62668927,,0,Charlestown Beach Kayak Launch,,913,MUN,,0,0,0,Charlestown Beach Kayak Launch is a Fishing & Boating Area located in Charlestown,0,0,N,,Charlestown Beach,Road,0,,0,Charlestown,0,0,Fishing & Boating Area,0,0,913
,,,1,,0,0,0,0,1,,,,,,,1,0,,,Y,0,0,0,N,41.56528759,-71.71535608,,0,High Banks,,914,STA,,0,0,0,High Banks is a Fishing & Boating Area located in Exeter,0,0,N,,Deep Pond,Trail,0,,0,Exeter,0,0,Fishing & Boating Area,0,0,914
,,,1,,0,0,0,0,1,,,,,,,1,0,,,Y,0,0,0,N,41.54354105,-71.15054525,,0,Simmons Mill Pond,,915,STA,,0,0,0,Simmons Mill Pond is a Fishing & Boating Area located in Little Compton,0,0,N,,Colebrook,Road,0,,0,Little Compton,0,0,Fishing & Boating Area,0,0,915
,,,1,,0,0,0,0,1,,,,,,,1,0,,,Y,0,0,0,N,41.82150019,-71.40550855,,0,Corliss Landing,,916,MUN,,0,0,0,Corliss Landing is a Local Park located in Providence,0,0,Y,,Water,Street,0,,0,Providence,0,0,Local Park,0,0,916
,,,1,,0,0,0,0,1,,,,,,,1,0,,,Y,0,0,0,N,41.64509855,-71.7568902,,0,Tillinghast Pond,,918,STA,,0,0,1,Tillinghast Pond is a Fishing & Boating Area located in West Greenwich,0,0,N,,Plain,Road,0,,0,West Greenwich,0,0,Fishing & Boating Area,0,0,918
,,,0,,0,0,0,0,0,,,,,,,1,0,,,Y,0,1,0,N,42.01098685,-71.55272771,,0,High Rocks Gorge,,919,STA,,0,0,0,High Rocks Gorge is a Conservation Area located in North Smithfield,0,0,N,,E Harkness,Road,0,,0,North Smithfield,0,0,Conservation Area,0,0,919
,,,0,,0,0,0,0,0,,,,,,,0,0,,,Y,0,0,0,N,41.55591511,-71.26147032,,0,Oakland Forest,,920,NGO,,0,0,0,Oakland Forest is a Conservation Area located in Portsmouth,0,0,Y,,Oakland Farm,Road,0,,0,Portsmouth,0,1,Conservation Area,0,0,920
,,,0,,0,0,1,0,0,,,,,,,1,0,,,Y,0,0,0,N,41.36205057,-71.48078523,,0,Rose Nulman Memorial Park,,921,PRV,,0,0,0,Rose Nulman Memorial Park is a Local Park located in Narragansett,0,0,N,,Ocean,Road,0,,0,Narragansett,0,0,Local Park,0,0,921
,,,0,,0,0,0,0,0,,,,,,,0,0,,,Y,0,0,0,N,41.60826271,-71.50645569,,0,Briggs/Boesch Farm,,927,MUN,,0,0,0,Briggs/Boesch Farm is a Conservation Area located in East Greenwich,0,0,N,,South,Road,0,,0,East Greenwich,0,1,Conservation Area,0,0,927
,,,0,,0,0,0,1,0,,,,,,,0,0,,,Y,0,0,0,N,41.84781017,-71.34557665,,0,Ten Mile River Greenway,,929,MUN,,0,0,1,Ten Mile River Greenway is a Local Park located in East Providence,0,0,N,,Ferris,,0,,0,East Providence,0,0,Local Park,0,1,929
,,,0,,0,0,0,0,0,,,,,,,0,0,,,Y,0,0,0,N,41.50075928,-71.26956169,,0,Paradise Valley ParK,,932,MUN,,0,0,0,Paradise Valley ParK is a Local Park located in Middletown,0,0,N,,Prospect,Avenue,0,,0,Middletown,0,0,Local Park,0,1,932
,,,1,,1,0,0,0,1,,,,,,,1,0,,,Y,0,0,0,N,41.86564367,-71.4929287,,0,Lee Romano Field,,939,MUN,,1,0,0,Lee Romano Field is a Athletic Field located in North Providence,0,0,N,,Riverside,Avenue,0,,0,North Providence,0,0,Athletic Field,0,1,939
,,,0,,0,0,0,0,0,,,,,,,0,0,,,Y,0,0,0,N,41.87717767,-71.38302422,,0,Hodgson Rotary Park,,947,MUN,,0,0,0,Hodgson Rotary Park is a Local Park located in Pawtucket,0,0,N,,Roosevelt,Avenue,0,,0,Pawtucket,0,0,Local Park,0,0,947
,,,1,,0,0,0,0,0,,,,,,,0,0,,,Y,0,0,1,N,41.82507848,-71.41288479,,0,Bank of Americal City Center,,948,MUN,,0,0,1,Bank of Americal City Center is a Local Park located in Providence,0,0,N,,Kennedy,Plaza,0,,0,Providence,0,0,Local Park,0,0,948
,,,0,,0,0,0,0,0,,,,,,,0,0,,,Y,0,0,0,N,41.45130296,-71.48089862,,0,South Kingstown Dog Park,,964,MUN,,0,0,0,South Kingstown Dog Park is a Local Park located in South Kingstown,0,0,N,,St Dominic ,Road,0,,0,South Kingstown,0,0,Local Park,0,0,964
,,,1,,0,0,0,1,0,,,,,,,0,0,,,Y,0,0,0,N,41.69081879,-71.69921112,,0,Washington Secondary Bikepath,,969,STA,,0,0,0,Washington Secondary Bikepath is a Local Park located in Coventry,0,0,N,,Log Bridge,,0,,0,Coventry,0,0,Local Park,0,1,969
,,,0,,0,0,0,1,0,,,,,,,1,0,,,Y,0,0,0,N,41.81975348,-71.44895709,,0,Riverside Park,,971,MUN,,1,0,1,Riverside Park is a Local Park located in Providence,0,0,N,,Aleppo,Street,0,,0,Providence,0,0,Local Park,0,1,971
,,,0,,0,0,0,1,0,,,,,,,0,0,,,Y,0,0,0,N,41.43936569,-71.49883057,,0,South County Bike Path,,972,MUN,,0,0,1,South County Bike Path is a Local Park located in South Kingstown,0,0,N,,Main,,0,,0,South Kingstown,0,0,Local Park,0,1,972
,,,0,,0,0,0,1,0,,,,,,,0,0,,,Y,0,0,0,N,41.483037,-71.56230466,,0,South County Bike Path,,973,MUN,,0,0,1,South County Bike Path is a Local Park located in South Kingstown,0,0,N,,Railroad,,0,,0,South Kingstown,0,0,Local Park,0,1,973
,,,0,,0,0,0,1,0,,,,,,,0,0,,,Y,0,0,0,N,41.90715993,-71.40089696,,0,Blackstone Bikeway,,974,STA,,0,0,0,Blackstone Bikeway is a State Park located in Lincoln,0,0,N,,John,,0,,0,Lincoln,0,0,State Park,0,1,974
,,,0,,0,0,0,1,0,,,,,,,0,0,,,Y,0,0,0,N,41.93764161,-71.4343299,,0,Blackstone Bikeway,,975,STA,,0,0,0,Blackstone Bikeway is a State Park located in Lincoln,0,0,N,,Lower River,,0,,0,Lincoln,0,0,State Park,0,1,975
,,,0,,0,0,0,1,0,,,,,,,0,0,,,Y,0,0,0,N,41.93954059,-71.44416746,,0,Blackstone Bikeway,,976,STA,,0,0,1,Blackstone Bikeway is a State Park located in Lincoln,0,0,N,,Rte 295,,0,,0,Lincoln,0,0,State Park,0,1,976
,,,0,,0,0,0,1,0,,,,,,,0,0,,,Y,0,0,0,N,41.95310107,-71.45294413,,0,Blackstone Bikeway,,977,STA,,0,0,0,Blackstone Bikeway is a State Park located in Lincoln,0,0,N,,School,Bikeway,0,,0,Lincoln,0,0,State Park,0,1,977
,,,0,,0,0,0,1,0,,,,,,,0,0,,,Y,0,0,0,N,41.96827039,-71.46697109,,0,Blackstone Bikeway,,978,STA,,0,0,0,Blackstone Bikeway is a State Park located in Lincoln,0,0,N,,New River,Bikeway,0,,0,Lincoln,0,0,State Park,0,1,978
,,,0,,0,0,0,1,0,,,,,,,0,0,,,Y,0,0,0,N,41.99613113,-71.49423089,,0,Blackstone Bikeway,,979,STA,,0,0,1,Blackstone Bikeway is a State Park located in Woonsocket,0,0,N,,Davison Ext,Bikeway,0,,0,Woonsocket,0,0,State Park,0,1,979
,,,0,,0,0,0,1,0,,,,,,,0,0,,,Y,0,0,0,N,41.86831267,-71.34316793,,0,Ten Mile River Greenway,,980,MUN,,0,0,1,Ten Mile River Greenway is a Local Park located in Pawtucket,0,0,N,,Slater Memorial Park,,0,,0,Pawtucket,0,0,Local Park,0,1,980
,,,0,,0,0,0,1,0,,,,,,,0,0,,,Y,0,0,0,N,41.81330494,-71.3883932,,0,East Bay Bike Path,,981,STA,,0,0,0,East Bay Bike Path is a State Park located in East Providence,0,0,N,,Veterans Parkway,,0,,0,East Providence,0,0,State Park,0,1,981
,,,0,,0,0,0,1,0,,,,,,,0,0,,,Y,0,0,0,N,41.77250279,-71.36255605,,0,East Bay Bike Path,,982,STA,,0,0,0,East Bay Bike Path is a State Park located in East Providence,0,0,N,,Bullocks Point,,0,,0,East Providence,0,0,State Park,0,1,982
,,,0,,0,0,0,1,0,,,,,,,0,0,,,Y,0,0,0,N,41.7539042,-71.34900799,,0,East Bay Bike Path,,983,STA,,0,0,1,East Bay Bike Path is a Local Park located in Barrington,0,0,N,,Metropolitan Park,,0,,0,Barrington,0,0,Local Park,0,1,983
,,,0,,0,0,0,1,0,,,,,,,0,0,,,Y,0,0,0,N,41.68690959,-71.28395503,,0,East Bay Bike Path,,984,STA,,0,0,0,East Bay Bike Path is a State Park located in Bristol,0,0,N,,Asylum,Road,0,,0,Bristol,0,0,State Park,0,1,984
,,,0,,0,0,0,1,0,,,,,,,0,0,,,Y,0,0,0,N,41.80142462,-71.44331982,,0,Washington Secondary Bikepath,,985,MUN,,0,0,0,Washington Secondary Bikepath is a Local Park located in Cranston,0,0,N,,Depot,,0,,0,Cranston,0,0,Local Park,0,1,985
,,,0,,0,0,0,1,0,,,,,,,0,0,,,Y,0,0,0,N,41.78859907,-71.45405211,,0,Washington Secondary Bikepath,,986,MUN,,0,0,0,Washington Secondary Bikepath is a Local Park located in Cranston,0,0,N,,Oak,,0,,0,Cranston,0,0,Local Park,0,1,986
,,,0,,0,0,0,1,0,,,,,,,0,0,,,Y,0,0,0,N,41.75859166,-71.47585682,,0,Washington Secondary Bikepath,,987,MUN,,0,0,0,Washington Secondary Bikepath is a Local Park located in Cranston,0,0,N,,Sherman,,0,,0,Cranston,0,0,Local Park,0,1,987
,,,0,,0,0,0,1,0,,,,,,,0,0,,,Y,0,0,0,N,41.72894193,-71.48472408,,0,Washington Secondary Bikepath,,988,MUN,,0,0,0,Washington Secondary Bikepath is a Local Park located in Warwick,0,0,N,,West Natick,,0,,0,Warwick,0,0,Local Park,0,1,988
,,,0,,0,0,0,1,0,,,,,,,0,0,,,Y,0,0,0,N,41.71548853,-71.51493243,,0,Washington Secondary Bikepath,,989,MUN,,0,0,0,Washington Secondary Bikepath is a Local Park located in West Warwick,0,0,N,,Hay,,0,,0,West Warwick,0,0,Local Park,0,1,989
,,,0,,0,0,0,1,0,,,,,,,0,0,,,Y,0,0,0,N,41.69466874,-71.547552,,0,Washington Secondary Bikepath,,990,MUN,,0,0,0,Washington Secondary Bikepath is a Local Park located in Coventry,0,0,N,,Pilgrim,,0,,0,Coventry,0,0,Local Park,0,1,990
,,,0,,0,0,0,1,0,,,,,,,0,0,,,Y,0,0,0,N,41.70414343,-71.61897791,,0,Washington Secondary Bikepath,,991,STA,,0,0,0,Washington Secondary Bikepath is a Local Park located in Coventry,0,0,N,,Pinehaven,,0,,0,Coventry,0,0,Local Park,0,1,991
,,,0,,0,0,0,1,0,,,,,,,0,0,,,Y,0,0,0,N,41.62019171,-71.42212785,,0,Quonset Bike Path,,992,STA,,0,0,0,Quonset Bike Path is a Local Park located in North Kingstown,0,0,N,,Newcomb,,0,,0,North Kingstown,0,0,Local Park,0,1,992
,,,0,,0,0,0,1,0,,,,,,,0,0,,,Y,0,0,0,N,41.82272572,-71.44009779,,0,Fred Lippitt Woonasquatucket River Greenway,,993,MUN,,0,0,0,Fred Lippitt Woonasquatucket River Greenway is a Local Park located in Providence,0,0,N,,Valley,,0,,0,Providence,0,0,Local Park,0,1,993
,,,0,,0,0,0,1,0,,,,,,,0,0,,,Y,0,0,0,N,41.81965414,-71.44810307,,0,Fred Lippitt Woonasquatucket River Greenway,,994,MUN,,0,0,0,Fred Lippitt Woonasquatucket River Greenway is a Local Park located in Providence,0,0,N,,Aleppo,,0,,0,Providence,0,0,Local Park,0,1,994
,,,0,,0,0,0,1,0,,,,,,,0,0,,,Y,0,0,0,N,41.82650537,-71.46044214,,0,Fred Lippitt Woonasquatucket River Greenway,,995,MUN,,0,0,0,Fred Lippitt Woonasquatucket River Greenway is a Local Park located in Providence,0,0,N,,Manton,Avenue,0,,0,Providence,0,0,Local Park,0,1,995
,,,0,,0,0,0,1,0,,,,,,,0,0,,,Y,0,0,0,N,41.83454685,-71.47295917,,0,Fred Lippitt Woonasquatucket River Greenway,,996,MUN,,0,0,0,Fred Lippitt Woonasquatucket River Greenway is a Local Park located in Johnston,0,0,N,,Goldsmith,,0,,0,Johnston,0,0,Local Park,0,1,996
