ID,F_Name,F_Type,Street,Town,OwnerTyp,ConsType,ConsJuri,P_Ground,B_Field,S_Field,F_Field,M_Field,B_Court,T_Court,V_Court,Track,SkatPark,IH_Rink,SH_Rink,Golf,Fishing,Boating,Hunting,Trails,Beach,Pool,ActiveRec,Lon,Lat,Summary
0,Paradise Valley Park,Local Park,Prospect,Middletown,MUN,EAS,NGO,0,0,0,0,0,0,0,0,0,0,0,0,0,0,0,0,1,0,0,0,0,0,Paradise Valley Park is a Local Park located in Middletown
0,Pleasant Street Boat Ramp,Fishing & Boating Area,Pleasant,North Kingstown,MUN,FEE,MUN,0,0,0,0,0,0,0,0,0,0,0,0,0,0,1,0,0,0,0,0,0,0,Pleasant Street Boat Ramp is a Fishing & Boating Area located in North Kingstown
0,Briggs/Boesch Farm,Conservation Area,South,East Greenwich,MUN,EAS,STA,0,0,0,0,0,0,0,0,0,0,0,0,0,0,0,0,1,0,0,0,0,0,Briggs/Boesch Farm is a Conservation Area located in East Greenwich
0,Cocumscussoc Brook Preserve,Conservation Area,Post Road,North Kingstown,MUN,FEE,MUN,0,0,0,0,0,0,0,0,0,0,0,0,0,0,0,0,1,0,0,0,0,0,Cocumscussoc Brook Preserve is a Conservation Area located in North Kingstown
0,Scalloptown Park,Conservation Area,Crompton,East Greenwich,MUN,CIN,MUN,0,0,0,0,0,0,0,0,0,0,0,0,0,1,0,0,1,0,0,0,0,0,Scalloptown Park is a Conservation Area located in East Greenwich
0,Lee Romano Field,Athletic Field,Greystone,North Providence,MUN,CIN,MUN,1,1,0,0,0,0,0,0,0,0,0,0,0,1,1,0,0,0,0,1,0,0,Lee Romano Field is a Athletic Field located in North Providence
2,Buck Hill Management Area,Management Area,Benson Mountain,Burrillville,STA,FEE,STA,0,0,0,0,0,0,0,0,0,0,0,0,0,1,0,1,1,0,0,1,-71.78728485,41.99706268,Buck Hill Management Area is a Management Area located in Burrillville
3,Wilson Reservoir,Fishing & Boating Area,Wallum Lake,Burrillville,STA,FEE,STA,0,0,0,0,0,0,0,0,0,0,0,0,0,1,1,0,0,0,0,1,-71.72329711,41.97000122,Wilson Reservoir is a Fishing & Boating Area located in Burrillville
5,Barton C. Hurley Landing,Fishing & Boating Area,Sanctuary,Charlestown,STA,FEE,STA,0,0,0,0,0,0,0,0,0,0,0,0,0,1,1,0,0,0,0,1,-71.67979431,41.37857437,Barton C. Hurley Landing is a Fishing & Boating Area located in Charlestown
6,Bucks Horn Brook,Fishing & Boating Area,Lewis Farm,Coventry,STA,FEE,STA,0,0,0,0,0,0,0,0,0,0,0,0,0,1,0,0,0,0,0,1,-71.7568283,41.69536209,Bucks Horn Brook is a Fishing & Boating Area located in Coventry
8,Trestle Trail East,State Park,Lewis Farm,Coventry,STA,FEE,STA,0,0,0,0,0,0,0,0,0,0,0,0,0,1,0,0,0,0,0,1,-71.76157379,41.6903038,Trestle Trail East is a State Park located in Coventry
10,Carl's Pond,Fishing & Boating Area,Jencks,Cumberland,STA,FEE,STA,0,0,0,0,0,0,0,0,0,0,0,0,0,1,1,0,0,0,0,1,-71.44660186,42.01313018,Carl's Pond is a Fishing & Boating Area located in Cumberland
11,Falls River - Austin Farm,Fishing & Boating Area,Plain,Exeter,STA,FEE,STA,0,0,0,0,0,0,0,0,0,0,0,0,0,1,0,0,0,0,0,1,-71.7457962,41.59833526,Falls River - Austin Farm is a Fishing & Boating Area located in Exeter
12,Lower Fall River,Fishing & Boating Area,Midway Rail,Exeter,STA,FEE,STA,0,0,0,0,0,0,0,0,0,0,0,0,0,1,0,0,0,0,0,1,-71.72078704,41.58025741,Lower Fall River is a Fishing & Boating Area located in Exeter
13,Simon Jordan Fishing Access,Fishing & Boating Area,Brookie,Exeter,STA,FEE,STA,0,0,0,0,0,0,0,0,0,0,0,0,0,1,0,0,0,0,0,1,-71.73101043,41.58738327,Simon Jordan Fishing Access is a Fishing & Boating Area located in Exeter
14,Upper Flat River,Fishing & Boating Area,Plain,Exeter,STA,FEE,STA,0,0,0,0,0,0,0,0,0,0,0,0,0,1,0,0,0,0,0,1,-71.72031402,41.59562683,Upper Flat River is a Fishing & Boating Area located in Exeter
15,Lower Flat River,Fishing & Boating Area,Arcadia Man Area,Exeter,STA,FEE,STA,0,0,0,0,0,0,0,0,0,0,0,0,0,1,0,0,0,0,0,1,-71.71899414,41.57950592,Lower Flat River is a Fishing & Boating Area located in Exeter
16,Cold Spring Park,Local Park,Katherine,Woonsocket,MUN,EAS,FED,1,2,0,0,0,1,2,0,0,0,0,0,0,1,1,0,0,0,0,1,-71.52519989,42.00914001,Cold Spring Park is a Local Park located in Woonsocket
17,World War II Park,State Park,School,Woonsocket,STA,EAS,FED,1,0,0,0,0,0,4,0,0,0,0,0,0,0,0,0,0,0,1,1,-71.50952911,42.01003646,World War II Park is a State Park located in Woonsocket
18,Paris Brook,Fishing & Boating Area,Mount Tom,Exeter,STA,FEE,STA,0,0,0,0,0,0,0,0,0,0,0,0,0,1,0,0,0,0,0,1,-71.72914123,41.56467056,Paris Brook is a Fishing & Boating Area located in Exeter
19,Roaring Brook Pond,Fishing & Boating Area,Teft Hill,Exeter,STA,FEE,STA,0,0,0,0,0,0,0,0,0,0,0,0,0,1,1,0,0,0,0,1,-71.68050384,41.56042098,Roaring Brook Pond is a Fishing & Boating Area located in Exeter
20,Step Stone Falls,Fishing & Boating Area,Falls River,West Greenwich,STA,FEE,STA,0,0,0,0,0,0,0,0,0,0,0,0,0,1,0,0,0,0,0,1,-71.76062774,41.61254882,Step Stone Falls is a Fishing & Boating Area located in West Greenwich
22,Wood River @rte 165,Fishing & Boating Area,Ten Rod,Exeter,STA,FEE,STA,0,0,0,0,0,0,0,0,0,0,0,0,0,1,1,0,0,0,0,1,-71.72106933,41.57295989,Wood River @rte 165 is a Fishing & Boating Area located in Exeter
24,Ponagansett,Fishing & Boating Area,Pine Tree,Foster,STA,FEE,STA,0,0,0,0,0,0,0,0,0,0,0,0,0,1,0,0,0,0,0,1,-71.7432022,41.84536743,Ponagansett is a Fishing & Boating Area located in Foster
26,Keech Pond,Fishing & Boating Area,Indian,Glocester,STA,FEE,STA,0,0,0,0,0,0,0,0,0,0,0,0,0,1,1,0,0,0,0,1,-71.69072723,41.87563323,Keech Pond is a Fishing & Boating Area located in Glocester
27,Smith & Sayles Reservoir,Fishing & Boating Area,Point,Glocester,STA,FEE,STA,0,0,0,0,0,0,0,0,0,0,0,0,0,1,1,0,0,0,0,1,-71.67769622,41.89692687,Smith & Sayles Reservoir is a Fishing & Boating Area located in Glocester
28,Mechanic St,Fishing & Boating Area,Mechanic,Hopkinton,STA,FEE,STA,0,0,0,0,0,0,0,0,0,0,0,0,0,1,0,0,0,0,0,1,-71.71673583,41.50318527,Mechanic St is a Fishing & Boating Area located in Hopkinton
29,Switch Rd Canoe Access,Fishing & Boating Area,Hope Valley,Hopkinton,MUN,CIN,MUN,0,0,0,0,0,0,0,0,0,0,0,0,0,1,1,0,0,0,0,1,-71.7158966,41.49346923,Switch Rd Canoe Access is a Fishing & Boating Area located in Hopkinton
30,Sakonnet Point,Fishing & Boating Area,Sakonnet Point,Little Compton,STA,FEE,STA,0,0,0,0,0,0,0,0,0,0,0,0,0,1,1,0,0,0,0,1,-71.19313049,41.46338272,Sakonnet Point is a Fishing & Boating Area located in Little Compton
31,Cass Park,Local Park,Newland,Woonsocket,MUN,EAS,FED,1,2,3,0,3,1,5,0,1,0,0,0,0,0,0,0,0,0,0,1,-71.48963928,42.00384521,Cass Park is a Local Park located in Woonsocket
33,Galilee,Fishing & Boating Area,Great Island,Narragansett,STA,FEE,STA,0,0,0,0,0,0,0,0,0,0,0,0,0,1,1,0,0,0,0,1,-71.50748443,41.38319778,Galilee is a Fishing & Boating Area located in Narragansett
34,Narrow River Canoe Access,Fishing & Boating Area,Boston Neck,Narragansett,FED,FEE,FED,0,0,0,0,0,0,0,0,0,0,0,0,0,1,1,0,0,0,0,1,-71.44981384,41.44940948,Narrow River Canoe Access is a Fishing & Boating Area located in Narragansett
42,Carolina Trout Pond,Fishing & Boating Area,Coondog,Richmond,STA,FEE,STA,0,0,0,0,0,0,0,0,0,0,0,0,0,1,0,0,0,0,0,1,-71.70184326,41.48576736,Carolina Trout Pond is a Fishing & Boating Area located in Richmond
43,Meadow Brook At Carolina,Fishing & Boating Area,Pine Hill,Richmond,STA,FEE,STA,0,0,0,0,0,0,0,0,0,0,0,0,0,1,0,0,0,0,0,1,-71.6902008,41.46635818,Meadow Brook At Carolina is a Fishing & Boating Area located in Richmond
45,Wyoming Dam,Fishing & Boating Area,Bridge,Richmond,STA,FEE,STA,0,0,0,0,0,0,0,0,0,0,0,0,0,1,1,0,0,0,0,1,-71.70283508,41.5156517,Wyoming Dam is a Fishing & Boating Area located in Richmond
46,Indian Lake Boat Ramp,Fishing & Boating Area,Indian,South Kingstown,MUN,CIN,MUN,0,0,0,0,0,0,0,0,0,0,0,0,0,1,1,0,0,0,0,1,-71.46953582,41.47410964,Indian Lake Boat Ramp is a Fishing & Boating Area located in South Kingstown
48,Taylors Landing,Fishing & Boating Area,Kingstown,South Kingstown,STA,FEE,STA,0,0,0,0,0,0,0,0,0,0,0,0,0,1,1,0,0,0,0,1,-71.55126953,41.48254776,Taylors Landing is a Fishing & Boating Area located in South Kingstown
49,Deep Hole,Fishing & Boating Area,Matunuck Beach,South Kingstown,STA,FEE,STA,0,0,0,0,0,0,0,0,0,0,0,0,0,1,0,0,0,0,0,1,-71.53833007,41.37350082,Deep Hole is a Fishing & Boating Area located in South Kingstown
50,Tucker Pond,Fishing & Boating Area,Tuckertown,South Kingstown,STA,FEE,STA,0,0,0,0,0,0,0,0,0,0,0,0,0,1,1,0,0,0,0,1,-71.54908752,41.42608642,Tucker Pond is a Fishing & Boating Area located in South Kingstown
51,Worden Pond Boat Launch,Fishing & Boating Area,Worden's Pond,South Kingstown,STA,FEE,STA,0,0,0,0,0,0,0,0,0,0,0,0,0,1,1,0,0,0,0,1,-71.56781768,41.42951965,Worden Pond Boat Launch is a Fishing & Boating Area located in South Kingstown
56,Main Street Boat Ramp,Fishing & Boating Area,Main,Westerly,STA,FEE,STA,0,0,0,0,0,0,0,0,0,0,0,0,0,1,1,0,0,0,0,1,-71.83213806,41.37498474,Main Street Boat Ramp is a Fishing & Boating Area located in Westerly
57,Weekapaug Breachway,Fishing & Boating Area,Wawaloam,Westerly,STA,FEE,STA,0,0,0,0,0,0,0,0,0,0,0,0,0,1,0,0,0,0,0,1,-71.76261901,41.33062362,Weekapaug Breachway is a Fishing & Boating Area located in Westerly
58,Haines Park,Fishing & Boating Area,Beach Point,East Providence,STA,FEE,STA,0,0,0,0,0,0,0,0,0,0,0,0,0,1,1,0,0,0,0,1,-71.35272979,41.75379562,Haines Park is a Fishing & Boating Area located in East Providence
61,East Beach,Fishing & Boating Area,Beach,Charlestown,STA,FEE,STA,0,0,0,0,0,0,0,0,0,0,0,0,0,1,0,0,0,1,0,1,-71.69007873,41.34448623,East Beach is a Fishing & Boating Area located in Charlestown
62,Browning Mill Pond,Fishing & Boating Area,K And G Ranch,Richmond,STA,FEE,STA,0,0,0,0,0,0,0,0,0,0,0,0,0,1,1,0,0,0,0,1,-71.68527221,41.55602645,Browning Mill Pond is a Fishing & Boating Area located in Richmond
66,Black Point,Fishing & Boating Area,Ocean,Narragansett,STA,FEE,STA,0,0,0,0,0,0,0,0,0,0,0,0,0,1,0,0,0,0,0,1,-71.46450042,41.40003585,Black Point is a Fishing & Boating Area located in Narragansett
67,Monahan's Dock Fishing And Boating Access,Fishing & Boating Area,Ocean,Narragansett,STA,FEE,STA,0,0,0,0,0,0,0,0,0,0,0,0,0,1,1,0,0,0,0,1,-71.45535278,41.42215347,Monahan's Dock Fishing And Boating Access is a Fishing & Boating Area located in Narragansett
72,Big River Fishing Access,Fishing & Boating Area,I 95,West Greenwich,STA,FEE,STA,0,0,0,0,0,0,0,0,0,0,0,0,0,1,1,0,0,0,0,1,-71.61434936,41.64941406,Big River Fishing Access is a Fishing & Boating Area located in West Greenwich
74,Hopkins Mill Pond,Fishing & Boating Area,Winsor,Foster,MUN,FEE,UTL,0,0,0,0,0,0,0,0,0,0,0,0,0,1,1,0,0,0,0,1,-71.70736694,41.82413101,Hopkins Mill Pond is a Fishing & Boating Area located in Foster
76,Barry Memorial Field,Local Park,Smithfield,Woonsocket,MUN,CIN,MUN,0,3,2,1,2,0,0,0,1,0,0,0,0,0,0,0,0,0,0,1,-71.51869964,41.98605728,Barry Memorial Field is a Local Park located in Woonsocket
82,Pawtuxet River,Fishing & Boating Area,Hope Furnace,Scituate,MUN,CIN,MUN,0,0,0,0,0,0,0,0,0,0,0,0,0,1,1,0,0,0,0,1,-71.56536102,41.73108673,Pawtuxet River is a Fishing & Boating Area located in Scituate
87,Bristol Narrows,Fishing & Boating Area,Narrows,Bristol,STA,FEE,STA,0,0,0,0,0,0,0,0,0,0,0,0,0,1,1,0,0,0,0,1,-71.24626159,41.69729232,Bristol Narrows is a Fishing & Boating Area located in Bristol
89,Harrisville Pond,Fishing & Boating Area,Sherman Farm,Burrillville,STA,FEE,STA,0,0,0,0,0,0,0,0,0,0,0,0,0,1,1,0,0,0,0,1,-71.67879486,41.97085571,Harrisville Pond is a Fishing & Boating Area located in Burrillville
100,Bellville Pond,Fishing & Boating Area,Oak Hill,North Kingstown,MUN,EAS,FED,0,0,0,0,0,0,0,0,0,0,0,0,0,1,1,0,0,0,0,1,-71.47568511,41.56043624,Bellville Pond is a Fishing & Boating Area located in North Kingstown
106,Weaver Cove,Fishing & Boating Area,Unnamed,Portsmouth,MUN,CIN,MUN,0,0,0,0,0,0,0,0,0,0,0,0,0,1,1,0,0,0,0,1,-71.28792572,41.5738182,Weaver Cove is a Fishing & Boating Area located in Portsmouth
110,State Street Boat Launch,Fishing & Boating Area,State,Bristol,MUN,CIN,MUN,0,0,0,0,0,0,0,0,0,0,0,0,0,1,1,0,0,0,0,1,-71.27833557,41.67000961,State Street Boat Launch is a Fishing & Boating Area located in Bristol
113,Town Dock,Fishing & Boating Area,Water,Warren,MUN,CIN,MUN,0,0,0,0,0,0,0,0,0,0,0,0,0,1,1,0,0,0,0,1,-71.28568267,41.72629165,Town Dock is a Fishing & Boating Area located in Warren
118,Annawanscutt,Fishing & Boating Area,Viking,Bristol,STA,FEE,STA,0,0,0,0,0,0,0,0,0,0,0,0,0,1,1,0,0,0,0,1,-71.24240875,41.6875801,Annawanscutt is a Fishing & Boating Area located in Bristol
120,Barberville Fishing And Boating Access,Fishing & Boating Area,Arcadia,Hopkinton,NGO,FEE,NGO,0,0,0,0,0,0,0,0,0,0,0,0,0,1,1,0,0,0,0,1,-71.69631195,41.54090118,Barberville Fishing And Boating Access is a Fishing & Boating Area located in Hopkinton
121,Big River / Nooseneck Hill Road Fishing Access,Fishing & Boating Area,Nooseneck Hill,West Greenwich,STA,FEE,STA,0,0,0,0,0,0,0,0,0,0,0,0,0,1,0,1,0,0,0,1,-71.61373138,41.64443588,Big River / Nooseneck Hill Road Fishing Access is a Fishing & Boating Area located in West Greenwich
123,Gaspee Point,Fishing & Boating Area,Bay Shore,Warwick,STA,FEE,STA,0,0,0,0,0,0,0,0,0,0,0,0,0,1,1,0,0,0,0,1,-71.38306427,41.74860763,Gaspee Point is a Fishing & Boating Area located in Warwick
125,Locustville Pond,Fishing & Boating Area,Unnamed,Hopkinton,STA,FEE,STA,0,0,0,0,0,0,0,0,0,0,0,0,0,1,1,0,0,0,0,1,-71.71715545,41.5156784,Locustville Pond is a Fishing & Boating Area located in Hopkinton
126,Tucker Field,Athletic Field,Mendon,Cumberland,MUN,CIN,MUN,0,2,1,1,2,0,4,0,1,0,0,0,0,0,0,0,0,0,0,1,-71.44360351,41.96369552,Tucker Field is a Athletic Field located in Cumberland
129,Stump Pond,Fishing & Boating Area,Log,Smithfield,STA,FEE,STA,0,0,0,0,0,0,0,0,0,0,0,0,0,1,1,0,0,0,0,1,-71.54636383,41.90090179,Stump Pond is a Fishing & Boating Area located in Smithfield
132,Gull Cove Fishing & Boating Access,Fishing & Boating Area,State 138,Portsmouth,STA,FEE,STA,0,0,0,0,0,0,0,0,0,0,0,0,0,1,1,0,0,0,0,1,-71.23081207,41.63385009,Gull Cove Fishing & Boating Access is a Fishing & Boating Area located in Portsmouth
134,Old State Pier,Fishing & Boating Area,Tim Healey,Pawtucket,MUN,CIN,MUN,0,0,0,0,0,0,0,0,0,0,0,0,0,1,1,0,0,0,0,1,-71.37985229,41.86893844,Old State Pier is a Fishing & Boating Area located in Pawtucket
136,George Washington Campground,State Park,George Washington,Glocester,STA,FEE,STA,0,0,0,0,0,0,0,0,0,0,0,0,0,1,1,0,0,0,0,1,-71.75794219,41.92362594,George Washington Campground is a State Park located in Glocester
137,Clarkville Pond,Fishing & Boating Area,Shepard,Glocester,STA,FEE,STA,0,0,0,0,0,0,0,0,0,0,0,0,0,1,1,0,0,0,0,1,-71.78780364,41.92452239,Clarkville Pond is a Fishing & Boating Area located in Glocester
139,Lake Washington,Fishing & Boating Area,Lake Washington,Glocester,STA,FEE,STA,0,0,0,0,0,0,0,0,0,0,0,0,0,1,1,0,0,0,0,1,-71.75835418,41.91730117,Lake Washington is a Fishing & Boating Area located in Glocester
140,Moscow Pond,Fishing & Boating Area,Woody Hill,Hopkinton,STA,FEE,STA,0,0,0,0,0,0,0,0,0,0,0,0,0,1,1,0,0,0,0,1,-71.74182891,41.52329635,Moscow Pond is a Fishing & Boating Area located in Hopkinton
141,Olney Pond,Fishing & Boating Area,Les Pawson Loop,Lincoln,STA,FEE,STA,0,0,0,0,0,0,0,0,0,0,0,0,0,1,1,0,0,0,0,1,-71.42773437,41.88948059,Olney Pond is a Fishing & Boating Area located in Lincoln
143,Carbuncle Pond,Fishing & Boating Area,Plainfield Pike,Coventry,STA,FEE,STA,0,0,0,0,0,0,0,0,0,0,0,0,0,1,1,0,0,0,0,1,-71.77004241,41.6974411,Carbuncle Pond is a Fishing & Boating Area located in Coventry
146,Round Top,Management Area,Round Top,Burrillville,STA,FEE,STA,0,0,0,0,0,0,0,0,0,0,0,0,0,1,0,1,1,0,0,1,-71.69934844,42.00394058,Round Top is a Management Area located in Burrillville
151,North Smithfield High School,School,Greenville,North Smithfield,SCH,NON,NON,0,2,1,1,1,2,4,0,1,0,0,0,0,0,0,0,0,0,0,1,-71.54447174,41.95165634,North Smithfield High School is a School located in North Smithfield
160,Alton Pond Landing,Fishing & Boating Area,Alton Bradford,Hopkinton,PRV,NON,PRV,0,0,0,0,0,0,0,0,0,0,0,0,0,1,1,0,0,0,0,1,-71.72243499,41.43811035,Alton Pond Landing is a Fishing & Boating Area located in Hopkinton
161,Ashville Pond,Fishing & Boating Area,Canonchet,Hopkinton,STA,FEE,STA,0,0,0,0,0,0,0,0,0,0,0,0,0,1,1,0,0,0,0,1,-71.7514038,41.49929809,Ashville Pond is a Fishing & Boating Area located in Hopkinton
162,Blue Pond,Fishing & Boating Area,Canonchet,Hopkinton,STA,FEE,STA,0,0,0,0,0,0,0,0,0,0,0,0,0,1,0,0,0,0,0,1,-71.75287628,41.5023384,Blue Pond is a Fishing & Boating Area located in Hopkinton
168,Tefft River Access,Fishing & Boating Area,Mechanic,Hopkinton,STA,FEE,STA,0,0,0,0,0,0,0,0,0,0,0,0,0,1,1,0,0,0,0,1,-71.71663665,41.49842453,Tefft River Access is a Fishing & Boating Area located in Hopkinton
178,Blackstone Bikeway,State Park,Farnworth,Lincoln,STA,FEE,STA,0,0,0,0,0,0,0,0,0,0,0,0,0,0,0,0,0,0,0,1,-71.40835571,41.9116249,Blackstone Bikeway is a State Park located in Lincoln
179,Beaver River,Fishing & Boating Area,Kingstown,Richmond,STA,FEE,STA,0,0,0,0,0,0,0,0,0,0,0,0,0,1,1,0,0,0,0,1,-71.62826538,41.49234008,Beaver River is a Fishing & Boating Area located in Richmond
182,George Washington Management Area,Management Area,Richardson,Burrillville,STA,FEE,STA,0,0,0,0,0,0,0,0,0,0,0,0,0,1,0,1,1,0,0,1,-71.76850891,41.94266128,George Washington Management Area is a Management Area located in Burrillville
183,Lincoln Junior / Seniro High,School,Old River,Lincoln,SCH,EAS,FED,0,2,2,1,2,0,8,0,1,0,0,0,0,0,0,0,0,0,0,1,-71.4527359,41.93682479,Lincoln Junior / Seniro High is a School located in Lincoln
185,Asa Pond,Local Park,Galway,South Kingstown,MUN,CIN,MUN,0,0,0,0,0,0,0,0,0,0,0,0,0,1,1,0,0,0,0,1,-71.51522827,41.45790481,Asa Pond is a Local Park located in South Kingstown
186,Barber Pond,Fishing & Boating Area,Barber's Pond,South Kingstown,STA,FEE,STA,0,0,0,0,0,0,0,0,0,0,0,0,0,1,1,0,0,0,0,1,-71.56439971,41.49913787,Barber Pond is a Fishing & Boating Area located in South Kingstown
189,Narrow River,Fishing & Boating Area,Pollock,South Kingstown,STA,FEE,STA,0,0,0,0,0,0,0,0,0,0,0,0,0,1,1,0,0,0,0,1,-71.45019531,41.46699523,Narrow River is a Fishing & Boating Area located in South Kingstown
194,Potowomut Pond,Fishing & Boating Area,Potowomut,Warwick,STA,FEE,STA,0,0,0,0,0,0,0,0,0,0,0,0,0,1,1,0,0,0,0,1,-71.45379638,41.63094711,Potowomut Pond is a Fishing & Boating Area located in Warwick
196,Carr Pond,Fishing & Boating Area,Hopkins Hill,West Greenwich,STA,FEE,STA,0,0,0,0,0,0,0,0,0,0,0,0,0,1,0,0,0,0,0,1,-71.57110595,41.63113403,Carr Pond is a Fishing & Boating Area located in West Greenwich
197,Chapman Pond,Fishing & Boating Area,Town Landfill,Westerly,MUN,CIN,MUN,0,0,0,0,0,0,0,0,0,0,0,0,0,1,1,0,0,0,0,1,-71.80036926,41.38182067,Chapman Pond is a Fishing & Boating Area located in Westerly
201,Breakhart Pond,Fishing & Boating Area,Austin Farm,Exeter,STA,FEE,STA,0,0,0,0,0,0,0,0,0,0,0,0,0,1,1,0,0,0,0,1,-71.70377349,41.59572219,Breakhart Pond is a Fishing & Boating Area located in Exeter
203,Bradford Landing,Fishing & Boating Area,Main,Westerly,STA,FEE,STA,0,0,0,0,0,0,0,0,0,0,0,0,0,1,1,0,0,0,0,1,-71.74828338,41.40629577,Bradford Landing is a Fishing & Boating Area located in Westerly
215,Pleasant St Boat Launch,Fishing & Boating Area,Pleasant,North Kingstown,MUN,CIN,MUN,0,0,0,0,0,0,0,0,0,0,0,0,0,1,1,0,0,0,0,1,-71.44779205,41.57684326,Pleasant St Boat Launch is a Fishing & Boating Area located in North Kingstown
217,Pond St Boat Launch,Fishing & Boating Area,Billington,South Kingstown,MUN,CIN,MUN,0,0,0,0,0,0,0,0,0,0,0,0,0,1,1,0,0,0,0,1,-71.50309753,41.42250061,Pond St Boat Launch is a Fishing & Boating Area located in South Kingstown
218,Gooseberry Rd Boat Launch,Fishing & Boating Area,Gooseberry,South Kingstown,MUN,CIN,MUN,0,0,0,0,0,0,0,0,0,0,0,0,0,1,1,0,0,0,0,1,-71.51958465,41.38589477,Gooseberry Rd Boat Launch is a Fishing & Boating Area located in South Kingstown
219,State Pier # 4,Fishing & Boating Area,Succotash,Narragansett,STA,FEE,STA,0,0,0,0,0,0,0,0,0,0,0,0,0,1,0,0,0,0,0,1,-71.51499938,41.37882995,State Pier # 4 is a Fishing & Boating Area located in Narragansett
220,Saugatucket River,Fishing & Boating Area,Broad Rock,South Kingstown,STA,FEE,STA,0,0,0,0,0,0,0,0,0,0,0,0,0,1,0,0,0,0,0,1,-71.48456573,41.47925949,Saugatucket River is a Fishing & Boating Area located in South Kingstown
221,South Ferry Rd,Local Park,Ferry,Narragansett,MUN,CIN,MUN,0,0,0,0,0,0,0,0,0,0,0,0,0,1,1,0,0,0,0,1,-71.42050933,41.49255752,South Ferry Rd is a Local Park located in Narragansett
226,Smith Street,Fishing & Boating Area,Smith,Bristol,MUN,CIN,MUN,0,0,0,0,0,0,0,0,0,0,0,0,0,1,1,0,0,0,0,1,-71.24889373,41.70349121,Smith Street is a Fishing & Boating Area located in Bristol
228,Spring Grove Beach,Local Park,Spring Grove,Glocester,MUN,CIN,MUN,0,0,0,0,0,0,0,0,0,0,0,0,0,0,0,0,0,1,0,0,-71.65384674,41.91343688,Spring Grove Beach is a Local Park located in Glocester
229,Peck Pond / Pulaski Park,State Park,Unnamed,Burrillville,STA,FEE,STA,0,0,0,0,0,0,0,0,0,0,0,0,0,1,0,0,0,0,0,1,-71.79640197,41.93287277,Peck Pond / Pulaski Park is a State Park located in Burrillville
231,Tarkiln Pond,Fishing & Boating Area,Mowry,Burrillville,MUN,CIN,MUN,0,0,0,0,0,0,0,0,0,0,0,0,0,1,1,0,0,0,0,1,-71.59770965,41.96502304,Tarkiln Pond is a Fishing & Boating Area located in Burrillville
234,Washington Grove,State Park,Washington,Smithfield,STA,EAS,FED,0,0,0,0,0,0,0,0,0,0,0,0,0,0,0,0,0,0,0,0,-71.53817749,41.91281127,Washington Grove is a State Park located in Smithfield
235,Wallum Lake,Fishing & Boating Area,Shore,Burrillville,STA,CIN,STA,0,0,0,0,0,0,0,0,0,0,0,0,0,1,1,0,0,0,0,1,-71.76179504,42.00080108,Wallum Lake is a Fishing & Boating Area located in Burrillville
236,Durfee Hill Management Area,Management Area,Willie Woodhead,Glocester,STA,FEE,STA,0,0,0,0,0,0,0,0,0,0,0,0,0,0,0,1,1,0,0,0,-71.74745178,41.90439605,Durfee Hill Management Area is a Management Area located in Glocester
238,Homestead,Fishing & Boating Area,Narragansett,Portsmouth,MUN,CIN,MUN,0,0,0,0,0,0,0,0,0,0,0,0,0,1,1,0,0,0,0,1,-71.30502319,41.61980438,Homestead is a Fishing & Boating Area located in Portsmouth
239,Manville,Fishing & Boating Area,New River,Lincoln,MUN,CIN,MUN,0,0,0,0,0,0,0,0,0,0,0,0,0,1,1,0,0,0,0,1,-71.46733856,41.96964263,Manville is a Fishing & Boating Area located in Lincoln
240,Old Harbor Breakwater,Fishing & Boating Area,Water,New Shoreham,STA,FEE,STA,0,0,0,0,0,0,0,0,0,0,0,0,0,1,0,0,0,0,0,1,-71.55462646,41.17415618,Old Harbor Breakwater is a Fishing & Boating Area located in New Shoreham
241,East Beach,Local Park,Beach,New Shoreham,MUN,CIN,MUN,0,0,0,0,0,0,0,0,0,0,0,0,0,1,0,0,0,1,0,1,-71.56667327,41.1825447,East Beach is a Local Park located in New Shoreham
242,Woonasquatucket Reservoir,Fishing & Boating Area,Farnum Pike,Smithfield,STA,FEE,STA,0,0,0,0,0,0,0,0,0,0,0,0,0,1,0,0,0,0,0,0,-71.54101562,41.90761184,Woonasquatucket Reservoir is a Fishing & Boating Area located in Smithfield
245,Mohegan Bluffs / South East Light Stairway,State Park,Spring,New Shoreham,STA,FEE,STA,0,0,0,0,0,0,0,0,0,0,0,0,0,1,0,0,0,0,0,1,-71.55507659,41.15242004,Mohegan Bluffs / South East Light Stairway is a State Park located in New Shoreham
248,Central Falls Landing,Local Park,Broad,Central Falls,MUN,CIN,,0,0,0,0,0,0,0,0,0,0,0,0,0,1,1,0,0,0,0,1,-71.39031982,41.89884185,Central Falls Landing is a Local Park located in Central Falls
251,Willet Pond,Fishing & Boating Area,Willett,East Providence,MUN,EAS,FED,0,0,0,0,0,0,0,0,0,0,0,0,0,1,1,0,0,0,0,1,-71.35593414,41.77551269,Willet Pond is a Fishing & Boating Area located in East Providence
254,Burlingame Reservoir,Fishing & Boating Area,Elbow Rock,Glocester,STA,FEE,STA,0,0,0,0,0,0,0,0,0,0,0,0,0,1,0,0,0,0,0,1,-71.74253082,41.91448211,Burlingame Reservoir is a Fishing & Boating Area located in Glocester
255,Eight Rod Farm,Management Area,Eight Rod,Tiverton,STA,FEE,STA,0,0,0,0,0,0,0,0,0,0,0,0,0,1,0,1,1,0,0,1,-71.17129516,41.55895614,Eight Rod Farm is a Management Area located in Tiverton
256,Simmons Mill Pond,Fishing & Boating Area,Colebrook,Little Compton,STA,FEE,STA,0,0,0,0,0,0,0,0,0,0,0,0,0,1,1,0,0,0,0,1,-71.15054321,41.54354095,Simmons Mill Pond is a Fishing & Boating Area located in Little Compton
264,Corliss Landing,Local Park,Water,Providence,MUN,CIN,MUN,0,0,0,0,0,0,0,0,0,0,0,0,0,1,1,0,0,0,0,1,-71.40550994,41.82149887,Corliss Landing is a Local Park located in Providence
271,Charlestown,Fishing & Boating Area,Charlestown Beach,Charlestown,MUN,CIN,MUN,0,0,0,0,0,0,0,0,0,0,0,0,0,1,1,0,0,0,0,1,-71.62668609,41.36371994,Charlestown is a Fishing & Boating Area located in Charlestown
274,Collier Park Ramp,Fishing & Boating Area,Henderson,Providence,UTL,NON,NON,0,0,0,0,0,0,0,0,0,0,0,0,0,1,1,0,0,0,0,1,-71.40175628,41.81210708,Collier Park Ramp is a Fishing & Boating Area located in Providence
294,Georgiaville Beach,Local Park,Stillwater,Smithfield,MUN,CIN,MUN,0,0,0,0,0,0,0,0,0,0,0,0,0,1,1,0,0,1,0,1,-71.50817108,41.88947677,Georgiaville Beach is a Local Park located in Smithfield
324,Lincoln Woods,State Park,Lincoln Woods,Lincoln,STA,FEE,STA,0,1,0,0,1,0,0,0,0,0,0,0,0,1,1,0,0,0,0,1,-71.43139648,41.89726257,Lincoln Woods is a State Park located in Lincoln
331,Smithfield High School,School,Rosewood,Smithfield,SCH,NON,NON,0,2,1,1,1,0,4,0,1,0,0,0,0,0,0,0,0,0,0,1,-71.54400634,41.87980651,Smithfield High School is a School located in Smithfield
345,Higginson Avenue Sports Complex,Local Park,Crow Point,Central Falls,MUN,EAS,FED,0,1,1,1,1,2,0,0,1,0,0,0,0,0,0,0,0,0,0,1,-71.40245819,41.88519287,Higginson Avenue Sports Complex is a Local Park located in Central Falls
354,Marion Irons Beach,Local Park,Snake Hill,Glocester,MUN,CIN,MUN,0,0,0,0,0,0,0,0,0,0,0,0,0,0,0,0,0,1,0,0,-71.62581634,41.87961578,Marion Irons Beach is a Local Park located in Glocester
396,Ponagansett School,School,Anan Wade,Glocester,SCH,EAS,FED,0,2,2,1,2,0,4,0,1,0,0,0,0,0,0,0,0,0,0,1,-71.71450042,41.86730957,Ponagansett School is a School located in Glocester
420,Fairlawn Veterans' Park,Local Park,Legion,Pawtucket,MUN,EAS,FED,1,3,1,0,1,1,4,0,0,0,0,0,0,0,0,0,0,0,1,1,-71.41025543,41.86743545,Fairlawn Veterans' Park is a Local Park located in Pawtucket
427,Greenlake Beach,Local Park,Bayou,Smithfield,MUN,CIN,MUN,0,0,0,0,0,0,0,0,0,0,0,0,0,1,0,0,0,1,0,0,-71.55112457,41.86508178,Greenlake Beach is a Local Park located in Smithfield
438,Max Read Field,Local Park,Pleasant,Pawtucket,MUN,EAS,FED,0,0,2,1,2,0,0,0,1,0,0,0,0,1,0,0,0,0,0,1,-71.3811264,41.86435317,Max Read Field is a Local Park located in Pawtucket
461,Snake Den State Park,Conservation Area,Hartford,Johnston,STA,EAS,FED,0,0,0,0,0,0,0,0,0,0,0,0,0,0,0,0,0,0,0,0,-71.53470611,41.84130096,Snake Den State Park is a Conservation Area located in Johnston
534,Shippee Sawmill Pond,Fishing & Boating Area,Willoughby Young,Foster,STA,FEE,STA,0,0,0,0,0,0,0,0,0,0,0,0,0,1,1,0,0,0,0,1,-71.75236511,41.83379364,Shippee Sawmill Pond is a Fishing & Boating Area located in Foster
537,Mount Pleasant H. S. Fields,School,Rialto,Providence,SCH,NON,NON,0,1,2,1,2,1,2,0,1,0,0,0,0,0,0,0,0,0,0,1,-71.4535675,41.83821868,Mount Pleasant H. S. Fields is a School located in Providence
554,Father Lennon Park,School,Camden,Providence,MUN,CIN,MUN,1,0,0,0,0,0,0,0,0,0,0,0,0,0,0,0,0,0,1,1,-71.42711639,41.83789825,Father Lennon Park is a School located in Providence
558,Johnston Sr High School,School,Cherry Hill,Johnston,SCH,NON,NON,0,0,1,1,2,0,0,0,1,0,0,0,0,0,0,0,0,0,0,1,-71.49881744,41.83306884,Johnston Sr High School is a School located in Johnston
565,Dean Andrews Memorial Field,Local Park,Battey Meetinghouse,Scituate,STA,FEE,STA,1,1,0,0,1,0,0,0,0,0,0,0,0,1,0,0,0,0,0,1,-71.6056137,41.82970046,Dean Andrews Memorial Field is a Local Park located in Scituate
569,Hope High School,School,Brown,Providence,SCH,NON,NON,1,2,1,1,2,1,8,0,1,0,0,0,0,0,0,0,0,0,0,1,-71.40379333,41.83429718,Hope High School is a School located in Providence
591,Scituate Jr.-Sr.high School,School,Rockland,Scituate,SCH,NON,NON,0,0,1,1,1,0,4,0,1,0,0,0,0,0,0,0,0,0,0,1,-71.6189804,41.8246231,Scituate Jr.-Sr.high School is a School located in Scituate
623,Angelo Zuccolo Pool,Local Park,Gesler,Providence,MUN,CIN,MUN,0,0,0,0,0,0,0,0,0,0,0,0,0,0,0,0,0,0,1,1,-71.43073272,41.8225708,Angelo Zuccolo Pool is a Local Park located in Providence
639,Joslin Playground,Local Park,Kossuth,Providence,MUN,CIN,MUN,1,1,0,0,0,1,0,0,0,0,0,0,0,0,0,0,0,0,1,0,-71.44639587,41.82117462,Joslin Playground is a Local Park located in Providence
646,East Providence High School,School,Pawtucket,East Providence,SCH,NON,NON,0,3,6,1,6,0,4,0,1,0,0,0,0,0,0,0,0,0,0,1,-71.35266113,41.81922912,East Providence High School is a School located in East Providence
651,Central / Classical  High Schools,School,Broad,Providence,SCH,NON,NON,0,1,1,1,1,0,0,0,1,0,0,0,0,0,0,0,0,0,0,1,-71.41934967,41.81695938,Central / Classical  High Schools is a School located in Providence
671,Neutaconkanut Park,Local Park,Killingly,Providence,MUN,EAS,FED,1,2,0,0,0,1,0,0,0,1,0,0,0,0,0,0,1,0,1,1,-71.46331787,41.81418991,Neutaconkanut Park is a Local Park located in Providence
673,Bold Point Park,Local Park,Pier,East Providence,MUN,EAS,FED,0,0,0,0,0,0,0,0,0,0,0,0,0,1,1,0,0,0,0,1,-71.39097595,41.81522369,Bold Point Park is a Local Park located in East Providence
680,Davey Lopes Park,Local Park,Prairie,Providence,MUN,CIN,MUN,1,0,0,0,0,1,1,0,0,0,0,0,0,0,0,0,0,0,1,1,-71.41596221,41.81035232,Davey Lopes Park is a Local Park located in Providence
681,Pierce Field Athletic Complex,Athletic Field,Mercer,East Providence,MUN,CIN,MUN,1,4,0,0,1,2,2,0,1,0,0,0,0,0,0,0,0,0,0,1,-71.38240814,41.81060409,Pierce Field Athletic Complex is a Athletic Field located in East Providence
707,Bucklin St. Park / McCrane Pool,Local Park,Bucklin,Providence,MUN,CIN,MUN,1,1,1,0,1,2,0,0,0,0,0,0,0,0,0,0,0,0,1,1,-71.4286499,41.80519485,Bucklin St. Park / McCrane Pool is a Local Park located in Providence
746,JT Owens Park,Local Park,Niantic,Providence,STA,EAS,FED,1,3,0,0,0,0,2,0,0,0,0,0,0,1,1,0,0,0,0,1,-71.43684387,41.79338836,JT Owens Park is a Local Park located in Providence
817,Beachmont / Hayes Field,Local Park,Calvin,Cranston,MUN,EAS,FED,1,2,0,0,0,1,2,0,0,0,0,0,0,0,0,0,0,1,0,1,-71.40733337,41.77517318,Beachmont / Hayes Field is a Local Park located in Cranston
820,Cranston High School West,School,Phoenix,Cranston,SCH,NON,NON,0,1,1,1,1,0,6,0,1,0,0,0,0,0,0,0,0,0,0,1,-71.47899627,41.77336883,Cranston High School West is a School located in Cranston
824,Park View Field,Local Park,Park View,Cranston,MUN,CIN,MUN,1,3,0,0,1,1,4,0,1,0,0,0,0,0,0,0,0,0,0,1,-71.41453552,41.77221298,Park View Field is a Local Park located in Cranston
828,Stillhouse Cove,Local Park,Narragansett,Cranston,STA,EAS,STA,0,0,0,0,0,0,0,0,0,0,0,0,0,1,0,0,0,0,0,0,-71.38991546,41.77013778,Stillhouse Cove is a Local Park located in Cranston
830,Meshanticut Park,State Park,Lakeview,Cranston,STA,FEE,STA,0,0,0,0,0,0,0,0,0,0,0,0,0,1,0,0,0,0,0,0,-71.4760437,41.76870346,Meshanticut Park is a State Park located in Cranston
832,Fay Memorial Field,Local Park,Dallas,Cranston,STA,FEE,STA,0,3,0,0,0,0,0,0,0,0,0,0,0,0,0,0,1,0,0,1,-71.4003067,41.77082443,Fay Memorial Field is a Local Park located in Cranston
833,Aqueduct Field,Local Park,Aqueduct,Cranston,MUN,CIN,MUN,0,4,0,0,0,2,0,0,0,0,0,0,0,0,0,0,0,0,1,1,-71.44475555,41.77069473,Aqueduct Field is a Local Park located in Cranston
855,Dean Parkway,State Park,Dean,Cranston,STA,FEE,STA,0,0,0,0,0,0,0,0,0,0,0,0,0,0,0,0,0,0,0,0,-71.46330261,41.76323318,Dean Parkway is a State Park located in Cranston
856,Sabin Point Park,Local Park,Shore,East Providence,MUN,EAS,FED,1,0,0,0,1,1,0,0,0,0,0,0,0,1,1,0,0,0,0,1,-71.36795043,41.76564025,Sabin Point Park is a Local Park located in East Providence
884,Walker Farm,Conservation Area,Wampanoag,Barrington,MUN,EAS,FED,0,0,0,0,0,0,0,0,0,0,0,0,0,1,1,0,0,0,0,1,-71.32308197,41.75685501,Walker Farm is a Conservation Area located in Barrington
914,Crescent Park / Loof Carousel,Local Park,Bullocks Point,East Providence,MUN,EAS,FED,0,0,0,0,0,0,0,0,0,0,0,0,0,1,1,0,0,0,0,0,-71.35919189,41.75708007,Crescent Park / Loof Carousel is a Local Park located in East Providence
919,Salter Grove,Local Park,Narragansett,Warwick,STA,FEE,STA,1,0,0,0,0,0,0,0,0,0,0,0,0,1,1,0,0,0,0,0,-71.38346099,41.75286102,Salter Grove is a Local Park located in Warwick
922,Haines Park,State Park,Haines Park,Barrington,STA,FEE,STA,0,3,1,0,1,0,0,0,0,0,0,0,0,1,1,0,0,0,0,1,-71.346138,41.75232315,Haines Park is a State Park located in Barrington
949,Brayton Ave. Field,Local Park,Unnamed,Cranston,MUN,CIN,MUN,1,4,0,0,0,0,0,0,1,0,0,0,0,0,0,0,0,0,0,1,-71.47229766,41.74681472,Brayton Ave. Field is a Local Park located in Cranston
953,Pilgrim High School,School,Pilgrim,Warwick,SCH,NON,NON,0,1,2,1,2,0,0,0,1,0,0,0,0,0,0,0,0,0,0,1,-71.40910339,41.7460823,Pilgrim High School is a School located in Warwick
963,Barrington High School,School,Lincoln,Barrington,SCH,NON,NON,0,3,3,1,4,0,0,0,1,0,0,0,0,0,0,0,0,0,0,1,-71.32001495,41.74769592,Barrington High School is a School located in Barrington
1013,Veterans Memorial Park,Local Park,Veterans Park,Barrington,MUN,EAS,FED,0,1,0,0,0,0,0,0,0,0,0,0,0,1,1,0,0,0,0,1,-71.31315612,41.73587036,Veterans Memorial Park is a Local Park located in Barrington
1023,Natick Fields,Local Park,Crossland,West Warwick,MUN,CIN,MUN,0,3,0,0,0,0,1,0,0,0,0,0,0,0,0,0,1,0,0,1,-71.49633789,41.72712707,Natick Fields is a Local Park located in West Warwick
1075,Riverpoint Park,Athletic Field,Hay,West Warwick,MUN,EAS,FED,20,5,3,0,0,2,0,0,0,0,0,0,0,1,0,0,1,0,0,1,-71.51525115,41.71751022,Riverpoint Park is a Athletic Field located in West Warwick
1078,Barrington Town Beach,Local Park,Bay,Barrington,MUN,CIN,MUN,0,0,0,0,0,0,0,0,0,0,0,0,0,0,0,0,0,1,0,0,-71.31019592,41.72286987,Barrington Town Beach is a Local Park located in Barrington
1086,Warren Town Beach,Local Park,Water,Warren,MUN,CIN,MUN,1,0,0,0,0,0,0,0,0,0,0,0,0,0,0,0,0,1,0,0,-71.28495788,41.72295761,Warren Town Beach is a Local Park located in Warren
1095,Conimicut Pt. Beach,Local Park,Point,Warwick,MUN,EAS,FED,0,0,0,0,0,0,0,0,0,0,0,0,0,0,0,0,0,1,0,0,-71.35974121,41.71665191,Conimicut Pt. Beach is a Local Park located in Warwick
1102,West Warwick School Complex,School,Webster Knight,West Warwick,SCH,NON,NON,0,1,3,1,3,0,3,0,1,0,0,0,0,0,0,0,0,0,0,1,-71.51573181,41.70882034,West Warwick School Complex is a School located in West Warwick
1106,Nicholas Farm,Management Area,Plainfield Pike,Coventry,STA,FEE,STA,0,0,0,0,0,0,0,0,0,0,0,0,0,1,0,1,1,0,0,0,-71.77273559,41.69342422,Nicholas Farm is a Management Area located in Coventry
1112,Mickey Stevens Sports Center,Local Park,Sandy,Warwick,MUN,EAS,FED,0,3,0,0,0,2,8,0,0,1,1,0,0,0,0,0,0,0,1,1,-71.41457366,41.7099533,Mickey Stevens Sports Center is a Local Park located in Warwick
1122,Gorton School,School,Draper,Warwick,SCH,EAS,FED,0,0,2,0,2,0,2,0,1,0,0,0,0,0,0,0,0,0,0,1,-71.37778472,41.7061882,Gorton School is a School located in Warwick
1125,Trestle Trail West',State Park,Bramble Bush,Coventry,STA,FEE,STA,0,0,0,0,0,0,0,0,0,0,0,0,0,0,0,0,0,0,0,0,-71.64464569,41.69669342,Trestle Trail West' is a State Park located in Coventry
1130,Upper Dam Pond,Local Park,Knotty Oak,Coventry,MUN,EAS,FED,0,0,0,0,0,0,0,0,0,0,0,0,0,1,1,0,0,0,0,0,-71.55393981,41.70376205,Upper Dam Pond is a Local Park located in Coventry
1138,Little Pond Beach,Local Park,Albert,Warwick,SCH,NON,NON,0,0,0,0,0,0,0,0,0,0,0,0,0,0,0,0,0,1,0,0,-71.40768432,41.70495223,Little Pond Beach is a Local Park located in Warwick
1148,Gorton's Pond Beach,Local Park,Veterans Memorial,Warwick,MUN,EAS,FED,1,0,0,0,0,0,0,0,0,0,0,0,0,1,0,0,0,1,0,0,-71.45480346,41.70325088,Gorton's Pond Beach is a Local Park located in Warwick
1236,Bristol Junior-Senior High Sch.,School,Chestnut,Bristol,SCH,NON,NON,0,1,2,1,2,0,6,0,1,0,0,0,0,0,0,0,0,0,0,1,-71.27165985,41.68800735,Bristol Junior-Senior High Sch. is a School located in Bristol
1237,Oakland Beach Park,Local Park,Burr,Warwick,MUN,EAS,FED,1,1,0,0,1,1,0,0,0,0,0,0,0,1,1,0,0,1,0,1,-71.39643096,41.68513488,Oakland Beach Park is a Local Park located in Warwick
1245,Coventry High School,School,Club House,Coventry,SCH,NON,NON,0,1,1,1,2,0,6,0,1,0,0,0,0,0,0,0,0,0,0,1,-71.59456634,41.68457031,Coventry High School is a School located in Coventry
1261,Colt State Park,State Park,Asylum,Bristol,STA,EAS,FED,0,0,0,0,4,0,0,0,0,0,0,0,0,1,1,0,0,0,0,1,-71.29747009,41.67708969,Colt State Park is a State Park located in Bristol
1268,Briar Point Beach Area,Local Park,Briar Point,Coventry,MUN,EAS,FED,1,0,0,0,0,0,0,0,0,0,0,0,0,0,0,0,0,1,0,0,-71.54968261,41.67430114,Briar Point Beach Area is a Local Park located in Coventry
1284,Independence Park,Local Park,Thames,Bristol,MUN,CIN,MUN,0,0,0,0,0,0,0,0,0,0,0,0,0,1,1,0,0,0,0,1,-71.2794876,41.67378616,Independence Park is a Local Park located in Bristol
1285,Goddard Park,State Park,Ives,Warwick,STA,FEE,STA,0,0,0,0,0,0,0,0,0,0,0,0,1,1,1,0,0,0,0,1,-71.43722534,41.65924835,Goddard Park is a State Park located in Warwick
1305,North Prudence Island,Management Area,Neck Farm,Portsmouth,STA,FEE,STA,0,0,0,0,0,0,0,0,0,0,0,0,0,0,0,1,1,0,0,0,-71.34316253,41.65590667,North Prudence Island is a Management Area located in Portsmouth
1326,Patience Island,Management Area,Neck Farm,Portsmouth,STA,FEE,STA,0,0,0,0,0,0,0,0,0,0,0,0,0,0,0,1,1,0,0,0,-71.36003112,41.65565872,Patience Island is a Management Area located in Portsmouth
1337,East Greenwich Town Boat Launch,Local Park,Crompton,East Greenwich,MUN,EAS,FED,0,0,0,0,0,0,0,0,0,0,0,0,0,1,1,0,0,0,0,1,-71.44894409,41.65670776,East Greenwich Town Boat Launch is a Local Park located in East Greenwich
1368,Grinnells Beach,Local Park,Main,Tiverton,MUN,CIN,MUN,0,0,0,0,0,0,0,0,0,0,0,0,0,0,0,0,0,1,0,0,-71.21371459,41.62504959,Grinnells Beach is a Local Park located in Tiverton
1374,East Greenwich High School,Local Park,Avenger,East Greenwich,MUN,EAS,FED,1,3,4,2,4,0,6,0,1,1,0,0,0,0,0,0,0,0,0,1,-71.48366546,41.63710403,East Greenwich High School is a Local Park located in East Greenwich
1378,Big River Reservoir,Management Area,Burnt Sawmill,West Greenwich,STA,FEE,STA,0,0,0,0,0,0,0,0,0,0,0,0,0,0,0,1,1,0,0,1,-71.60385131,41.63472366,Big River Reservoir is a Management Area located in West Greenwich
1392,Boyds Marsh,Management Area,Bay View,Portsmouth,STA,FEE,STA,0,0,0,0,0,0,0,0,0,0,0,0,0,0,0,0,0,0,0,0,-71.24364471,41.63571929,Boyds Marsh is a Management Area located in Portsmouth
1467,Teddy's Beach,State Park,Point,Portsmouth,STA,FEE,STA,0,0,0,0,0,0,0,0,0,0,0,0,0,1,1,0,0,1,0,0,-71.21983337,41.6254158,Teddy's Beach is a State Park located in Portsmouth
1488,Portsmouth High School,School,Memorial,Portsmouth,SCH,NON,NON,0,4,2,1,4,3,8,0,1,0,0,0,0,0,0,0,0,0,0,1,-71.2510147,41.61082458,Portsmouth High School is a School located in Portsmouth
1491,Lehigh Hill Grove,State Park,Main,Portsmouth,STA,FEE,STA,0,0,0,0,0,0,0,0,0,0,0,0,0,0,0,0,0,0,0,0,-71.26029968,41.61138534,Lehigh Hill Grove is a State Park located in Portsmouth
1501,Hope Island,Management Area,Bay,Portsmouth,STA,FEE,STA,0,0,0,0,0,0,0,0,0,0,0,0,0,0,0,1,1,0,0,0,-71.36820983,41.60221862,Hope Island is a Management Area located in Portsmouth
1512,Devil's Foot Rock,Conservation Area,Post,North Kingstown,STA,FEE,STA,0,0,0,0,0,0,0,0,0,0,0,0,0,0,0,0,0,0,0,0,-71.45646667,41.6026268,Devil's Foot Rock is a Conservation Area located in North Kingstown
1520,South Prudence Island,Management Area,Bunker,Portsmouth,STA,FEE,STA,0,0,0,0,0,0,0,0,0,0,0,0,0,0,0,1,1,0,0,0,-71.32357788,41.58792495,South Prudence Island is a Management Area located in Portsmouth
1521,Black Regiment Memorial Park,State Park,Musselbed Shoal,Portsmouth,STA,FEE,STA,0,0,0,0,0,0,0,0,0,0,0,0,0,0,0,0,0,0,0,0,-71.25514221,41.63357925,Black Regiment Memorial Park is a State Park located in Portsmouth
1528,Queen's Fort Historic Site,State Park,Lantern,Exeter,STA,FEE,STA,0,0,0,0,0,0,0,0,0,0,0,0,0,0,0,0,0,0,0,0,-71.5220108,41.59032821,Queen's Fort Historic Site is a State Park located in Exeter
1532,Beach Pond State Park,Fishing & Boating Area,Ten Rod,Exeter,STA,EAS,FED,0,0,0,0,0,0,0,0,0,0,0,0,0,0,0,1,0,1,0,1,-71.78637695,41.57405853,Beach Pond State Park is a Fishing & Boating Area located in Exeter
1535,Cocumscussoc Park,Conservation Area,Post Road,North Kingstown,STA,EAS,FED,0,0,0,0,0,0,0,0,0,0,0,0,0,0,0,1,1,0,0,0,-71.47315216,41.58142089,Cocumscussoc Park is a Conservation Area located in North Kingstown
1560,Seapowet Marsh,Fishing & Boating Area,Seapowet,Tiverton,STA,FEE,STA,0,0,0,0,0,0,0,0,0,0,0,0,0,1,1,0,0,0,0,0,-71.20941162,41.58218383,Seapowet Marsh is a Fishing & Boating Area located in Tiverton
1570,North Kingstown Town Boat Launch,Local Park,Flat Fish,North Kingstown,MUN,CIN,MUN,0,0,0,0,0,0,0,0,0,0,0,0,0,1,1,0,0,0,0,0,-71.45279693,41.57787704,North Kingstown Town Boat Launch is a Local Park located in North Kingstown
1576,Wilson Park,Local Park,Roosevelt,North Kingstown,MUN,EAS,FED,1,3,10,0,10,2,2,0,0,0,0,0,0,1,1,0,0,0,0,1,-71.45922851,41.57463836,Wilson Park is a Local Park located in North Kingstown
1615,North Kingstown Town Beach,Local Park,Beach,North Kingstown,MUN,CIN,MUN,1,0,0,0,0,0,0,0,0,0,0,0,0,0,0,0,0,1,0,0,-71.44361114,41.56615829,North Kingstown Town Beach is a Local Park located in North Kingstown
1644,Arcadia Management Area,Management Area,Ten Rod,Exeter,STA,EAS,FED,0,0,0,0,0,0,0,0,0,0,0,0,0,0,0,1,1,0,0,2,-71.72419738,41.58083343,Arcadia Management Area is a Management Area located in Exeter
1658,North Kingstown High School,School,Fairway,North Kingstown,SCH,NON,NON,0,2,3,1,3,0,6,0,1,0,0,0,0,0,0,0,0,0,0,1,-71.44660949,41.55709075,North Kingstown High School is a School located in North Kingstown
1661,Fogland Beach,Local Park,Three Rod,Tiverton,MUN,CIN,MUN,0,0,0,0,0,0,0,0,0,0,0,0,0,1,1,0,0,1,0,0,-71.21317291,41.55625534,Fogland Beach is a Local Park located in Tiverton
1678,John H Chaffee Rome Point Preserve,State Park,Terre Mar,North Kingstown,STA,FEE,STA,0,0,0,0,0,0,0,0,0,0,0,0,0,1,0,0,0,0,0,0,-71.43125152,41.54018783,John H Chaffee Rome Point Preserve is a State Park located in North Kingstown
1679,Sandy Point Beach,Local Park,Sandy Point,Portsmouth,MUN,EAS,FED,0,0,0,0,0,0,0,0,0,0,0,0,0,0,0,0,0,1,0,0,-71.23627471,41.55332565,Sandy Point Beach is a Local Park located in Portsmouth
1694,May C. Donovan Marsh,Conservation Area,Francis,Little Compton,STA,FEE,STA,0,0,0,0,0,0,0,0,0,0,0,0,0,0,0,0,0,0,0,0,-71.20301818,41.54493713,May C. Donovan Marsh is a Conservation Area located in Little Compton
1700,Shady Lea,Conservation Area,Colonel Rodman,North Kingstown,STA,FEE,STA,0,0,0,0,0,0,0,0,0,0,0,0,0,1,1,0,0,0,0,1,-71.47031402,41.54067611,Shady Lea is a Conservation Area located in North Kingstown
1704,Silver Spring Lake Fishing Area,Fishing & Boating Area,Silver Spring,North Kingstown,STA,FEE,STA,0,0,0,0,0,0,0,0,0,0,0,0,0,1,1,0,0,0,0,1,-71.47007751,41.53821182,Silver Spring Lake Fishing Area is a Fishing & Boating Area located in North Kingstown
1708,Jamestown Shores Beach,Local Park,Seaside,Jamestown,MUN,EAS,STA,0,0,0,0,0,0,0,0,0,0,0,0,0,1,0,0,0,1,0,0,-71.38578033,41.53823471,Jamestown Shores Beach is a Local Park located in Jamestown
1715,Gould Island,Management Area,Shore,Jamestown,STA,FEE,STA,0,0,0,0,0,0,0,0,0,0,0,0,0,0,0,1,1,0,0,0,-71.34436798,41.53399276,Gould Island is a Management Area located in Jamestown
1723,Rockville Management,Management Area,Canonchet,Hopkinton,STA,FEE,STA,0,0,0,0,0,0,0,0,0,0,0,0,0,1,0,1,1,0,0,0,-71.75704956,41.50593948,Rockville Management is a Management Area located in Hopkinton
1807,Bay Is. Park-Dutch Island,Management Area,Fort Getty,Jamestown,STA,FEE,STA,0,0,0,0,0,0,0,0,0,0,0,0,0,0,0,1,1,0,0,0,-71.40055084,41.50149154,Bay Is. Park-Dutch Island is a Management Area located in Jamestown
1846,Hannah Robinson Tower,State Park,Bridgetown,South Kingstown,STA,FEE,STA,0,0,0,0,0,0,0,0,0,0,0,0,0,0,0,0,0,0,0,0,-71.45588684,41.49504852,Hannah Robinson Tower is a State Park located in South Kingstown
1854,Carolina Management  Area,Management Area,Meadowbrook,Richmond,STA,FEE,STA,0,0,0,0,0,0,0,0,0,0,0,0,0,0,0,1,1,0,0,1,-71.68852233,41.46908187,Carolina Management  Area is a Management Area located in Richmond
1873,Fort Getty,Local Park,Fort Getty,Jamestown,MUN,CIN,MUN,0,0,0,0,0,0,0,0,0,0,0,0,0,1,1,0,0,0,0,1,-71.39802551,41.49164199,Fort Getty is a Local Park located in Jamestown
1911,Great Swamp Management Area,Management Area,Great Neck,South Kingstown,STA,FEE,STA,0,0,0,0,0,0,0,0,0,0,0,0,0,0,0,1,1,0,0,0,-71.57805633,41.46467208,Great Swamp Management Area is a Management Area located in South Kingstown
1912,Little Compton Town Beach,Local Park,Shore,Little Compton,MUN,CIN,MUN,0,0,0,0,0,0,0,0,0,0,0,0,0,0,0,0,0,1,0,0,-71.13777923,41.49385833,Little Compton Town Beach is a Local Park located in Little Compton
1922,Jamestown Town Beach,Local Park,Beavertail,Jamestown,MUN,CIN,MUN,0,0,0,0,0,0,0,0,0,0,0,0,0,0,0,0,0,1,0,0,-71.38410949,41.4889183,Jamestown Town Beach is a Local Park located in Jamestown
1933,Easton's Beach,Local Park,Memorial,Newport,MUN,EAS,FED,0,0,0,0,0,0,0,0,0,0,0,0,0,0,0,0,0,1,0,0,-71.29183197,41.48795318,Easton's Beach is a Local Park located in Newport
1942,Second Beach,Local Park,Sachuest Point,Middletown,MUN,EAS,FED,0,0,0,0,0,0,0,0,0,0,0,0,0,0,0,0,0,1,0,0,-71.25745391,41.48765182,Second Beach is a Local Park located in Middletown
1949,Purgatory Chasm,State Park,Tuckerman,Middletown,STA,FEE,STA,0,0,0,0,0,0,0,0,0,0,0,0,0,0,0,0,0,0,0,0,-71.26841735,41.48681259,Purgatory Chasm is a State Park located in Middletown
1972,Third Beach,Local Park,Third Beach,Middletown,MUN,CIN,MUN,0,0,0,0,0,0,0,0,0,0,0,0,0,1,1,0,0,1,0,0,-71.24562835,41.48653793,Third Beach is a Local Park located in Middletown
1997,Fort Adams State Park,State Park,Fort Adams,Newport,STA,FEE,STA,0,0,3,0,3,0,0,0,0,0,0,0,0,1,1,0,0,0,0,1,-71.33828735,41.47532653,Fort Adams State Park is a State Park located in Newport
2002,Fort Wetherill,State Park,Fort Wetherill,Jamestown,STA,EAS,FED,0,0,0,0,0,0,0,0,0,0,0,0,0,1,1,0,0,0,0,0,-71.36210632,41.47934722,Fort Wetherill is a State Park located in Jamestown
2024,King Park,Local Park,Wellington,Newport,MUN,CIN,MUN,1,2,0,0,0,0,0,0,0,0,0,0,0,1,1,0,0,0,0,1,-71.31980895,41.47655105,King Park is a Local Park located in Newport
2048,Rogers High School,School,Wickham,Newport,SCH,NON,NON,0,0,1,0,0,0,6,0,1,0,0,0,0,0,0,0,0,0,0,1,-71.32054138,41.46977996,Rogers High School is a School located in Newport
2062,Tri-Pond Park,Local Park,Asa Pond,South Kingstown,MUN,EAS,FED,0,0,0,0,0,0,0,0,0,0,0,0,0,1,1,0,0,0,0,1,-71.51093292,41.45636367,Tri-Pond Park is a Local Park located in South Kingstown
2070,Beavertail State Park,State Park,Beavertail,Jamestown,STA,FEE,STA,0,0,0,0,0,0,0,0,0,0,0,0,0,1,0,0,0,0,0,0,-71.39702606,41.45677566,Beavertail State Park is a State Park located in Jamestown
2078,Sakonnet Harbor Beach,Local Park,Sakonnet Point,Little Compton,MUN,CIN,MUN,0,0,0,0,0,0,0,0,0,0,0,0,0,0,0,0,0,1,0,0,-71.19320678,41.46371841,Sakonnet Harbor Beach is a Local Park located in Little Compton
2086,Chariho High School,School,Switch,Richmond,SCH,NON,NON,0,4,2,1,2,0,4,0,1,0,0,0,0,0,0,0,0,0,0,1,-71.69665527,41.44982147,Chariho High School is a School located in Richmond
2088,Brenton Point Park,State Park,Atlantic,Newport,STA,FEE,STA,0,0,0,0,1,0,0,0,0,0,0,0,0,1,0,0,0,0,0,0,-71.35443115,41.45196533,Brenton Point Park is a State Park located in Newport
2099,Kings Beach,Fishing & Boating Area,Price's Neck,Newport,STA,FEE,STA,0,0,0,0,0,0,0,0,0,0,0,0,0,1,0,0,0,1,0,0,-71.34235382,41.45436096,Kings Beach is a Fishing & Boating Area located in Newport
2132,Meadow Brook Pond,Fishing & Boating Area,Church,Richmond,STA,FEE,STA,0,0,0,0,0,0,0,0,0,0,0,0,0,1,0,0,0,0,0,1,-71.69017028,41.43840026,Meadow Brook Pond is a Fishing & Boating Area located in Richmond
2142,Narragansett Town Beach,Local Park,Beach,Narragansett,MUN,CIN,MUN,0,0,0,0,0,0,0,0,0,0,0,0,0,0,0,0,0,1,0,0,-71.4552536,41.43560791,Narragansett Town Beach is a Local Park located in Narragansett
2162,Narragansett High School,School,Pier,Narragansett,SCH,NON,NON,0,2,3,1,3,0,0,0,1,0,0,0,0,0,0,0,0,0,0,1,-71.47056579,41.42977523,Narragansett High School is a School located in Narragansett
2206,Woody Hill Area,Management Area,Woody Hillension,Westerly,STA,FEE,STA,0,0,0,0,0,0,0,0,0,0,0,0,0,0,0,1,1,0,0,1,-71.74580383,41.37737655,Woody Hill Area is a Management Area located in Westerly
2217,Newton Swamp,Management Area,Westerly-Bradford,Westerly,STA,FEE,STA,0,0,0,0,0,0,0,0,0,0,0,0,0,0,0,1,1,0,0,0,-71.77534484,41.38155364,Newton Swamp is a Management Area located in Westerly
2220,Scarborough State Beach,State Park,Ocean,Narragansett,STA,EAS,FED,0,0,0,0,0,0,0,0,0,0,0,0,0,0,0,0,0,1,0,0,-71.47267913,41.38970184,Scarborough State Beach is a State Park located in Narragansett
2238,Blue Shutters Beach,Local Park,Beach,Charlestown,MUN,EAS,STA,0,0,0,0,0,0,0,0,0,0,0,0,0,0,0,0,0,1,0,0,-71.6949234,41.34166336,Blue Shutters Beach is a Local Park located in Charlestown
2251,Fort Ninigret,State Park,Fort Ninigret,Charlestown,STA,FEE,STA,0,0,0,0,0,0,0,0,0,0,0,0,0,0,0,0,0,0,0,0,-71.64786529,41.38111114,Fort Ninigret is a State Park located in Charlestown
2253,Burlingame Management Area,Management Area,Unnamed,Charlestown,STA,EAS,STA,0,0,0,0,0,0,0,0,0,0,0,0,0,0,0,1,1,0,0,1,-71.70753479,41.40476989,Burlingame Management Area is a Management Area located in Charlestown
2254,Succotash Marsh,Conservation Area,Succotash,South Kingstown,STA,EAS,FED,0,0,0,0,0,0,0,0,0,0,0,0,0,0,0,0,0,0,0,0,-71.52602386,41.37991714,Succotash Marsh is a Conservation Area located in South Kingstown
2256,Babcock Hall,Local Park,Ward,Westerly,SCH,NON,SCH,0,1,0,1,1,0,0,0,1,0,0,0,0,0,0,0,0,0,0,1,-71.82043457,41.37632751,Babcock Hall is a Local Park located in Westerly
2258,Galilee Bird Sanctuary,Management Area,Galilee Escape,Narragansett,STA,FEE,STA,0,0,0,0,0,0,0,0,0,0,0,0,0,0,0,0,0,0,0,0,-71.49902343,41.37820434,Galilee Bird Sanctuary is a Management Area located in Narragansett
2281,Ninigret Park,Local Park,Park,Charlestown,MUN,EAS,FED,1,1,1,0,2,1,4,0,0,0,0,0,0,1,0,0,0,0,1,1,-71.66593933,41.37002182,Ninigret Park is a Local Park located in Charlestown
2284,Fishermen's Memorial State Campground,State Park,Point Judith,Narragansett,STA,EAS,FED,0,0,0,0,0,2,2,0,0,0,0,0,0,0,0,0,0,0,0,1,-71.49288177,41.38025283,Fishermen's Memorial State Campground is a State Park located in Narragansett
2300,East Matunuck State Beach,State Park,Succotash,South Kingstown,STA,EAS,FED,0,0,0,0,0,0,0,0,0,0,0,0,0,0,0,0,0,1,0,0,-71.52599334,41.37781143,East Matunuck State Beach is a State Park located in South Kingstown
2326,Roger Wheeler State Beach,State Park,Sand Hill Cove,Narragansett,STA,EAS,FED,1,0,0,0,0,0,0,0,0,0,0,0,0,0,0,0,0,1,0,0,-71.49946594,41.3733139,Roger Wheeler State Beach is a State Park located in Narragansett
2336,Green Hill / Goose Island,Fishing & Boating Area,Charlestown Beach,South Kingstown,STA,FEE,STA,0,0,0,0,0,0,0,0,0,0,0,0,0,1,0,0,0,0,0,0,-71.60766601,41.36441802,Green Hill / Goose Island is a Fishing & Boating Area located in South Kingstown
2346,Fish Hill Ball Fields,Athletic Field,Fish Hill,Coventry,STA,FEE,STA,0,2,3,0,1,0,0,0,0,0,0,0,0,0,0,0,0,0,0,1,-71.62533569,41.66588211,Fish Hill Ball Fields is a Athletic Field located in Coventry
2361,Charlestown Town Beach,Local Park,Brown Hill,Charlestown,MUN,CIN,MUN,0,0,0,0,0,0,0,0,0,0,0,0,0,0,0,0,0,1,0,0,-71.62590026,41.36083221,Charlestown Town Beach is a Local Park located in Charlestown
2364,Camp Cronin,Fishing & Boating Area,Ocean,Narragansett,STA,FEE,STA,0,0,0,0,0,0,0,0,0,0,0,0,0,1,0,0,0,0,0,0,-71.48472595,41.36273956,Camp Cronin is a Fishing & Boating Area located in Narragansett
2365,Charlestown Breachway Campground,State Park,Charlestown Beach,Charlestown,STA,FEE,STA,0,0,0,0,0,0,0,0,0,0,0,0,0,1,1,0,0,0,0,1,-71.63808441,41.35821533,Charlestown Breachway Campground is a State Park located in Charlestown
2397,Ninigret Conservation Area,Conservation Area,Beach,Charlestown,STA,EAS,FED,0,0,0,0,0,0,0,0,0,0,0,0,0,0,0,0,0,0,0,0,-71.67544555,41.34807205,Ninigret Conservation Area is a Conservation Area located in Charlestown
2399,Quonochontaug Fishing Area,Fishing & Boating Area,Beach,Charlestown,STA,FEE,STA,0,0,0,0,0,0,0,0,0,0,0,0,0,1,1,0,0,0,0,1,-71.72224426,41.33657455,Quonochontaug Fishing Area is a Fishing & Boating Area located in Charlestown
2420,Misquamicut State Beach,State Park,Atlantic,Westerly,STA,FEE,STA,1,0,0,0,0,0,0,0,0,0,0,0,0,0,0,0,0,1,0,0,-71.80358123,41.32316589,Misquamicut State Beach is a State Park located in Westerly
2433,Westerly Town Beach,Local Park,Atlantic,Westerly,MUN,CIN,MUN,0,0,0,0,0,0,0,0,0,0,0,0,0,0,0,0,0,1,0,0,-71.7905426,41.32500839,Westerly Town Beach is a Local Park located in Westerly
2465,Clay Head / Risom,Conservation Area,Corn Neck,New Shoreham,STA,FEE,STA,0,0,0,0,0,0,0,0,0,0,0,0,0,0,0,0,0,0,0,0,-71.56066894,41.22084045,Clay Head / Risom is a Conservation Area located in New Shoreham
2472,Crescent Beach,Local Park,Corn Neck,New Shoreham,MUN,CIN,MUN,0,0,0,0,0,0,0,0,0,0,0,0,0,0,0,0,0,1,0,0,-71.56574249,41.18125534,Crescent Beach is a Local Park located in New Shoreham
2481,Rodman's Hollow,Conservation Area,Black Rock,New Shoreham,STA,EAS,FED,0,0,0,0,0,0,0,0,0,0,0,0,0,0,0,0,0,0,0,0,-71.59078979,41.15256881,Rodman's Hollow is a Conservation Area located in New Shoreham
2528,Merrill S. Whipple Conservation,Management Area,Sandy Bottom,Coventry,STA,FEE,STA,0,0,0,0,0,0,0,0,0,0,0,0,0,1,0,1,1,0,0,0,-71.55630493,41.68816757,Merrill S. Whipple Conservation is a Management Area located in Coventry
2540,South Kingstown Town Beach,Local Park,Matunuck Beach,South Kingstown,MUN,EAS,FED,0,0,0,0,0,0,0,0,0,0,0,0,0,0,0,0,0,1,0,0,-71.55059051,41.37555313,South Kingstown Town Beach is a Local Park located in South Kingstown
2553,Britto's Park,Local Park,Unnamed,Warren,MUN,CIN,MUN,0,1,1,1,1,0,0,0,1,0,0,0,0,0,0,0,0,0,0,0,-71.26116943,41.72505187,Britto's Park is a Local Park located in Warren
2555,East Bay Bike Path,State Park,Market,Warren,STA,FEE,STA,0,0,0,0,0,0,0,0,0,0,0,0,0,0,0,0,0,0,0,1,-71.28073883,41.73088455,East Bay Bike Path is a State Park located in Warren
2558,Cole Avenue Field,Local Park,Hugh Cole,Warren,MUN,CIN,MUN,0,1,1,0,0,0,0,0,1,0,0,0,0,0,0,0,0,0,0,1,-71.25711059,41.72736358,Cole Avenue Field is a Local Park located in Warren
2578,Buttonhole Golf Course,Local Park,King Philip,Johnston,STA,EAS,FED,0,0,0,0,0,0,0,0,0,0,0,0,1,0,0,0,0,0,0,1,-71.4635086,41.82532119,Buttonhole Golf Course is a Local Park located in Johnston
2634,Doreen Tomlinson Complex,Athletic Field,Daggett,Pawtucket,STA,EAS,FED,0,5,1,0,1,0,0,0,0,0,0,0,0,0,0,0,0,0,0,1,-71.34529113,41.88639068,Doreen Tomlinson Complex is a Athletic Field located in Pawtucket
2654,Salty Brine State Beach,State Park,Sand Hill Cove,Narragansett,STA,EAS,FED,0,0,0,0,0,0,0,0,0,0,0,0,0,0,0,0,0,1,0,0,-71.51280212,41.37543487,Salty Brine State Beach is a State Park located in Narragansett
2657,Washington Secondary Bike Path,Local Park,Howard,Cranston,STA,FEE,STA,0,0,0,0,0,0,0,0,0,0,0,0,0,0,0,0,0,0,0,1,-71.44989013,41.79179382,Washington Secondary Bike Path is a Local Park located in Cranston
2668,Exeter / West Greenwich Jr-sr High,School,Nooseneck Hill,West Greenwich,SCH,NON,NON,0,2,2,1,3,0,4,0,1,0,0,0,0,0,0,0,0,0,0,1,-71.63713073,41.60582733,Exeter / West Greenwich Jr-sr High is a School located in West Greenwich
2684,Broad Rock Middle School,School,Broad Rock,South Kingstown,SCH,NON,NON,0,0,2,0,2,0,6,0,1,0,0,0,0,0,0,0,0,0,0,1,-71.48425292,41.45588302,Broad Rock Middle School is a School located in South Kingstown
2706,Black Hut Management Area,Management Area,Glen Meadow,Burrillville,STA,FEE,STA,0,0,0,0,0,0,0,0,0,0,0,0,0,0,0,1,1,0,0,1,-71.64867401,41.98720932,Black Hut Management Area is a Management Area located in Burrillville
2707,Burrillville Middle School,School,Broncos,Burrillville,SCH,NON,NON,1,2,1,0,1,2,2,0,1,0,0,0,0,0,0,0,0,0,0,1,-71.62338256,41.98054504,Burrillville Middle School is a School located in Burrillville
2739,Waypoyset Preserve / Bristol Narrows,Conservation Area,Narrows,Bristol,NGO,EAS,STA,0,0,0,0,0,0,0,0,0,0,0,0,0,1,1,0,0,0,0,0,-71.24816131,41.69705581,Waypoyset Preserve / Bristol Narrows is a Conservation Area located in Bristol
2749,Blue Beach,Local Park,Quonset,North Kingstown,MUN,CIN,STA,0,0,0,0,0,0,0,0,0,0,0,0,0,0,0,0,0,1,0,0,-71.41568756,41.58681106,Blue Beach is a Local Park located in North Kingstown
2752,Laforge Point Park,Local Park,Walmsley,North Kingstown,MUN,CIN,MUN,0,0,0,0,0,0,0,0,0,0,0,0,0,1,1,0,0,0,0,1,-71.45254516,41.50638198,Laforge Point Park is a Local Park located in North Kingstown
2758,Killingly Pond,Management Area,Cook Estate,Glocester,STA,FEE,STA,0,0,0,0,0,0,0,0,0,0,0,0,0,0,0,1,1,0,0,0,-71.78054809,41.86515808,Killingly Pond is a Management Area located in Glocester
2768,Mccoy Stadium Annex,Athletic Field,Division,Pawtucket,MUN,EAS,FED,0,0,1,1,1,0,0,0,1,0,0,0,0,0,0,0,0,0,0,1,-71.36843872,41.87414932,Mccoy Stadium Annex is a Athletic Field located in Pawtucket
2769,Town Landing,Local Park,Taft,Pawtucket,MUN,CIN,MUN,0,0,0,0,0,0,0,0,0,0,0,0,0,1,1,0,0,0,0,1,-71.3840332,41.87176895,Town Landing is a Local Park located in Pawtucket
2772,Thunder Mist Overlook,Local Park,River,Woonsocket,MUN,CIN,MUN,0,0,0,0,0,0,0,0,0,0,0,0,0,0,1,0,0,0,0,0,-71.51758575,42.00001144,Thunder Mist Overlook is a Local Park located in Woonsocket
2785,Union Pond Fishing Access,Fishing & Boating Area,Reservoir,Burrillville,STA,FEE,STA,0,0,0,0,0,0,0,0,0,0,0,0,0,1,1,0,0,0,0,1,-71.7039566,41.95180892,Union Pond Fishing Access is a Fishing & Boating Area located in Burrillville
2786,Spring Lake Beach,Local Park,Hillside,Burrillville,MUN,EAS,STA,0,0,0,0,0,0,0,0,0,0,0,0,0,0,0,0,0,1,0,0,-71.65743255,41.98682403,Spring Lake Beach is a Local Park located in Burrillville
2787,Slatersville Pond Fishing Access,Fishing & Boating Area,Victory Highway,North Smithfield,STA,FEE,STA,0,0,0,0,0,0,0,0,0,0,0,0,0,0,1,0,0,0,0,1,-71.60088348,41.98708724,Slatersville Pond Fishing Access is a Fishing & Boating Area located in North Smithfield
2809,Jamestown Town Pier,Local Park,Conanicus,Jamestown,MUN,EAS,FED,0,0,0,0,0,0,0,0,0,0,0,0,0,1,1,0,0,0,0,1,-71.36679077,41.49643325,Jamestown Town Pier is a Local Park located in Jamestown
2811,Potter Cove Access,Fishing & Boating Area,Bayview,Jamestown,MUN,CIN,MUN,0,0,0,0,0,0,0,0,0,0,0,0,0,1,1,0,0,0,0,1,-71.35974884,41.5102005,Potter Cove Access is a Fishing & Boating Area located in Jamestown
2816,Rocky Point Park,Local Park,Rocky Point,Warwick,STA,EAS,STA,0,0,0,0,0,0,0,0,0,0,0,0,0,1,0,0,0,0,0,0,-71.36405181,41.69140243,Rocky Point Park is a Local Park located in Warwick
2823,Oakland Forest,Conservation Area,Oakland Farm,Portsmouth,NGO,EAS,STA,0,0,0,0,0,0,0,0,0,0,0,0,0,0,0,0,1,0,0,0,-71.26146697,41.55591583,Oakland Forest is a Conservation Area located in Portsmouth
2824,High Rocks Gorge,Conservation Area,Harkness,North Smithfield,STA,FEE,STA,0,0,0,0,0,0,0,0,0,0,0,0,0,1,0,0,0,0,0,0,-71.55272674,42.01098632,High Rocks Gorge is a Conservation Area located in North Smithfield
2825,Tillinghast Pond,Fishing & Boating Area,Plain,West Greenwich,STA,FEE,STA,0,0,0,0,0,0,0,0,0,0,0,0,0,1,1,0,0,0,0,1,-71.75569152,41.64473724,Tillinghast Pond is a Fishing & Boating Area located in West Greenwich
2826,Chariho Athletic Association,Local Park,Nooseneck Hill,Hopkinton,PRV,NON,NON,0,3,0,0,0,0,0,0,0,0,0,0,0,1,1,0,0,0,0,1,-71.70585632,41.51308059,Chariho Athletic Association is a Local Park located in Hopkinton
2830,Hope Pond Recreation Area & Beach,Local Park,Ryefield,Scituate,MUN,CIN,MUN,0,0,0,0,1,0,1,0,0,0,0,0,0,1,0,0,0,1,0,1,-71.56555175,41.73530578,Hope Pond Recreation Area & Beach is a Local Park located in Scituate
2831,North Glen Boat Launch,Local Park,North Glen,Coventry,MUN,CIN,MUN,0,0,0,0,0,0,0,0,0,0,0,0,0,1,1,0,0,0,0,1,-71.54834747,41.67012023,North Glen Boat Launch is a Local Park located in Coventry
2832,Tiogue Boat Launch,Local Park,Tiogue,Coventry,MUN,CIN,MUN,0,0,0,0,0,0,0,0,0,0,0,0,0,1,1,0,0,0,0,1,-71.54940032,41.68517303,Tiogue Boat Launch is a Local Park located in Coventry
2841,Allen Harbor,Local Park,Alllen,North Kingstown,MUN,CIN,MUN,0,0,0,0,0,0,0,0,0,0,0,0,0,1,1,0,0,0,0,1,-71.4118576,41.62038421,Allen Harbor is a Local Park located in North Kingstown
2842,Parks And Recreation Complex,Local Park,Clarke,Narragansett,MUN,CIN,MUN,0,0,0,0,1,1,3,0,0,0,0,0,0,0,0,0,0,0,1,1,-71.47698211,41.39974212,Parks And Recreation Complex is a Local Park located in Narragansett
2846,County Road Boat Launch,Local Park,County,Barrington,MUN,CIN,MUN,0,0,0,0,0,0,0,0,0,0,0,0,0,1,1,0,0,0,0,1,-71.29730224,41.73725891,County Road Boat Launch is a Local Park located in Barrington
2868,Spring Lake,Fishing & Boating Area,Black Hut,Burrillville,STA,FEE,STA,0,0,0,0,0,0,0,0,0,0,0,0,0,1,1,0,0,0,0,1,-71.66511535,41.97899246,Spring Lake is a Fishing & Boating Area located in Burrillville
2869,Wakefield Pond,Fishing & Boating Area,Lee,Burrillville,STA,FEE,STA,0,0,0,0,0,0,0,0,0,0,0,0,0,1,1,0,0,0,0,1,-71.78852844,41.96621322,Wakefield Pond is a Fishing & Boating Area located in Burrillville
2870,Deep Pond,Fishing & Boating Area,Deep Pond,Exeter,STA,FEE,STA,0,0,0,0,0,0,0,0,0,0,0,0,0,1,0,0,0,0,0,1,-71.71777343,41.56175613,Deep Pond is a Fishing & Boating Area located in Exeter
2871,Frosty Hollow Pond,Fishing & Boating Area,Camp E-hun-tee,Exeter,STA,FEE,STA,0,0,0,0,0,0,0,0,0,0,0,0,0,1,0,0,0,0,0,1,-71.70903015,41.58768844,Frosty Hollow Pond is a Fishing & Boating Area located in Exeter
2872,Simmons Mill Pond,Management Area,Colebrook,Little Compton,STA,FEE,STA,0,0,0,0,0,0,0,0,0,0,0,0,0,1,0,1,1,0,0,1,-71.15438079,41.53970336,Simmons Mill Pond is a Management Area located in Little Compton
2873,Pettaquamscutt Pond,Fishing & Boating Area,Gilbert Stuart,North Kingstown,MUN,CIN,MUN,0,0,0,0,0,0,0,0,0,0,0,0,0,1,1,0,0,0,0,1,-71.44407653,41.51992034,Pettaquamscutt Pond is a Fishing & Boating Area located in North Kingstown
2874,Biscuit City,Fishing & Boating Area,Biscuit City,Richmond,STA,FEE,STA,0,0,0,0,0,0,0,0,0,0,0,0,0,1,1,0,0,0,0,1,-71.61579895,41.45082473,Biscuit City is a Fishing & Boating Area located in Richmond
2875,Stafford Pond,Fishing & Boating Area,Oldafford,Tiverton,STA,FEE,STA,0,0,0,0,0,0,0,0,0,0,0,0,0,1,1,0,0,0,0,1,-71.14877319,41.63361358,Stafford Pond is a Fishing & Boating Area located in Tiverton
2876,Big River @burnt Saw Mill Rd,Fishing & Boating Area,Burnt Sawmill,West Greenwich,STA,FEE,STA,0,0,0,0,0,0,0,0,0,0,0,0,0,1,1,0,0,0,0,1,-71.60775756,41.64326858,Big River @burnt Saw Mill Rd is a Fishing & Boating Area located in West Greenwich
2877,Tarbox Pond,Fishing & Boating Area,Hopkins Hill,West Greenwich,STA,FEE,STA,0,0,0,0,0,0,0,0,0,0,0,0,0,1,1,0,0,0,0,1,-71.57354736,41.63637924,Tarbox Pond is a Fishing & Boating Area located in West Greenwich
2878,Hope Valley,Fishing & Boating Area,Nooseneck Hill,Hopkinton,MUN,CIN,MUN,0,0,0,0,0,0,0,0,0,0,0,0,0,1,1,0,0,0,0,1,-71.70645904,41.51210403,Hope Valley is a Fishing & Boating Area located in Hopkinton
2879,Fogland Boat Launch,Fishing & Boating Area,Fogland,Tiverton,MUN,CIN,MUN,0,0,0,0,0,0,0,0,0,0,0,0,0,1,1,0,0,0,0,1,-71.21348571,41.55488204,Fogland Boat Launch is a Fishing & Boating Area located in Tiverton
2880,Longmeadow Fishing And Boating Access,Fishing & Boating Area,Dorr,Warwick,MUN,EAS,FED,0,0,0,0,0,0,0,0,0,0,0,0,0,1,1,0,0,0,0,1,-71.36469268,41.70441818,Longmeadow Fishing And Boating Access is a Fishing & Boating Area located in Warwick
2881,Zeke's Bridge,Fishing & Boating Area,Harkney Hill,Coventry,STA,FEE,STA,0,0,0,0,0,0,0,0,0,0,0,0,0,1,1,0,0,0,0,1,-71.61888122,41.66522979,Zeke's Bridge is a Fishing & Boating Area located in Coventry
2882,Pascoag Reservoir Fishing Access,Fishing & Boating Area,Brandy Brook,Glocester,STA,FEE,STA,0,0,0,0,0,0,0,0,0,0,0,0,0,1,1,0,0,0,0,1,-71.71816253,41.92723464,Pascoag Reservoir Fishing Access is a Fishing & Boating Area located in Glocester
2883,JL Curran,State Park,Seven Mile,Cranston,STA,FEE,STA,0,0,0,0,0,0,0,0,0,0,0,0,0,1,1,1,1,0,0,1,-71.55120086,41.7507286,JL Curran is a State Park located in Cranston
2884,Richmond Landing,Fishing & Boating Area,Church,Richmond,STA,FEE,STA,0,0,0,0,0,0,0,0,0,0,0,0,0,1,1,0,0,0,0,1,-71.6813507,41.44525146,Richmond Landing is a Fishing & Boating Area located in Richmond
2885,White Rock,Fishing & Boating Area,State 78,Westerly,MUN,CIN,MUN,0,0,0,0,0,0,0,0,0,0,0,0,0,1,1,0,0,0,0,1,-71.84104156,41.39451217,White Rock is a Fishing & Boating Area located in Westerly
2887,Brickyard Pond,Fishing & Boating Area,Legion,Barrington,MUN,CIN,MUN,0,0,0,0,0,0,0,0,0,0,0,0,0,1,1,0,0,0,0,1,-71.32526397,41.73535919,Brickyard Pond is a Fishing & Boating Area located in Barrington
2888,Olney Pond Fishing Access,Fishing & Boating Area,Stump Hill,Lincoln,STA,EAS,FED,0,0,0,0,0,0,0,0,0,0,0,0,0,1,0,0,0,0,0,1,-71.42659759,41.89469528,Olney Pond Fishing Access is a Fishing & Boating Area located in Lincoln
2890,Lonsdale Drive-in,Fishing & Boating Area,John,Lincoln,STA,FEE,STA,0,0,0,0,0,0,0,0,0,0,0,0,0,1,1,0,0,0,0,1,-71.40005493,41.90730285,Lonsdale Drive-in is a Fishing & Boating Area located in Lincoln
2891,High Banks,Fishing & Boating Area,Summit,Exeter,STA,FEE,STA,0,0,0,0,0,0,0,0,0,0,0,0,0,1,1,0,0,0,0,1,-71.71535491,41.56528854,High Banks is a Fishing & Boating Area located in Exeter
2892,Rose Nulman Memorial Park,Local Park,Ocean,Narragansett,PRV,NON,PRV,0,0,0,0,0,0,0,0,0,0,0,0,0,1,0,0,0,1,0,0,-71.48078155,41.3620491,Rose Nulman Memorial Park is a Local Park located in Narragansett
