ID,F_Name,F_Type,Street,Town,OwnerTyp,ConsType,ConsJuri,P_Ground,B_Field,S_Field,F_Field,M_Field,B_Court,T_Court,V_Court,Track,SkatPark,IH_Rink,SH_Rink,Golf,Fishing,Boating,Hunting,Trails,Beach,Pool,ActiveRec,Lon,Lat
593,Roger Williams National Park,LP,Main,Providence,FED,FEE,FED,0,0,0,0,0,0,0,0,0,0,0,0,0,0,0,0,0,0,0,0,-71.41054534000,41.83000946000
1937,Sachuest Pt. National Refuge,CA,Sachuest Point,Middletown,FED,FEE,FED,0,0,0,0,0,0,0,0,0,0,0,0,0,0,0,0,0,0,0,0,-71.24298858000,41.48052597000
2252,Trustom Pond National Wildlife Refuge,CA,Border,South Kingstown,FED,FEE,FED,0,0,0,0,0,0,0,0,0,0,0,0,0,0,0,0,0,0,0,0,-71.59045410000,41.37482833000
2462,Block Is. Nat. Wildlife Refuge,CA,Beach,New Shoreham,FED,FEE,FED,0,0,0,0,0,0,0,0,0,0,0,0,0,0,0,0,0,0,0,0,-71.57406616000,41.21141052000
34,Narrow River Canoe Access,FB,Boston Neck,Narragansett,FED,FEE,FED,0,0,0,0,0,0,0,0,0,0,0,0,0,1,1,0,0,0,0,1,-71.44981384000,41.44940948000
438,Max Read Field,LP,Pleasant,Pawtucket,MUN,EAS,FED,0,0,2,1,2,0,0,0,1,0,0,0,0,1,0,0,0,0,0,1,-71.38112640000,41.86435317000
2553,Britto's Park,LP,Unnamed,Warren,MUN,CIN,MUN,0,1,1,1,1,0,0,0,1,0,0,0,0,0,0,0,0,0,0,0,-71.26116943000,41.72505187000
2558,Cole Avenue Field,LP,Hugh Cole,Warren,MUN,CIN,MUN,0,1,1,0,0,0,0,0,1,0,0,0,0,0,0,0,0,0,0,1,-71.25711059000,41.72736358000
345,Higginson Avenue Sports Complex,LP,Crow Point,Central Falls,MUN,EAS,FED,0,1,1,1,1,2,0,0,1,0,0,0,0,0,0,0,0,0,0,1,-71.40245819000,41.88519287000
949,Brayton Ave. Field,LP,Unnamed,Cranston,MUN,CIN,MUN,1,4,0,0,0,0,0,0,1,0,0,0,0,0,0,0,0,0,0,1,-71.47229766000,41.74681472000
824,Park View Field,LP,Park View,Cranston,MUN,CIN,MUN,1,3,0,0,1,1,4,0,1,0,0,0,0,0,0,0,0,0,0,1,-71.41453552000,41.77221298000
681,Pierce Field Athletic Complex,AF,Mercer,East Providence,MUN,CIN,MUN,1,4,0,0,1,2,2,0,1,0,0,0,0,0,0,0,0,0,0,1,-71.38240814000,41.81060409000
31,Cass Park,LP,Newland,Woonsocket,MUN,EAS,FED,1,2,3,0,3,1,5,0,1,0,0,0,0,0,0,0,0,0,0,1,-71.48963928000,42.00384521000
76,Barry Memorial Field,LP,Smithfield,Woonsocket,MUN,CIN,MUN,0,3,2,1,2,0,0,0,1,0,0,0,0,0,0,0,0,0,0,1,-71.51869964000,41.98605728000
1374,East Greenwich High School,LP,Avenger,East Greenwich,MUN,EAS,FED,1,3,4,2,4,0,6,0,1,1,0,0,0,0,0,0,0,0,0,1,-71.48366546000,41.63710403000
126,Tucker Field,AF,Mendon,Cumberland,MUN,CIN,MUN,0,2,1,1,2,0,4,0,1,0,0,0,0,0,0,0,0,0,0,1,-71.44360351000,41.96369552000
2768,Mccoy Stadium Annex,AF,Division,Pawtucket,MUN,EAS,FED,0,0,1,1,1,0,0,0,1,0,0,0,0,0,0,0,0,0,0,1,-71.36843872000,41.87414932000
671,Neutaconkanut Park,LP,Killingly,Providence,MUN,EAS,FED,1,2,0,0,0,1,0,0,0,1,0,0,0,0,0,0,1,0,1,1,-71.46331787000,41.81418991000
1023,Natick Fields,LP,Crossland,West Warwick,MUN,CIN,MUN,0,3,0,0,0,0,1,0,0,0,0,0,0,0,0,0,1,0,0,1,-71.49633789000,41.72712707000
1075,Riverpoint Park,AF,Hay,West Warwick,MUN,EAS,FED,20,5,3,0,0,2,0,0,0,0,0,0,0,1,0,0,1,0,0,1,-71.51525115000,41.71751022000
0,Briggs/Boesch Farm,CA,South,East Greenwich,MUN,EAS,STA,0,0,0,0,0,0,0,0,0,0,0,0,0,0,0,0,1,0,0,0,0.00000000000,0.00000000000
0,Scalloptown Park,CA,Crompton,East Greenwich,MUN,CIN,MUN,0,0,0,0,0,0,0,0,0,0,0,0,0,1,0,0,1,0,0,0,0.00000000000,0.00000000000
0,Paradise Valley PaRK,LP,Prospect,Middletown,MUN,EAS,NGO,0,0,0,0,0,0,0,0,0,0,0,0,0,0,0,0,1,0,0,0,0.00000000000,0.00000000000
0,Cocumscussoc Brook Preserve,CA,Post Road,North Kingstown,MUN,FEE,MUN,0,0,0,0,0,0,0,0,0,0,0,0,0,0,0,0,1,0,0,0,0.00000000000,0.00000000000
209,Quinnville Playground,LP,Martin,Lincoln,MUN,CIN,MUN,1,0,0,0,0,1,0,0,0,0,0,0,0,0,0,0,0,0,0,0,-71.43224334000,41.92974853000
210,Berkeley Oval,LP,Martin,Cumberland,MUN,CIN,MUN,0,1,0,0,0,0,0,0,0,0,0,0,0,0,0,0,0,0,0,1,-71.42845916000,41.92677307000
228,Spring Grove Beach,LP,Spring Grove,Glocester,MUN,CIN,MUN,0,0,0,0,0,0,0,0,0,0,0,0,0,0,0,0,0,1,0,0,-71.65384674000,41.91343688000
239,Lime Acres,LP,Jenckes Hill,Lincoln,MUN,EAS,FED,0,2,0,0,0,0,3,0,0,0,0,0,0,0,0,0,0,0,0,1,-71.46989440000,41.91061782000
247,Lonsdale Park / Sam Moore Field,LP,River,Lincoln,MUN,EAS,FED,1,2,0,0,0,0,0,0,0,0,0,0,0,0,0,0,0,0,0,1,-71.41841888000,41.90863037000
275,Lincoln Almond Little League,LP,Lonsdale,Lincoln,MUN,CIN,MUN,0,1,0,0,0,0,0,0,0,0,0,0,0,0,0,0,0,0,0,1,-71.40453338000,41.90167999000
279,Heritage Park,CA,Chestnut Oak,Glocester,MUN,EAS,FED,0,0,0,0,0,0,0,0,0,0,0,0,0,0,0,0,0,0,0,0,-71.62888336000,41.89097595000
287,Russell Lane Field,LP,Russell,Smithfield,MUN,CIN,MUN,0,0,0,0,0,0,0,0,0,0,0,0,0,0,0,0,0,0,0,0,-71.51605987000,41.89399337000
326,Crossman St. Playground,LP,Crossman,Central Falls,MUN,EAS,FED,1,0,0,0,0,0,0,0,0,0,0,0,0,0,0,0,0,0,0,0,-71.40090942000,41.88861083000
330,Sacred Heart Avenue Playground,LP,High Street,Central Falls,MUN,CIN,MUN,1,0,0,0,0,1,0,0,0,0,0,0,0,0,0,0,0,0,0,1,-71.38452911000,41.88868331000
337,Jenks Park,LP,Summit,Central Falls,MUN,EAS,FED,1,0,0,0,0,0,0,0,0,0,0,0,0,0,0,0,0,0,0,0,-71.38881683000,41.88765335000
338,Mendes Field,LP,Louise Ann,Smithfield,MUN,CIN,MUN,0,1,0,0,0,0,0,0,0,0,0,0,0,0,0,0,0,0,0,1,-71.50958251000,41.88407135000
375,Galego Court Field,LP,Leonard Jenard,Pawtucket,MUN,EAS,FED,1,0,1,0,1,1,0,0,0,0,0,0,0,0,0,0,0,0,0,1,-71.40334320000,41.87969589000
367,Esmond / War Memorial Park,LP,Farnum Pike,Smithfield,MUN,CIN,MUN,0,0,0,0,0,0,0,0,0,0,0,0,0,0,0,0,0,0,0,0,-71.50165557000,41.87887191000
360,Byron-Winsor Park,LP,Winsor Park,Glocester,MUN,EAS,FED,1,1,1,0,0,1,2,0,0,0,0,1,0,0,0,0,0,0,0,1,-71.60377502000,41.87687301000
381,Laurel Hill Playground,LP,Lonsdale,Pawtucket,MUN,EAS,FED,1,0,0,0,0,0,0,0,0,0,0,0,0,0,0,0,0,0,0,0,-71.40009307000,41.87782669000
376,Burgess Field,LP,Albert,Smithfield,MUN,CIN,MUN,0,1,0,0,0,0,0,0,0,0,0,0,0,0,0,0,0,0,0,1,-71.54843139000,41.87600708000
390,Wilkinson Park,LP,Park,Pawtucket,MUN,CIN,MUN,0,0,0,0,0,0,0,0,0,0,0,0,0,0,0,0,0,0,0,0,-71.38676452000,41.87710571000
391,Collyer Park,LP,Main,Pawtucket,MUN,CIN,MUN,0,0,0,0,0,0,0,0,0,0,0,0,0,0,0,0,0,0,0,0,-71.39250946000,41.87513732000
402,Mccoy Stadium,AF,Bend,Pawtucket,MUN,CIN,MUN,0,1,0,0,0,0,0,0,0,0,0,0,0,0,0,0,0,0,0,1,-71.36999511000,41.87305831000
401,John Santos Park,LP,Mineral Spring,Pawtucket,MUN,CIN,MUN,0,0,0,0,0,0,0,0,0,0,0,0,0,0,0,0,0,0,0,0,-71.39861297000,41.87416458000
418,Pleasant St. Park,LP,Division,Pawtucket,MUN,EAS,FED,0,0,0,0,0,0,0,0,0,0,0,0,0,0,0,0,0,0,0,0,-71.38524627000,41.87229156000
433,Slater Park,LP,Pawtucket,Pawtucket,MUN,EAS,FED,0,9,0,0,1,0,10,0,0,0,0,0,0,1,0,0,0,0,0,1,-71.34632873000,41.86992263000
424,Payne Park,LP,Randall,Pawtucket,MUN,EAS,FED,1,0,0,0,0,2,0,0,0,0,0,0,0,0,0,0,0,0,0,1,-71.39183044000,41.86949157000
426,Randall St. Park,LP,Randall,Pawtucket,MUN,CIN,MUN,0,0,0,0,0,0,0,0,0,0,0,0,0,0,0,0,0,0,0,0,-71.39421844000,41.86953735000
423,Dean Ave. Field,LP,Adams,Johnston,MUN,CIN,MUN,0,1,0,0,0,0,0,0,0,0,0,0,0,0,0,0,0,0,0,1,-71.49774932000,41.86827087000
439,Berkeley Park,LP,Polo,Pawtucket,MUN,EAS,FED,0,0,0,0,0,0,0,0,0,0,0,0,0,0,0,0,0,0,0,0,-71.36744689000,41.86732482000
436,Cricket Field,LP,Greystone,Johnston,MUN,CIN,MUN,1,0,0,0,0,0,0,0,0,0,0,0,0,1,0,0,0,0,0,1,-71.49291992000,41.86552047000
443,Deninno Memorial Field,LP,Alexander,North Providence,MUN,CIN,MUN,0,1,0,0,0,0,0,0,0,0,0,0,0,0,0,0,0,0,0,1,-71.44906616000,41.86188507000
457,Wanskuck Park,LP,Woodward,Providence,MUN,CIN,MUN,0,0,0,0,0,0,0,0,0,0,0,0,0,0,0,0,0,0,0,0,-71.43247222000,41.85990524000
466,Morley Field,LP,Moshassuck,Pawtucket,MUN,EAS,FED,0,2,2,0,2,0,0,0,0,0,0,0,0,0,0,0,0,0,0,1,-71.40298461000,41.85880279000
472,Blackstone Blvd. Park,LP,Blackstone,Providence,MUN,EAS,FED,0,0,0,0,0,0,0,0,0,0,0,0,0,0,0,0,0,0,0,0,-71.38778686000,41.85210418000
471,Stephen Olney Park,LP,Smithfield,North Providence,MUN,EAS,FED,2,4,0,0,1,1,4,0,0,1,0,0,0,0,0,0,0,0,0,1,-71.45349121000,41.85542678000
480,Lynne Bourne Memorial Park,LP,Alma,East Providence,MUN,CIN,MUN,0,0,0,0,0,2,1,0,0,0,0,0,0,0,0,0,0,0,0,1,-71.35774230000,41.85417556000
487,Hopkins Square,LP,Charles,Providence,MUN,EAS,FED,0,0,0,0,0,0,0,0,0,0,0,0,0,0,0,0,0,0,0,0,-71.42041015000,41.85084915000
492,Prete-Metcalf Field,LP,Charles,Providence,MUN,CIN,MUN,0,3,0,0,0,0,0,0,0,0,0,0,0,0,0,0,0,0,0,1,-71.42098236000,41.84951400000
500,Kimberly Ann Rock Memorial Athletic Complex,AF,Ferris,East Providence,MUN,CIN,MUN,0,4,0,0,0,0,0,0,0,0,0,0,0,0,0,0,0,0,0,1,-71.34647369000,41.84853363000
499,Corliss Park,LP,Fernando,Providence,MUN,CIN,MUN,1,1,0,0,0,2,2,0,0,0,0,0,0,0,0,0,0,0,0,1,-71.42949676000,41.84790420000
502,General St. Playground,LP,General,Providence,MUN,EAS,FED,1,0,0,0,1,1,0,0,0,0,0,0,0,0,0,0,0,0,0,0,-71.44428253000,41.85287094000
498,Gorham Field,LP,Hartford Pike,Scituate,MUN,EAS,FED,0,3,0,0,1,0,2,0,0,0,0,0,0,0,0,0,0,0,0,1,-71.64836883000,41.83829879000
526,Mount Hope Community Garden,LP,Knowles,Providence,MUN,CIN,MUN,0,0,0,0,0,0,0,0,0,0,0,0,0,0,0,0,0,0,0,0,-71.40446472000,41.84172058000
530,Hopkins Park,LP,Admiral,Providence,MUN,CIN,MUN,1,0,1,0,0,0,0,0,0,0,0,0,0,0,0,0,0,0,0,1,-71.41956329000,41.84163284000
556,Blackstone Park / Patterson Park,LP,Parkside,Providence,MUN,EAS,FED,0,0,0,0,0,0,0,0,0,0,0,0,0,0,0,0,0,0,0,0,-71.37948608000,41.83378601000
554,Father Lennon Park,SC,Camden,Providence,MUN,CIN,MUN,1,0,0,0,0,0,0,0,0,0,0,0,0,0,0,0,0,0,1,1,-71.42711639000,41.83789825000
560,Pleasant Valley Parkway,LP,Pleasant Valley,Providence,MUN,EAS,FED,0,0,0,0,0,0,0,0,0,0,0,0,0,0,0,0,0,0,0,0,-71.43707275000,41.83554077000
575,Davis Park,LP,Chalkstone,Providence,MUN,CIN,MUN,0,3,0,0,0,1,0,0,0,0,0,0,0,0,0,0,0,0,0,1,-71.43086242000,41.83305740000
581,West Park,LP,Mount Pleasant,Providence,MUN,EAS,FED,1,1,0,0,1,0,0,0,0,0,0,0,0,0,0,0,0,0,0,0,-71.45046234000,41.83184814000
588,Johnston Memorial Park,LP,Memorial,Johnston,MUN,EAS,FED,1,4,0,0,0,2,3,0,0,0,0,0,0,1,0,0,0,0,0,1,-71.50492858000,41.82824707000
596,Regent Ave. Playground,LP,Regent,Providence,MUN,CIN,MUN,1,0,0,0,0,0,0,0,0,0,0,0,0,0,0,0,0,0,0,0,-71.43712615000,41.82992935000
600,Prospect Terrace Park,LP,Congdon,Providence,MUN,CIN,MUN,0,0,0,0,0,0,0,0,0,0,0,0,0,0,0,0,0,0,0,0,-71.40730285000,41.82990264000
603,Constance Witherby Park,LP,Waterman,Providence,MUN,EAS,FED,0,0,0,0,0,0,0,0,0,0,0,0,0,0,0,0,0,0,0,0,-71.38385772000,41.82736587000
606,Burnside Park,LP,Washington,Providence,MUN,CIN,MUN,0,0,0,0,0,0,0,0,0,0,0,0,0,0,0,0,0,0,0,0,-71.41213989000,41.82543563000
611,Memorial Park,LP,South Main,Providence,MUN,CIN,MUN,0,0,0,0,0,0,0,0,0,0,0,0,0,0,0,0,0,0,0,0,-71.40785217000,41.82538604000
632,Onna Moniz-John Neighborhood Park,LP,Central,East Providence,MUN,EAS,FED,1,0,0,0,0,2,0,0,0,0,0,0,0,0,0,0,0,0,0,1,-71.36849212000,41.82313156000
623,Angelo Zuccolo Pool,LP,Gesler,Providence,MUN,CIN,MUN,0,0,0,0,0,0,0,0,0,0,0,0,0,0,0,0,0,0,1,1,-71.43073272000,41.82257080000
621,John Donigian Memorial Park,LP,Valley,Providence,MUN,EAS,FED,1,1,0,0,1,1,0,0,0,0,0,0,0,0,0,0,0,0,0,1,-71.44082641000,41.82326507000
627,Garibaldi Square,LP,Atwells,Providence,MUN,CIN,MUN,0,0,0,0,0,0,0,0,0,0,0,0,0,0,0,0,0,0,0,0,-71.42159271000,41.82304382000
637,Fenner Square,LP,Governor,Providence,MUN,CIN,MUN,0,0,0,0,0,0,0,0,0,0,0,0,0,0,0,0,0,0,0,0,-71.39422607000,41.82307052000
655,Martello Street Playground,LP,Martello,East Providence,MUN,CIN,MUN,1,0,0,0,0,0,0,0,0,0,0,0,0,0,0,0,0,0,0,0,-71.35958099000,41.81955337000
652,Cabral Park,LP,Wickenden,Providence,MUN,CIN,MUN,1,1,0,0,0,1,0,0,0,0,0,0,0,0,0,0,0,0,0,1,-71.39237976000,41.81949234000
659,India Point Park,LP,India,Providence,MUN,EAS,FED,1,0,1,0,1,0,0,0,0,0,0,0,0,1,0,0,0,0,0,1,-71.39236450000,41.81784439000
668,Dexter Training Ground,LP,Parade,Providence,MUN,EAS,FED,1,1,0,0,0,0,0,0,0,0,0,0,0,0,0,0,0,0,0,1,-71.43121337000,41.81349563000
679,Wallace St. Park,LP,Wallace,Providence,MUN,CIN,MUN,1,1,0,0,0,1,0,0,0,1,0,0,0,0,0,0,0,0,0,1,-71.44376373000,41.81134414000
693,Cerbo Square,LP,Murray,Providence,MUN,CIN,MUN,0,0,0,0,0,0,0,0,0,0,0,0,0,0,0,0,0,0,0,0,-71.45698547000,41.80781173000
703,Waldo St. Totlot,LP,Waldo,Providence,MUN,CIN,MUN,1,0,0,0,0,0,0,0,0,0,0,0,0,0,0,0,0,0,0,0,-71.43499755000,41.80581283000
738,Richardson Park,LP,Ocean,Providence,MUN,EAS,FED,1,1,0,0,1,1,0,0,0,0,0,0,0,0,0,0,0,0,0,1,-71.40926361000,41.79796218000
736,Pocasset Field,LP,Spruce,Johnston,MUN,CIN,MUN,0,1,0,0,1,1,0,0,0,0,0,0,0,0,0,0,0,0,0,1,-71.47254943000,41.79694366000
742,Columbus Square Park,LP,Elmwood,Providence,MUN,CIN,MUN,0,0,0,0,0,0,0,0,0,0,0,0,0,0,0,0,0,0,0,0,-71.42572784000,41.79668807000
739,Rainone Playground,LP,Mill,Johnston,MUN,CIN,MUN,0,0,0,0,0,1,0,0,0,0,0,1,0,0,0,0,0,0,0,1,-71.48719787000,41.79578018000
750,Roger Williams Park,LP,Elmwood,Providence,MUN,EAS,FED,1,4,0,0,2,0,10,0,0,0,0,0,0,0,0,0,0,0,0,1,-71.41230010000,41.78294372000
758,Drummond Field,LP,Indiana,Providence,MUN,EAS,FED,0,0,1,0,1,0,0,0,0,0,0,0,0,0,0,0,0,0,0,1,-71.39260864000,41.79113388000
761,Boyden Heights Conservation Area,LP,Boyden,East Providence,MUN,EAS,FED,0,0,0,0,0,0,0,0,0,0,0,0,0,0,0,0,0,0,0,0,-71.36988067000,41.79003143000
769,Columbia Park,LP,Vermont,Providence,MUN,EAS,FED,1,0,0,0,0,2,0,0,0,0,0,0,0,0,0,0,0,0,0,1,-71.39392089000,41.78924560000
766,Highland Park,LP,Southern,Cranston,MUN,CIN,MUN,1,1,0,0,0,1,0,0,0,0,0,0,0,0,0,0,0,0,0,1,-71.46120452000,41.78763961000
770,Spectacle Pond Field,LP,Cottage,Cranston,MUN,EAS,FED,2,2,0,0,0,0,0,0,0,0,0,0,0,0,0,0,0,0,0,1,-71.44055938000,41.78759765000
765,Stone Hill Field,LP,Elena,Cranston,MUN,EAS,FED,0,0,0,0,1,0,0,0,0,0,0,0,0,0,0,0,0,0,0,0,-71.48611450000,41.78632736000
776,Washington Park Square,LP,Eddy,Providence,MUN,EAS,FED,0,0,0,0,0,0,0,0,0,0,0,0,0,0,0,0,0,0,0,0,-71.40239715000,41.78721618000
777,Joseph Williams Field,LP,Elmwood,Providence,MUN,CIN,MUN,1,1,0,0,0,0,0,0,0,0,0,0,0,0,0,0,0,0,0,1,-71.42007446000,41.78450012000
781,Cranston Stadium / Stebbins Field,AF,Midwood,Cranston,MUN,EAS,FED,0,1,1,1,1,1,2,0,0,0,0,0,0,0,0,0,0,0,0,1,-71.44583129000,41.78433227000
756,Foster Town House Field,LP,Howard Hill,Foster,MUN,CIN,MUN,0,0,0,0,0,0,0,0,0,0,0,0,0,0,0,0,0,0,0,1,-71.71970367000,41.78337097000
792,Knightsville Park,LP,Cranston,Cranston,MUN,CIN,MUN,0,0,0,0,0,0,0,0,0,0,0,0,0,0,0,0,0,0,0,0,-71.46519470000,41.78233718000
802,Veterans' Park,LP,Pontiac,Cranston,MUN,CIN,MUN,0,0,0,0,0,0,0,0,0,0,0,0,0,0,0,0,0,0,0,0,-71.43598175000,41.77870941000
801,Comstock Gardens,LP,Wildflower,Cranston,MUN,CIN,MUN,0,0,0,0,0,1,1,0,0,0,0,0,0,0,0,0,0,0,0,1,-71.51710510000,41.77755355000
817,Beachmont / Hayes Field,LP,Calvin,Cranston,MUN,EAS,FED,1,2,0,0,0,1,2,0,0,0,0,0,0,0,0,0,0,1,0,1,-71.40733337000,41.77517318000
833,Aqueduct Field,LP,Aqueduct,Cranston,MUN,CIN,MUN,0,4,0,0,0,2,0,0,0,0,0,0,0,0,0,0,0,0,1,1,-71.44475555000,41.77069473000
843,Osamequin Nature Trail,LP,Wampanoag,Barrington,MUN,CIN,MUN,0,0,0,0,0,0,0,0,0,0,0,0,0,0,0,0,0,0,0,0,-71.32295989000,41.77035903000
847,Grassy Plain Park,LP,Tanglewood,East Providence,MUN,EAS,FED,0,1,0,0,0,0,0,0,0,0,0,0,0,0,0,0,0,0,0,1,-71.33211517000,41.76841735000
856,Sabin Point Park,LP,Shore,East Providence,MUN,EAS,FED,1,0,0,0,1,1,0,0,0,0,0,0,0,1,1,0,0,0,0,1,-71.36795043000,41.76564025000
874,Pawtuxet Village Park,LP,View,Warwick,MUN,EAS,FED,1,0,0,0,0,0,0,0,0,0,0,0,0,1,0,0,0,0,0,0,-71.38916778000,41.76262664000
872,Wellington Ave Park,LP,Wellington,Cranston,MUN,CIN,MUN,0,0,0,0,0,0,0,0,0,0,0,0,0,0,0,0,0,0,0,0,-71.42774963000,41.76080322000
879,Providence Avenue Playground & Athletic Area,LP,Sunset,East Providence,MUN,EAS,FED,1,2,0,0,0,2,0,0,0,0,0,0,0,0,0,0,0,0,0,1,-71.35701751000,41.75990676000
883,Sherman Ave. Field,LP,Cranston,Cranston,MUN,CIN,MUN,1,2,0,0,0,0,0,0,0,0,0,0,0,0,0,0,0,0,0,1,-71.47711944000,41.75831222000
910,Sherwood Park,LP,Congress,Barrington,MUN,CIN,MUN,0,1,0,0,0,0,0,0,0,0,0,0,0,0,0,0,0,0,0,1,-71.33367156000,41.75646972000
914,Crescent Park / Loof Carousel,LP,Bullocks Point,East Providence,MUN,EAS,FED,0,0,0,0,0,0,0,0,0,0,0,0,0,1,1,0,0,0,0,0,-71.35919189000,41.75708007000
906,Furnace Hill Brook,CA,Phenix,Cranston,MUN,EAS,FED,0,0,0,0,0,0,0,0,0,0,0,0,0,0,0,0,0,0,0,0,-71.49009704000,41.75517272000
907,Briggs Farm,LP,Hope,Cranston,MUN,EAS,FED,0,5,5,0,5,0,2,0,0,0,0,0,0,0,0,0,0,0,0,1,-71.51155853000,41.75207519000
979,Latham Ave. Park,LP,Shore,Barrington,MUN,CIN,MUN,1,0,0,0,0,0,0,0,0,0,0,0,0,1,0,0,0,0,0,0,-71.35211944000,41.74580001000
987,Bicknell Field,LP,Walnut,Barrington,MUN,CIN,MUN,0,1,0,0,0,0,0,0,0,0,0,0,0,0,0,0,0,0,0,1,-71.33885192000,41.74290847000
998,F.J. Chianese Field,LP,Centennial,Barrington,MUN,EAS,FED,1,1,1,0,1,2,1,0,0,0,0,0,0,0,0,0,0,0,0,1,-71.31613159000,41.74081420000
989,Hilltop Drive Field,LP,New London,Cranston,MUN,CIN,MUN,0,1,1,0,1,0,0,0,0,0,0,0,0,0,0,0,0,0,0,1,-71.47509765000,41.73981475000
990,Hope Memorial Field,LP,Hope,Scituate,MUN,EAS,FED,0,2,0,0,0,1,2,0,0,0,0,0,0,0,0,0,0,0,0,1,-71.55482482000,41.73672866000
1050,Warren Town Common,LP,Church,Warren,MUN,CIN,MUN,0,0,0,0,0,0,0,0,0,0,0,0,0,0,0,0,0,0,0,0,-71.28343963000,41.72976684000
1080,Burr Hill Park,LP,Water,Warren,MUN,CIN,MUN,0,1,0,0,1,2,2,0,0,0,0,0,0,0,0,0,0,0,0,1,-71.28327178000,41.72248077000
1112,Mickey Stevens Sports Center,LP,Sandy,Warwick,MUN,EAS,FED,0,3,0,0,0,2,8,0,0,1,1,0,0,0,0,0,0,0,1,1,-71.41457366000,41.70995330000
1115,G. Boyd Field,LP,Waterview,Warwick,MUN,EAS,FED,0,1,0,0,0,0,0,0,0,0,0,0,0,0,0,0,0,0,0,1,-71.40193176000,41.70927429000
1130,Upper Dam Pond,LP,Knotty Oak,Coventry,MUN,EAS,FED,0,0,0,0,0,0,0,0,0,0,0,0,0,1,1,0,0,0,0,0,-71.55393981000,41.70376205000
1145,Normandy Drive,LP,Normandy,Warwick,MUN,CIN,MUN,0,0,0,0,0,0,0,0,0,0,0,0,0,0,0,0,0,0,0,0,-71.44072723000,41.70092010000
1123,Nathaniel Greene Park,LP,Victory,Coventry,MUN,CIN,MUN,0,0,0,0,0,0,0,0,0,0,0,0,0,0,0,0,0,0,0,0,-71.69472503000,41.70204544000
1140,Foster Memorial Park,LP,Station,Coventry,MUN,EAS,FED,0,3,0,0,3,0,0,0,0,0,0,0,0,0,0,0,0,0,0,1,-71.56364440000,41.69991302000
1151,O'Brien Field,LP,Unnamed,Warwick,MUN,EAS,FED,0,3,0,0,0,1,0,0,0,0,0,0,0,0,0,0,0,0,0,1,-71.45800781000,41.70067977000
1164,Champlin Field,LP,Oakland Beach,Warwick,MUN,EAS,FED,0,2,0,0,1,0,0,0,0,1,0,0,0,0,0,0,0,0,0,1,-71.39804840000,41.69871902000
1157,Coventry Town Green,LP,Washington,Coventry,MUN,CIN,MUN,0,0,0,0,0,0,0,0,0,0,0,0,0,0,0,0,0,0,0,0,-71.54669952000,41.69716644000
1193,Central Coventry Park,LP,Provident,Coventry,MUN,EAS,FED,0,2,1,0,1,0,2,0,0,0,0,0,0,0,0,0,0,0,0,1,-71.63029479000,41.69189453000
1226,Crompton Playground,LP,Main,West Warwick,MUN,CIN,MUN,1,0,0,0,0,1,0,0,0,0,0,0,0,0,0,0,0,0,0,1,-71.52338409000,41.68620681000
1252,Flat Top Park,LP,Campbell,West Warwick,MUN,CIN,FED,1,1,0,0,0,0,0,0,0,0,0,0,0,0,0,0,0,0,0,1,-71.52886199000,41.67674255000
1268,Briar Point Beach Area,LP,Briar Point,Coventry,MUN,EAS,FED,1,0,0,0,0,0,0,0,0,0,0,0,0,0,0,0,0,1,0,0,-71.54968261000,41.67430114000
1284,Independence Park,LP,Thames,Bristol,MUN,CIN,MUN,0,0,0,0,0,0,0,0,0,0,0,0,0,1,1,0,0,0,0,1,-71.27948760000,41.67378616000
1396,Frenchtown Park,CA,Cavalier,East Greenwich,MUN,EAS,FED,0,0,0,0,0,0,0,0,0,0,0,0,0,0,0,0,0,0,0,0,-71.50731658000,41.62895584000
1469,Bulgarmarsh Recreation Area,LP,Bulgarmarsh,Tiverton,MUN,EAS,FED,1,1,0,0,0,2,4,0,0,1,0,0,0,0,0,0,0,0,0,1,-71.15001678000,41.62374877000
1468,Fort Barton Field,LP,Lawton,Tiverton,MUN,CIN,MUN,0,1,0,0,0,0,0,0,0,0,0,0,0,0,0,0,0,0,0,1,-71.20919799000,41.62421417000
1446,Frenchtown Recreation Facility,LP,Frenchtown,East Greenwich,MUN,EAS,FED,1,0,0,0,0,1,3,0,0,0,0,0,0,0,0,0,0,0,0,1,-71.52111053000,41.62461853000
1515,Turnpike Avenue Playground,LP,Turnpike,Portsmouth,MUN,DRS,MUN,1,1,0,0,0,0,0,0,0,0,0,0,0,0,0,0,0,0,0,1,-71.25093078000,41.60494613000
1576,Wilson Park,LP,Roosevelt,North Kingstown,MUN,EAS,FED,1,3,10,0,10,2,2,0,0,0,0,0,0,1,1,0,0,0,0,1,-71.45922851000,41.57463836000
1574,Feurer Park,LP,Lafayette,North Kingstown,MUN,EAS,FED,0,1,0,0,0,0,0,0,0,0,0,0,0,0,0,0,0,0,0,1,-71.49106597000,41.57456588000
1604,Updike Park,LP,Brown,North Kingstown,MUN,CIN,MUN,0,0,0,0,0,0,0,0,0,0,0,0,0,0,0,0,0,0,0,0,-71.45223999000,41.57002258000
1689,Adamsville Playground,LP,Main,Little Compton,MUN,CIN,MUN,0,1,0,0,0,0,0,0,0,0,0,0,0,0,0,0,0,0,0,1,-71.12819671000,41.55367279000
1674,Reynolds Field,LP,South,Exeter,MUN,CIN,MUN,0,1,0,0,1,0,0,0,0,0,0,0,0,0,0,0,0,0,0,1,-71.53264617000,41.54912185000
1692,Donald Down's Park,LP,Indian Corner,North Kingstown,MUN,CIN,MUN,0,1,0,0,0,1,0,0,0,0,0,0,0,0,0,0,0,0,0,1,-71.49414062000,41.53977584000
1730,Eldred Ave. Field,LP,Eldred,Jamestown,MUN,CIN,MUN,0,0,4,0,0,0,0,0,0,0,0,0,0,0,0,0,0,0,0,1,-71.36631011000,41.52538299000
1763,Goldberg Little League Field,AF,Maple,Newport,MUN,CIN,MUN,0,2,0,0,0,0,0,0,0,0,0,0,0,0,0,0,0,0,0,1,-71.31462860000,41.51638031000
1782,Miantonomi Park,LP,Hillside,Newport,MUN,EAS,FED,1,0,0,0,1,0,0,0,0,0,0,0,0,0,0,0,0,0,0,0,-71.30992889000,41.50986099000
1757,Jos. A. Langworthy Memorial Park,LP,Lakeside,Hopkinton,MUN,EAS,FED,1,1,0,0,0,0,0,0,0,0,0,0,0,0,0,0,0,0,0,1,-71.71501922000,41.50997924000
1778,Polish Park,LP,Nichols,Hopkinton,MUN,CIN,MUN,0,0,0,0,0,0,0,0,0,0,0,0,0,0,0,0,0,0,0,0,-71.71737670000,41.50460433000
1828,Vernon Park,LP,Vernon,Newport,MUN,CIN,MUN,1,1,0,0,1,0,4,0,0,0,0,0,0,0,0,0,0,0,0,1,-71.29936218000,41.50324630000
1834,Third St. Lot,LP,3rd,Newport,MUN,CIN,MUN,1,0,0,0,0,0,0,0,0,0,0,0,0,0,0,0,0,0,0,0,-71.31959533000,41.50085830000
1861,Battery Park / Fort Greene,LP,Washington,Newport,MUN,CIN,MUN,0,0,0,0,0,0,0,0,0,0,0,0,0,0,0,0,0,0,0,0,-71.32164001000,41.49682998000
1866,Braga Park,LP,Greenlaw,Newport,MUN,CIN,MUN,1,1,1,0,1,2,0,0,0,0,0,0,0,0,0,0,0,0,0,1,-71.29739379000,41.49518585000
1881,Equality Park,LP,Equality Park,Newport,MUN,CIN,MUN,0,0,0,0,0,0,0,0,0,0,0,0,0,0,0,0,0,0,0,0,-71.30930328000,41.49471282000
1892,Congdon Park,LP,Bartlett,Newport,MUN,CIN,MUN,0,0,0,0,0,0,0,0,0,0,0,0,0,0,0,0,0,0,0,0,-71.30881500000,41.49459457000
1873,Fort Getty,LP,Fort Getty,Jamestown,MUN,CIN,MUN,0,0,0,0,0,0,0,0,0,0,0,0,0,1,1,0,0,0,0,1,-71.39802551000,41.49164199000
1910,Storer Park,LP,Washington,Newport,MUN,CIN,MUN,0,0,0,0,0,1,0,0,0,0,0,0,0,1,0,0,0,0,0,0,-71.32118225000,41.49189376000
1914,Cardines Field,AF,Marlborough,Newport,MUN,CIN,MUN,0,1,0,0,0,0,0,0,0,0,0,0,0,0,0,0,0,0,0,1,-71.31659698000,41.49118041000
1954,Wilbour Woods,LP,Swamp,Little Compton,MUN,CIN,MUN,0,0,0,0,0,0,0,0,0,0,0,0,0,0,0,0,0,0,0,0,-71.17333984000,41.48974609000
1923,Eisenhower Park,LP,Touro,Newport,MUN,CIN,MUN,0,0,0,0,0,0,0,0,0,0,0,0,0,0,0,0,0,0,0,0,-71.31378936000,41.48993682000
1934,Perrotti Park,LP,Americas Cup,Newport,MUN,CIN,MUN,0,0,0,0,0,0,0,0,0,0,0,0,0,0,0,0,0,0,0,0,-71.31712341000,41.48897552000
1952,Touro Park,LP,Bellevue,Newport,MUN,CIN,MUN,0,0,0,0,0,0,0,0,0,0,0,0,0,0,0,0,0,0,0,0,-71.30954742000,41.48567581000
1972,Third Beach,LP,Third Beach,Middletown,MUN,CIN,MUN,0,0,0,0,0,0,0,0,0,0,0,0,0,1,1,0,0,1,0,0,-71.24562835000,41.48653793000
1985,Memorial Blvd Parks,LP,Memorial,Newport,MUN,CIN,MUN,0,0,0,0,0,0,0,0,0,0,0,0,0,0,0,0,0,0,0,0,-71.30619049000,41.48356246000
1990,Aquidneck Park,LP,King,Newport,MUN,CIN,MUN,1,0,0,0,0,0,0,0,0,0,0,0,0,0,0,0,0,0,0,0,-71.31162261000,41.48236465000
1987,DAR Memorial Park,LP,Battery,Jamestown,MUN,CIN,MUN,0,0,0,0,0,0,0,0,0,0,0,0,0,0,0,0,0,0,0,0,-71.39479064000,41.48043823000
2028,Spencer Park,LP,Wellington,Newport,MUN,CIN,MUN,0,0,0,0,1,0,0,0,0,0,0,0,0,0,0,0,0,0,0,0,-71.31656646000,41.47617721000
2044,Morton Park,LP,Morton,Newport,MUN,CIN,MUN,1,0,0,0,0,0,0,0,0,0,0,0,0,0,0,0,0,0,0,0,-71.31124114000,41.47150039000
2049,Treaty Rock Park,LP,Middlebridge,South Kingstown,MUN,CIN,MUN,1,0,0,0,0,1,0,0,0,0,0,0,0,0,0,0,0,0,0,1,-71.45187377000,41.47074127000
2050,Saugatucket Park,LP,High,South Kingstown,MUN,CIN,MUN,0,0,0,0,1,1,0,0,0,0,0,0,0,0,0,0,0,0,0,0,-71.50144958000,41.43885803000
2062,Tri-Pond Park,LP,Asa Pond,South Kingstown,MUN,EAS,FED,0,0,0,0,0,0,0,0,0,0,0,0,0,1,1,0,0,0,0,1,-71.51093292000,41.45636367000
2150,Gazebo Park,LP,Ocean,Narragansett,MUN,EAS,FED,0,0,0,0,0,0,0,0,0,0,0,0,0,0,0,0,0,0,0,0,-71.45662689000,41.43138885000
2155,Veterans' Park,LP,Exchange,Narragansett,MUN,CIN,MUN,0,0,0,0,0,0,0,0,0,0,0,0,0,0,0,0,0,0,0,0,-71.45661926000,41.43040084000
2157,Tuckertown Recreation Area,LP,Tuckertown Park,South Kingstown,MUN,EAS,FED,1,2,4,0,1,1,2,0,0,0,0,0,0,0,0,0,0,0,0,1,-71.55670928000,41.42572021000
2171,Thompson Memorial Park,LP,Gibson,Narragansett,MUN,CIN,MUN,1,1,0,0,1,1,0,0,0,0,0,0,0,0,0,0,0,0,0,1,-71.45976257000,41.42506408000
2159,Crandall Field,LP,Ashaway,Hopkinton,MUN,EAS,FED,1,1,0,0,0,2,2,0,0,0,0,0,0,0,0,0,0,0,0,0,-71.78561401000,41.42110443000
2207,Eastward Look Park,LP,Sakonnet,Narragansett,MUN,EAS,FED,1,0,0,0,0,1,2,0,0,0,0,0,0,0,0,0,0,0,0,1,-71.47648620000,41.39666366000
2248,Brousseau Memorial Park,LP,Victoria,South Kingstown,MUN,EAS,FED,1,1,1,0,0,1,2,0,0,0,0,0,0,0,0,0,0,0,0,1,-71.52961730000,41.39825439000
2238,Wilcox Park,LP,Grove,Westerly,MUN,CIN,MUN,0,0,0,0,1,0,0,0,0,0,0,0,0,0,0,0,0,0,0,0,-71.82813262000,41.37860488000
2281,Ninigret Park,LP,Park,Charlestown,MUN,EAS,FED,1,1,1,0,2,1,4,0,0,0,0,0,0,1,0,0,0,0,1,1,-71.66593933000,41.37002182000
2315,Cimalore Field,AF,Wilson,Westerly,MUN,EAS,FED,1,4,0,0,0,2,0,0,0,0,0,0,0,0,0,0,0,0,0,0,-71.81418609000,41.36723709000
2499,Deerfield Park,LP,Lisa Ann,Smithfield,MUN,CIN,MUN,2,0,4,0,0,0,0,0,0,0,0,0,0,0,0,0,0,0,0,1,-71.55074310000,41.87944793000
2513,Coventry Greenway And Bike Path,LP,Main,Coventry,MUN,CIN,MUN,0,0,0,0,0,0,0,0,0,0,0,0,0,0,0,0,0,0,0,1,-71.56900024000,41.69358062000
2525,John J. Giblin Memorial Recreation Area,LP,Hunters Crossing,Coventry,MUN,CIN,MUN,0,1,0,0,0,1,1,0,0,0,0,0,0,0,0,0,0,0,0,0,-71.56925964000,41.70989990000
2540,South Kingstown Town Beach,LP,Matunuck Beach,South Kingstown,MUN,EAS,FED,0,0,0,0,0,0,0,0,0,0,0,0,0,0,0,0,0,1,0,0,-71.55059051000,41.37555313000
2546,River Farm Fitness Stations,LP,Franklin,East Greenwich,MUN,CIN,MUN,0,0,0,0,0,0,0,0,0,0,0,0,0,0,0,0,0,0,0,1,-71.46955871000,41.63512802000
2557,Veteran's Field,LP,Asylum,Warren,MUN,CIN,MUN,1,2,0,0,0,1,0,0,0,0,0,0,0,0,0,0,0,0,0,0,-71.25370788000,41.72704696000
2563,River Island Park,LP,Truman,Woonsocket,MUN,CIN,MUN,0,0,0,0,0,0,0,0,0,0,1,0,0,1,0,0,0,0,0,0,-71.51464080000,41.99940490000
2564,Bridgepoint Commons,CA,Bridgepoint,Narragansett,MUN,EAS,FED,0,0,0,0,0,0,0,0,0,0,0,0,0,0,0,0,0,0,0,0,-71.44596099000,41.45285797000
2566,Loontjens Library Park,LP,Kingstown,Narragansett,MUN,CIN,MUN,0,0,0,0,0,0,0,0,0,0,0,0,0,0,0,0,0,0,0,0,-71.46008300000,41.43141937000
2575,Ardoene Park,LP,Ardoene,Providence,MUN,CIN,MUN,1,1,0,0,0,1,0,0,0,0,0,0,0,0,0,0,0,0,0,1,-71.42552947000,41.79032516000
2576,Boyle Square,LP,Orms,Providence,MUN,CIN,MUN,0,0,0,0,0,0,0,0,0,0,0,0,0,0,0,0,0,0,0,0,-71.42147827000,41.83371734000
2581,DePasquale Plaza,LP,De Pasquale,Providence,MUN,CIN,MUN,0,0,0,0,0,0,0,0,0,0,0,0,0,0,0,0,0,0,0,0,-71.42690277000,41.82384872000
2582,Amos Earley Park,LP,Cadillac,Providence,MUN,CIN,MUN,0,0,1,0,0,0,1,0,0,0,0,0,0,0,0,0,0,0,0,1,-71.41650390000,41.79313278000
2588,Mount Pleasant Memorial Park,LP,Newark,Providence,MUN,CIN,MUN,0,0,0,0,0,0,0,0,0,0,0,0,0,0,0,0,0,0,0,0,-71.44314575000,41.82530212000
2589,Murphy-Trainor Park,LP,Niantic,Providence,MUN,EAS,STA,0,0,0,0,0,0,0,0,0,0,0,0,0,1,0,0,0,0,0,0,-71.43523406000,41.78910446000
2590,Ninth St. Park,LP,9th,Providence,MUN,CIN,MUN,0,0,0,0,0,1,1,0,0,0,0,0,0,0,0,0,0,0,0,1,-71.39982604000,41.85448074000
2592,Pearl St. Park,LP,Providence,Providence,MUN,CIN,MUN,1,0,0,0,0,0,0,0,0,0,0,0,0,0,0,0,0,0,0,0,-71.41654205000,41.81263351000
2596,Rochambeau Square,LP,Brewster,Providence,MUN,CIN,MUN,0,0,0,0,0,0,0,0,0,0,0,0,0,0,0,0,0,0,0,0,-71.39775085000,41.84952926000
2599,St. John's Park,LP,Atwells,Providence,MUN,CIN,MUN,0,0,0,0,0,0,0,0,0,0,0,0,0,0,0,0,0,0,0,0,-71.42948150000,41.82358551000
2604,Summit Ave. Park,LP,Summit,Providence,MUN,CIN,MUN,1,0,0,0,0,0,0,0,0,0,0,0,0,0,0,0,0,0,0,0,-71.39655303000,41.85375976000
2621,Ballard Park,CA,Wickham,Newport,MUN,EAS,STA,0,0,0,0,0,0,0,0,0,0,0,0,0,0,0,0,0,0,0,0,-71.32343292000,41.46687698000
2637,Hunts Mills Picnic Area,LP,Hunts Mill,East Providence,MUN,CIN,MUN,0,0,0,0,0,0,0,0,0,0,0,0,0,1,0,0,0,0,0,0,-71.34637451000,41.82879638000
2639,John L. Lewis Waterfront Park,LP,Water,East Providence,MUN,CIN,MUN,0,0,0,0,0,0,0,0,0,0,0,0,0,1,0,0,0,0,0,0,-71.38620758000,41.81756591000
2653,Walley Park,LP,Hope,Bristol,MUN,EAS,STA,0,0,0,0,0,0,0,0,0,0,0,0,0,1,0,0,0,0,0,0,-71.27254486000,41.66208648000
2660,Heinz Field,LP,Old Center,New Shoreham,MUN,CIN,MUN,0,2,1,0,0,0,0,0,0,0,0,0,0,0,0,0,0,0,0,1,-71.57596588000,41.16403961000
1013,Veterans Memorial Park,LP,Veterans Park,Barrington,MUN,EAS,FED,0,1,0,0,0,0,0,0,0,0,0,0,0,1,1,0,0,0,0,1,-71.31315612000,41.73587036000
310,Macomber Stadium,LP,Blackstone,Central Falls,MUN,CIN,MUN,0,1,1,0,1,0,0,0,0,0,0,0,0,0,0,0,0,0,0,1,-71.38418579000,41.89359283000
1180,Herbert F. Paine Memorial Park,LP,Main,Coventry,MUN,EAS,FED,1,4,0,0,0,2,4,0,0,1,0,0,0,0,0,0,0,0,0,1,-71.56969451000,41.69276428000
1174,Rice Memorial Field,LP,Knotty Oak,Coventry,MUN,CIN,MUN,0,1,1,1,1,0,0,0,0,0,0,0,0,0,0,0,0,0,0,1,-71.55583190000,41.69451141000
992,Mayfield Ave. Field,LP,Pontiac,Cranston,MUN,CIN,MUN,11,0,1,0,1,1,0,0,0,0,0,0,0,0,0,0,0,0,0,1,-71.46220397000,41.73603057000
819,Riverside Athletic &  Recreation Area,AF,Somerset,East Providence,MUN,EAS,FED,1,2,0,0,2,1,0,0,0,0,0,0,0,0,0,0,0,0,0,1,-71.35093688000,41.77416229000
710,Kent Heights Athletic And Recreation Area,LP,Clyde,East Providence,MUN,CIN,MUN,1,2,1,0,1,2,2,0,0,0,0,0,0,0,0,0,0,0,0,1,-71.35511016000,41.80514907000
672,Hull St Athletic And Recreation Area,AF,Agnes,East Providence,MUN,EAS,FED,1,2,1,0,1,2,0,0,0,0,0,0,0,0,0,0,0,0,0,1,-71.36610412000,41.81509780000
2550,Glocester Memorial Park,LP,Adelaide,Glocester,MUN,EAS,STA,1,3,0,0,1,2,2,0,0,1,0,0,0,0,0,0,0,0,0,1,-71.67326354000,41.91285705000
2145,Sprague Field,LP,Kingstown,Narragansett,MUN,EAS,FED,1,2,0,0,0,0,5,0,0,0,0,0,0,0,0,0,0,0,0,1,-71.46977233000,41.43500518000
2565,George C. Playfield,LP,Point Judith,Narragansett,MUN,EAS,FED,1,1,0,0,0,1,2,0,0,0,0,0,0,0,0,0,0,0,0,1,-71.48645019000,41.38932800000
2001,Freebody Park,LP,Middleton,Newport,MUN,EAS,FED,1,2,1,0,1,0,0,0,0,0,0,0,0,0,0,0,0,0,0,1,-71.30499267000,41.48192214000
1842,Hunter Park,LP,Van Zandt,Newport,MUN,CIN,MUN,1,1,1,0,1,0,2,0,0,0,0,0,0,0,0,0,0,0,0,1,-71.31867218000,41.49924468000
2024,King Park,LP,Wellington,Newport,MUN,CIN,MUN,1,2,0,0,0,0,0,0,0,0,0,0,0,1,1,0,0,0,0,1,-71.31980895000,41.47655105000
2054,Murphy Field,LP,Carroll,Newport,MUN,CIN,MUN,0,2,1,0,1,2,2,0,0,0,0,0,0,0,0,0,0,0,0,1,-71.31657409000,41.46824645000
484,Evans Memorial Park,LP,Smith,North Providence,MUN,EAS,FED,1,1,0,0,0,2,0,0,0,0,0,0,0,0,0,0,0,0,0,1,-71.46439361000,41.85091400000
420,Fairlawn Veterans' Park,LP,Legion,Pawtucket,MUN,EAS,FED,1,3,1,0,1,1,4,0,0,0,0,0,0,0,0,0,0,0,1,1,-71.41025543000,41.86743545000
369,Coutu Memorial Field,AF,Fountain,Pawtucket,MUN,CIN,MUN,0,0,1,1,1,1,0,0,0,0,0,0,0,0,0,0,0,0,0,1,-71.37923431000,41.88138580000
448,Hank Soars Complex,LP,Rocco,Pawtucket,MUN,EAS,FED,1,3,0,0,0,2,0,0,0,0,0,0,0,0,0,0,0,0,0,1,-71.36805725000,41.86426544000
483,Collyer Park,LP,Collyer,Providence,MUN,CIN,MUN,1,1,0,0,0,0,0,0,0,0,0,0,0,0,0,0,0,0,0,1,-71.40505981000,41.85298919000
617,Gano St. Park,LP,Power,Providence,MUN,EAS,FED,0,2,1,0,1,0,2,0,0,0,0,0,0,1,0,0,0,0,0,1,-71.38861846000,41.82382202000
639,Joslin Playground,LP,Kossuth,Providence,MUN,CIN,MUN,1,1,0,0,0,1,0,0,0,0,0,0,0,0,0,0,0,0,1,0,-71.44639587000,41.82117462000
642,Merino Park,LP,Heath,Providence,MUN,CIN,MUN,1,0,0,0,1,2,0,0,0,0,0,0,0,0,0,0,0,0,0,1,-71.45413970000,41.82022857000
2114,Old Mountain Field,LP,Kingstown,South Kingstown,MUN,CIN,MUN,1,2,0,0,0,0,4,0,0,1,0,1,0,1,0,0,0,0,0,1,-71.48843383000,41.44620895000
2541,West Kingston Park,LP,Kingstown,South Kingstown,MUN,CIN,MUN,1,2,1,0,1,2,2,2,0,0,0,0,0,0,0,0,0,0,0,1,-71.56810760000,41.48870849000
1564,Town Farm Recreation Area,LP,Main,Tiverton,MUN,CIN,MUN,1,3,1,0,2,0,4,0,0,0,0,0,0,0,0,0,0,0,0,1,-71.19211578000,41.58292770000
1028,Jamiel Park,LP,Wood,Warren,MUN,EAS,FED,0,1,1,0,1,2,2,0,0,0,0,1,0,1,0,0,0,0,0,1,-71.27758789000,41.73189926000
1192,Palmer Ave. Field,LP,Standish,Warwick,MUN,EAS,FED,1,1,0,0,0,1,0,0,0,0,0,0,0,0,0,0,0,0,0,1,-71.37146759000,41.69621276000
1237,Oakland Beach Park,LP,Burr,Warwick,MUN,EAS,FED,1,1,0,0,1,1,0,0,0,0,0,0,0,1,1,0,0,1,0,1,-71.39643096000,41.68513488000
1088,Clegg Field,LP,Winter,Warwick,MUN,EAS,FED,1,1,0,0,0,1,0,0,0,0,0,0,0,0,0,0,0,0,0,1,-71.37940979000,41.71829986000
1171,City Park,LP,Unnamed,Warwick,MUN,EAS,FED,1,4,2,0,0,2,0,0,0,0,0,0,0,0,0,0,0,0,0,1,-71.41248321000,41.69260025000
937,Whittaker Field,LP,Monroe,Warwick,MUN,EAS,FED,1,2,1,0,1,1,1,0,0,0,0,0,0,0,0,0,0,0,0,1,-71.39993286000,41.75056076000
1114,Winslow Softball Field,LP,Taft,Warwick,MUN,EAS,FED,0,6,0,0,0,0,0,0,0,0,0,0,0,0,0,0,0,0,0,0,-71.44213867000,41.70840072000
2209,Craig Field,LP,Mountain,Westerly,MUN,CIN,MUN,1,1,1,0,0,1,0,0,0,0,0,0,0,0,0,0,0,0,0,1,-71.82186126000,41.38621902000
2685,Green Hill Park,LP,Maple,South Kingstown,MUN,EAS,STA,1,1,1,0,1,1,2,0,0,0,0,0,0,0,0,0,0,0,0,1,-71.60420227000,41.37805938000
2683,Berkeley / Peckham Memorial Field,LP,Green End,Middletown,MUN,CIN,MUN,1,1,0,0,0,0,0,0,0,0,0,0,0,0,0,0,0,0,0,1,-71.27376556000,41.50945281000
2698,Grand Pre Park,LP,Carolina Back,Charlestown,MUN,CIN,MUN,0,0,0,0,0,0,0,0,0,0,0,0,0,0,0,0,0,0,0,0,-71.65837860000,41.45198822000
2699,Hargrave Park,LP,Columbia Heights,Charlestown,MUN,CIN,MUN,1,0,0,0,1,0,0,0,0,0,0,0,0,0,0,0,0,0,0,0,-71.63615417000,41.44275283000
2701,Wicklund Park,LP,Carolina Back Road,Charlestown,MUN,EAS,FED,0,1,0,0,0,0,2,0,0,0,0,0,0,0,0,0,0,0,0,0,-71.65385437000,41.44804382000
2711,Veteran's Memorial Park,LP,Pascoag Main,Burrillville,MUN,CIN,MUN,0,0,0,0,0,0,0,0,0,0,0,0,0,0,0,0,0,0,0,0,-71.70163726000,41.95736312000
2691,Ricci Field,LP,Duckworth,Cranston,MUN,CIN,MUN,0,1,0,0,0,0,0,0,0,0,0,0,0,0,0,0,0,0,0,1,-71.45281982000,41.78539657000
2686,Doric Ave/osler Field,LP,Doric,Cranston,MUN,EAS,FED,1,0,1,0,1,2,1,0,0,0,0,0,0,0,0,0,0,0,0,1,-71.42990875000,41.77068328000
2687,Dutemple/mckenna Park,LP,Beckwith,Cranston,MUN,EAS,FED,1,0,0,0,0,1,0,0,0,0,0,0,0,0,0,0,0,0,0,1,-71.43143463000,41.78110122000
2713,Glen Farm Recreation Area,LP,Linden,Portsmouth,MUN,CIN,MUN,0,2,10,0,10,0,0,0,0,0,0,0,0,1,0,0,0,0,0,1,-71.25047302000,41.55488967000
2727,Quidnick Ballfield,LP,Knight,Coventry,MUN,EAS,FED,1,1,0,0,0,1,0,0,0,0,0,0,0,0,0,0,0,0,0,1,-71.53947448000,41.69781875000
2734,Coelho Park,LP,Berry,Bristol,MUN,CIN,MUN,1,0,0,0,0,1,0,0,0,0,0,0,0,0,0,0,0,0,0,2,-71.25550842000,41.67999649000
2737,Paul Park/Ramos Field,LP,Sherry,Bristol,MUN,EAS,STA,0,0,0,0,0,0,0,0,0,0,0,0,0,0,0,0,0,0,0,1,-71.26974487000,41.68532943000
2750,Calf Pasture Point,LP,Unnamed,North Kingstown,MUN,CIN,MUN,0,0,0,0,0,0,0,0,0,0,0,0,0,0,0,0,0,0,0,0,-71.40336608000,41.62613296000
2752,Laforge Point Park,LP,Walmsley,North Kingstown,MUN,CIN,MUN,0,0,0,0,0,0,0,0,0,0,0,0,0,1,1,0,0,0,0,1,-71.45254516000,41.50638198000
2753,Blackstone Memorial Park,LP,Blackstone,Cumberland,MUN,CIN,MUN,0,0,0,0,0,0,0,0,0,0,0,0,0,0,0,0,0,0,0,0,-71.39943695000,41.91485214000
2755,High Street Field,AF,High,Cumberland,MUN,CIN,MUN,0,1,0,0,0,0,0,0,0,0,0,0,0,0,0,0,0,0,0,1,-71.39434814000,41.91727447000
2756,Valley Falls Heritage Park,LP,Mill,Cumberland,MUN,CIN,MUN,0,0,0,0,0,0,0,0,0,0,0,0,0,1,0,0,0,0,0,0,-71.38935852000,41.90010070000
1,Privelige Street Field,LP,Privilege,Woonsocket,MUN,EAS,FED,0,1,0,0,0,0,0,0,0,0,0,0,0,0,0,0,0,0,0,1,-71.50809478000,42.01554489000
4,Kelly Park / River Meadows,LP,Canal,North Smithfield,MUN,EAS,FED,0,2,0,0,1,0,0,0,0,0,0,0,0,1,0,0,0,0,0,1,-71.53057098000,42.01412582000
8,St Paul / Waterford Playground,LP,Saint Paul,North Smithfield,MUN,EAS,FED,1,0,0,0,0,0,0,0,0,0,0,0,0,0,0,0,0,0,0,0,-71.54062652000,42.01398849000
29,Kendrick Ave. Playlot,LP,Kendrick,Woonsocket,MUN,CIN,MUN,1,0,0,0,0,1,0,0,0,0,0,0,0,0,0,0,0,0,0,1,-71.49996185000,42.00706863000
38,Diamond Hill Park,LP,Diamond Hill,Cumberland,MUN,EAS,FED,0,2,2,0,2,0,0,0,0,0,0,0,0,0,0,0,0,0,0,1,-71.41804504000,41.99959564000
35,Rhodes Ave Conservation Area,CA,Rhodes,Woonsocket,MUN,EAS,FED,0,0,0,0,0,0,0,0,0,0,0,0,0,0,0,0,0,0,0,0,-71.53278350000,42.00356292000
40,Costa Park,LP,Olo,Woonsocket,MUN,EAS,FED,1,1,0,0,0,2,0,0,0,0,0,0,0,0,0,0,0,0,0,1,-71.52381134000,42.00065994000
36,Kendall-Dean Field,SC,Greene,North Smithfield,MUN,EAS,FED,0,1,0,0,0,0,0,0,0,0,0,0,0,0,0,0,0,0,0,1,-71.57568359000,42.00180816000
44,Margaret F. Carroll Park,LP,Main,North Smithfield,MUN,CIN,MUN,0,0,0,0,0,0,0,0,0,0,0,0,0,0,0,0,0,0,0,0,-71.57904815000,42.00004196000
53,Lemoureux Field,LP,Alysworth,Woonsocket,MUN,CIN,MUN,0,1,0,0,0,0,0,0,0,0,0,0,0,0,0,0,0,0,0,1,-71.48334503000,42.00157928000
69,Bernon Memorial Park,LP,Kermit,Woonsocket,MUN,EAS,FED,1,1,0,0,0,1,2,0,0,0,0,0,0,0,0,0,0,0,0,1,-71.51145172000,41.98979949000
71,Globe Park,LP,Providence,Woonsocket,MUN,EAS,FED,0,1,0,0,0,0,0,0,0,0,0,0,0,0,0,0,0,0,0,1,-71.52281188000,41.98644638000
73,Iron Rocks Conservation Area,CA,Park,Woonsocket,MUN,EAS,FED,0,0,0,0,0,0,0,0,0,0,0,0,0,0,0,0,0,0,0,0,-71.47309112000,41.99563598000
75,Milton Ave / Union Village Playground,LP,Milton,North Smithfield,MUN,EAS,FED,1,0,0,0,1,0,0,0,0,0,0,0,0,0,0,0,0,0,0,0,-71.53242492000,41.98810195000
88,Booth Pond Conservation Area,CA,Jillson,Woonsocket,MUN,EAS,FED,0,0,0,0,0,0,0,0,0,0,0,0,0,0,0,0,0,0,0,0,-71.50159454000,41.98259353000
115,Town Common / Bicentennial Park,LP,Steere,Burrillville,MUN,CIN,MUN,1,0,0,0,0,0,0,0,0,0,0,0,0,1,0,0,0,0,0,1,-71.67449951000,41.96612930000
135,Cumberland High School Farm Drive Field,SC,Mendon,Cumberland,MUN,NON,MUN,0,2,1,1,2,0,0,0,0,0,0,0,0,0,0,0,0,0,0,1,-71.44908905000,41.96418762000
116,Whitemill Property,LP,Wallum Lake,Burrillville,MUN,EAS,STA,0,0,0,0,0,0,0,0,0,0,0,0,0,1,0,0,0,0,0,0,-71.71457672000,41.96500396000
124,Hauser Memorial Field,LP,Howard,Burrillville,MUN,CIN,MUN,1,4,0,0,0,1,0,0,0,0,0,0,0,0,0,0,0,0,0,1,-71.70935821000,41.96454620000
159,Albion Playground,LP,Berkshire,Lincoln,MUN,EAS,FED,0,1,0,0,0,1,0,0,0,0,0,0,0,0,0,0,0,0,0,1,-71.45906066000,41.95225524000
167,Ashton School,SC,Scott,Cumberland,MUN,CIN,MUN,1,1,0,0,0,0,0,0,0,0,0,0,0,0,0,0,0,0,0,1,-71.42746734000,41.94699859000
169,Monastery,LP,Diamond Hill,Cumberland,MUN,EAS,FED,1,0,0,0,0,0,0,0,0,0,0,0,0,0,0,0,0,0,0,0,-71.40972900000,41.93570709000
200,Mowry Conservation Area,CA,Farnum Pike,Smithfield,MUN,EAS,FED,0,0,0,0,0,0,0,0,0,0,0,0,0,0,0,0,0,0,0,0,-71.55303955000,41.92401885000
244,Butterfly Pond Area,LP,Butterfly,Lincoln,MUN,CIN,MUN,0,0,0,0,0,0,0,0,0,0,0,0,0,1,0,0,0,0,0,0,-71.43254852000,41.90690612000
260,Chase Farm Conservation Area,CA,Hollywood,Lincoln,MUN,EAS,FED,0,0,0,0,0,0,0,0,0,0,0,0,0,0,0,0,0,0,0,0,-71.42516326000,41.90922164000
291,Barney Pond Area,LP,Smithfield,Lincoln,MUN,CIN,MUN,0,0,0,0,0,0,0,0,0,0,0,0,0,0,0,0,0,0,0,0,-71.41409301000,41.89648818000
302,Illinois St. Playground,LP,Illinois,Central Falls,MUN,EAS,FED,1,0,0,0,0,0,0,0,0,0,0,0,0,0,0,0,0,0,0,0,-71.39514160000,41.89214706000
305,Sullivan Field,LP,Woodland,Lincoln,MUN,EAS,FED,1,1,0,0,1,1,0,0,0,0,0,0,0,0,0,0,0,0,0,1,-71.41317749000,41.89222335000
294,Georgiaville Beach,LP,Stillwater,Smithfield,MUN,CIN,MUN,0,0,0,0,0,0,0,0,0,0,0,0,0,1,1,0,0,1,0,1,-71.50817108000,41.88947677000
314,John St. Playground,LP,John,Pawtucket,MUN,CIN,MUN,1,0,0,0,0,2,0,0,0,0,0,0,0,0,0,0,0,0,0,1,-71.37123107000,41.89197158000
339,Garfield St. Totlot,LP,Garfield,Central Falls,MUN,EAS,FED,1,0,0,0,0,0,0,0,0,0,0,0,0,0,0,0,0,0,0,0,-71.39527130000,41.88606643000
363,Fairlawn Playground,LP,Mcduff,Lincoln,MUN,EAS,FED,1,1,0,0,0,3,0,0,0,1,0,0,0,0,0,0,0,0,0,1,-71.41417694000,41.88146591000
354,Marion Irons Beach,LP,Snake Hill,Glocester,MUN,CIN,MUN,0,0,0,0,0,0,0,0,0,0,0,0,0,0,0,0,0,1,0,0,-71.62581634000,41.87961578000
374,Willow Field,LP,Willow,Smithfield,MUN,EAS,FED,0,1,0,0,0,0,0,0,0,0,0,0,0,0,0,0,0,0,0,0,-71.53623962000,41.87457275000
388,Smithfield Ave Playground,LP,Smithfield,Pawtucket,MUN,EAS,FED,1,0,0,0,0,2,0,0,0,0,0,0,0,0,0,0,0,0,0,1,-71.41447448000,41.87601089000
408,Ayotte Park / Novelty Park,LP,Johnson,Pawtucket,MUN,EAS,FED,1,0,0,0,0,0,0,0,0,0,0,0,0,0,0,0,0,0,0,0,-71.37606811000,41.87448883000
421,Greystone Park,LP,Elmore,North Providence,MUN,DRS,MUN,1,0,0,0,0,1,0,0,0,0,0,0,0,0,0,0,0,0,0,1,-71.48793029000,41.86580276000
434,Ivan St. Park,LP,Washington,North Providence,MUN,EAS,FED,1,2,0,0,0,1,1,0,0,0,0,0,0,0,0,0,0,0,0,1,-71.43144989000,41.86663436000
427,Greenlake Beach,LP,Bayou,Smithfield,MUN,CIN,MUN,0,0,0,0,0,0,0,0,0,0,0,0,0,1,0,0,0,1,0,0,-71.55112457000,41.86508178000
445,McCarthy Park,LP,School,Pawtucket,MUN,CIN,MUN,1,2,1,0,1,1,3,0,0,0,0,1,0,1,0,0,0,0,0,1,-71.37646484000,41.86300277000
449,Duffy Complex,AF,Cleveland,Pawtucket,MUN,EAS,FED,1,0,0,0,0,1,4,0,0,0,0,0,0,0,0,0,0,0,0,1,-71.38535308000,41.86413192000
475,Lippitt Park,LP,Hope,Providence,MUN,EAS,FED,1,0,0,0,0,0,0,0,0,0,0,0,0,0,0,0,0,0,0,0,-71.39144897000,41.85470962000
474,Windmill St. Playground,LP,Windmill,Providence,MUN,CIN,MUN,0,0,0,0,0,0,0,0,0,0,0,0,0,0,0,0,0,0,0,0,-71.41874694000,41.85622024000
476,Canada Pond,FB,Udell,Providence,MUN,EAS,STA,0,0,0,0,0,0,0,0,0,0,0,0,0,1,0,0,0,0,0,0,-71.42797851000,41.85868072000
478,McGuire School,LP,Central,North Providence,MUN,EAS,FED,1,0,0,0,0,1,1,0,0,0,0,0,0,0,0,0,0,0,0,1,-71.46640777000,41.85397720000
486,Ascham St. Playground,LP,Ascham,Providence,MUN,EAS,FED,1,1,0,0,0,0,0,0,0,0,0,0,0,0,0,0,0,0,0,1,-71.41880798000,41.85112380000
485,Iola French Park,LP,Stansbury,Providence,MUN,CIN,MUN,0,1,0,0,1,0,0,0,0,0,0,0,0,0,0,0,0,0,0,1,-71.43286895000,41.85136032000
493,Ricci School Athletic Complex,AF,Intervale,North Providence,MUN,CIN,MUN,0,0,3,0,3,0,4,0,0,0,0,0,0,0,0,0,0,0,0,1,-71.47159576000,41.84820175000
521,Morris Ave. Totlot,LP,Morris,Providence,MUN,CIN,MUN,1,0,0,0,0,0,0,0,0,0,0,0,0,0,0,0,0,0,0,0,-71.39605712000,41.84349441000
524,Billy Taylor Park,LP,Camp,Providence,MUN,CIN,MUN,1,0,0,0,0,2,0,0,0,0,0,0,0,0,0,0,0,0,0,1,-71.40339660000,41.84188079000
529,Fargnoli Park,LP,Smith,Providence,MUN,EAS,FED,1,2,0,0,0,2,0,0,0,0,0,0,0,0,0,0,0,0,0,1,-71.44228363000,41.84207534000
538,Sessions St. Playground,LP,Sessions,Providence,MUN,CIN,MUN,1,2,0,0,1,0,0,0,0,0,0,0,0,0,0,0,0,0,0,0,-71.39135742000,41.84201049000
531,Triggs Memorial Golf Course,AF,Chalkstone,Providence,MUN,CIN,MUN,0,0,0,0,0,0,0,0,0,0,0,0,1,0,0,0,0,0,0,1,-71.45892333000,41.83682250000
547,Obediah Brown Field,LP,Obediah Brown,Providence,MUN,CIN,MUN,0,0,2,0,2,0,0,0,0,0,0,0,0,0,0,0,0,0,0,1,-71.46296691000,41.83729934000
562,Martin Luther King Playground,LP,Camp,Providence,MUN,EAS,FED,1,0,0,0,1,0,0,0,0,0,0,0,0,0,0,0,0,0,0,0,-71.40360260000,41.83815002000
566,Candace St. Playground,LP,Goddard,Providence,MUN,EAS,FED,1,0,0,0,0,1,0,0,0,0,0,0,0,0,0,0,0,0,0,1,-71.42161560000,41.83416366000
585,Gladys Potter Park,LP,Humboldt,Providence,MUN,CIN,MUN,1,0,0,0,0,0,0,0,0,0,0,0,0,0,0,0,0,0,0,0,-71.38698577000,41.83258056000
578,Viscolosi Park,LP,Chalkstone,Providence,MUN,CIN,MUN,1,0,0,0,0,0,0,0,0,0,0,0,0,0,0,0,0,0,0,0,-71.46357727000,41.83347320000
599,Agawam Playground & Softball Complex,AF,Pawtucket,East Providence,MUN,CIN,MUN,1,2,0,0,0,2,0,0,0,0,0,0,0,0,0,0,0,0,0,1,-71.35160064000,41.82711029000
573,Berkander Field,LP,Institute,Scituate,MUN,CIN,MUN,1,1,0,0,0,1,4,0,0,0,0,0,0,0,0,0,0,0,0,1,-71.58497619000,41.83447265000
598,Paterson St. Park,LP,Patterson,Providence,MUN,EAS,FED,1,0,0,0,0,0,0,0,0,0,0,0,0,0,0,0,0,0,0,0,-71.38188934000,41.83063507000
618,Preston & Ives Playground,LP,Preston,Providence,MUN,CIN,MUN,1,0,0,0,0,0,0,0,0,0,0,0,0,0,0,0,0,0,0,0,-71.39262390000,41.82419586000
609,Manton Heights,LP,Manton,Providence,MUN,CIN,MUN,1,0,0,0,0,1,0,0,0,0,0,0,0,0,0,0,0,0,0,1,-71.45593261000,41.82464218000
633,Brassil Memorial Park,LP,Arnold,Providence,MUN,EAS,FED,0,0,0,0,0,0,0,0,0,0,0,0,0,0,0,0,0,0,0,1,-71.39889526000,41.82131576000
643,Ridge St. Playground,LP,Penn,Providence,MUN,CIN,MUN,1,0,0,0,0,1,0,0,0,0,0,0,0,0,0,0,0,0,0,1,-71.43518066000,41.82080841000
626,Woodlake Park,LP,Reservoir,Johnston,MUN,EAS,FED,0,5,0,0,0,0,0,0,0,0,0,0,0,0,0,0,0,0,0,1,-71.52856445000,41.81550598000
645,Abbot Park,LP,Weybosset,Providence,MUN,CIN,MUN,0,0,0,0,0,0,0,0,0,0,0,0,0,0,0,0,0,0,0,0,-71.41336059000,41.82034683000
669,Mauran Avenue Playground,LP,Mauran,East Providence,MUN,EAS,FED,1,0,0,0,0,1,0,0,0,0,0,0,0,0,0,0,0,0,0,1,-71.38040161000,41.81561279000
673,Bold Point Park,LP,Pier,East Providence,MUN,EAS,FED,0,0,0,0,0,0,0,0,0,0,0,0,0,1,1,0,0,0,0,1,-71.39097595000,41.81522369000
670,Cranston St. Playground,LP,Cranston,Providence,MUN,EAS,FED,1,1,1,0,0,0,6,0,0,0,0,0,0,0,0,0,0,0,0,1,-71.42342376000,41.81542587000
680,Davey Lopes Park,LP,Prairie,Providence,MUN,CIN,MUN,1,0,0,0,0,1,1,0,0,0,0,0,0,0,0,0,0,0,1,1,-71.41596221000,41.81035232000
686,Ellery St. Park,LP,Ellery,Providence,MUN,CIN,MUN,1,0,0,0,0,2,0,0,0,0,0,0,0,0,0,0,0,0,0,1,-71.43855285000,41.81085205000
684,Paul Grande Park,LP,Daniel,Providence,MUN,CIN,MUN,1,0,0,0,0,1,0,0,0,0,0,0,0,0,0,0,0,0,0,1,-71.45749664000,41.81029891000
691,Warren St. Playground,LP,Fuller,Providence,MUN,CIN,MUN,1,0,0,0,0,0,0,0,0,0,0,0,0,0,0,0,0,0,0,0,-71.42559814000,41.81093978000
692,Clarence St. Playground,LP,Clarence,Providence,MUN,EAS,FED,1,0,0,0,0,0,0,0,0,0,0,0,0,0,0,0,0,0,0,0,-71.45092010000,41.80918502000
694,Scalabrini Piazza,LP,Silver Lake,Providence,MUN,CIN,MUN,0,0,0,0,0,0,0,0,0,0,0,0,0,0,0,0,0,0,0,0,-71.45817565000,41.80774307000
704,Mattie Smith Totlot,LP,Taylor,Providence,MUN,CIN,MUN,1,0,0,0,0,0,0,0,0,0,0,0,0,0,0,0,0,0,0,0,-71.41752624000,41.80569076000
708,Salisbury St. Totlot,LP,Salisbury,Providence,MUN,CIN,MUN,1,0,0,0,0,0,0,0,0,0,0,0,0,0,0,0,0,0,0,0,-71.41067504000,41.80588531000
707,Bucklin St. Park / McCrane Pool,LP,Bucklin,Providence,MUN,CIN,MUN,1,1,1,0,1,2,0,0,0,0,0,0,0,0,0,0,0,0,1,1,-71.42864990000,41.80519485000
717,Baxter St. Park,LP,Norwich,Providence,MUN,CIN,MUN,0,0,0,0,0,0,0,0,0,0,0,0,0,0,0,0,0,0,0,0,-71.41655731000,41.80282974000
718,Harriet & Sayles Park,LP,Sayles,Providence,MUN,CIN,MUN,1,1,0,0,0,2,0,0,0,0,0,0,0,0,0,0,0,0,0,1,-71.41180419000,41.80259704000
722,Locust Grove Cemetery,LP,Potters,Providence,MUN,EAS,FED,0,0,0,0,0,0,0,0,0,0,0,0,0,0,0,0,0,0,0,0,-71.42505645000,41.80078506000
731,Lawrence Street Playground,LP,Lawrence,Cranston,MUN,CIN,MUN,1,0,0,0,0,0,0,0,0,0,0,0,0,0,0,0,0,0,0,0,-71.45130157000,41.79896163000
735,Dyer Ave. Field,LP,Dyer,Cranston,MUN,CIN,MUN,1,1,0,0,0,0,0,0,0,0,0,1,0,0,0,0,0,0,0,1,-71.45874786000,41.79584884000
740,Jennife Rivera Memorial Park,LP,Niagara,Providence,MUN,CIN,MUN,1,0,0,0,0,0,0,0,0,0,0,0,0,0,0,0,0,0,0,0,-71.42066955000,41.80260848000
744,Squantum Woods Grove,LP,Veterans Memorial,East Providence,MUN,FEE,STA,0,0,0,0,0,0,0,0,0,0,0,0,0,1,0,0,0,0,0,0,-71.36986541000,41.79452133000
748,Sackett St. Playground,LP,Sackett,Providence,MUN,EAS,STA,0,1,0,0,0,1,0,0,0,0,0,0,0,0,0,0,0,0,0,1,-71.41741943000,41.79416656000
785,Smith St. Lot,LP,Smith,Cranston,MUN,CIN,MUN,0,0,0,0,0,0,0,0,0,0,0,0,0,0,0,0,0,0,0,0,-71.39967346000,41.78504943000
835,Brook Street Little League Field,LP,Brook,East Providence,MUN,CIN,MUN,0,1,0,0,1,0,0,0,0,0,0,0,0,0,0,0,0,0,0,1,-71.34394836000,41.77086639000
851,Commercial Street Playground,LP,Commercial,Cranston,MUN,EAS,FED,1,0,0,0,0,0,1,0,0,0,0,0,0,0,0,0,0,0,0,1,-71.38991546000,41.76671981000
849,Oaklawn Ave. Field,LP,Oaklawn,Cranston,MUN,CIN,MUN,0,1,0,0,0,0,0,0,0,0,0,0,0,0,0,0,0,0,0,1,-71.47296905000,41.76551818000
884,Walker Farm,CA,Wampanoag,Barrington,MUN,EAS,FED,0,0,0,0,0,0,0,0,0,0,0,0,0,1,1,0,0,0,0,1,-71.32308197000,41.75685501000
897,Adams Playground,LP,Adams,Warwick,MUN,EAS,FED,1,0,0,0,0,1,0,0,0,0,0,0,0,0,0,0,0,0,0,1,-71.39780426000,41.75852203000
908,Vinter Avenue Playground,LP,Vintner,East Providence,MUN,CIN,MUN,1,0,0,0,1,1,0,0,0,0,0,0,0,0,0,0,0,0,0,1,-71.34989929000,41.75662231000
904,Klitzner Field / West Side Little League,AF,Post,Warwick,MUN,EAS,FED,1,2,0,0,0,0,0,0,0,0,0,0,0,0,0,0,0,0,0,1,-71.40812683000,41.75687789000
945,Hampdem Meadows Greenbelt,CA,Lafayette,Barrington,MUN,EAS,FED,0,0,0,0,0,0,0,0,0,0,0,0,0,0,0,0,0,0,0,0,-71.29998779000,41.74818038000
984,Prince's Pond,LP,Priscilla,Barrington,MUN,CIN,MUN,0,0,0,0,0,0,0,0,0,0,0,0,0,0,0,0,0,0,0,0,-71.31790924000,41.74388885000
1006,Wujcik Farm / Heritage Park,CA,Schoolhouse,Warren,MUN,EAS,FED,0,0,0,0,0,0,0,0,0,0,0,0,0,0,0,0,0,0,0,0,-71.25560760000,41.73985671000
1000,Peck Center Playground,LP,Town Hall,Barrington,MUN,CIN,MUN,2,0,0,0,0,0,0,0,0,0,0,0,0,0,0,0,0,0,0,0,-71.30687713000,41.74132537000
958,Moosup Valley Park,LP,Moosup Valley,Foster,MUN,EAS,FED,0,0,0,0,0,0,0,0,0,0,0,0,0,1,0,0,0,0,0,0,-71.75213623000,41.73702621000
993,Woody Lowden Recreation Center,AF,Howard Hill,Foster,MUN,CIN,MUN,1,1,1,0,1,0,0,0,0,0,0,0,0,0,0,0,0,0,0,1,-71.71844482000,41.73250579000
1044,Baker St Park,LP,Baker,Warren,MUN,CIN,MUN,1,0,0,0,0,0,0,0,0,0,0,0,0,0,0,0,0,0,0,1,-71.28545379000,41.73066329000
1035,Lakecrest Park,LP,Stanmore,Warwick,MUN,CIN,MUN,0,0,0,0,0,0,0,0,0,0,0,0,0,1,0,0,0,0,0,0,-71.40981292000,41.72253417000
1033,Pontiac Playground,LP,Greenwich,Warwick,MUN,EAS,FED,1,0,0,0,0,1,1,0,0,0,0,0,0,0,0,0,0,0,0,0,-71.47440338000,41.72801589000
1068,Porter Field,LP,Vernon,Warwick,MUN,EAS,FED,1,1,0,0,1,1,0,0,0,0,0,0,0,0,0,0,0,0,0,1,-71.39760589000,41.72346496000
1055,Harris Playground,LP,Howard,Coventry,MUN,CIN,MUN,1,0,0,0,0,0,1,0,0,0,0,0,0,0,0,0,0,0,0,1,-71.54196166000,41.72466278000
1078,Barrington Town Beach,LP,Bay,Barrington,MUN,CIN,MUN,0,0,0,0,0,0,0,0,0,0,0,0,0,0,0,0,0,1,0,0,-71.31019592000,41.72286987000
1086,Warren Town Beach,LP,Water,Warren,MUN,CIN,MUN,1,0,0,0,0,0,0,0,0,0,0,0,0,0,0,0,0,1,0,0,-71.28495788000,41.72295761000
1085,Halifax St. Playground,LP,Halifax,Warwick,MUN,EAS,FED,1,1,0,0,1,0,0,0,0,0,0,0,0,0,0,0,0,0,0,1,-71.45835113000,41.71869277000
1095,Conimicut Pt. Beach,LP,Point,Warwick,MUN,EAS,FED,0,0,0,0,0,0,0,0,0,0,0,0,0,0,0,0,0,1,0,0,-71.35974121000,41.71665191000
1090,Natick Dam Overlook,LP,O'donnell,Warwick,MUN,EAS,FED,0,0,0,0,0,0,0,0,0,0,0,0,0,1,0,0,0,0,0,0,-71.49298858000,41.71722412000
1110,Warwick National Little League / Bend Street Field,LP,Bend,Warwick,MUN,EAS,FED,1,0,4,0,4,0,0,0,0,0,0,0,0,0,0,0,0,0,0,1,-71.38352966000,41.71156692000
1132,Cedar Crest Playground,LP,San Miguel,Bristol,MUN,CIN,MUN,1,0,0,0,1,1,0,0,0,0,0,0,0,0,0,0,0,0,0,1,-71.25946044000,41.71023559000
1148,Gorton's Pond Beach,LP,Veterans Memorial,Warwick,MUN,EAS,FED,1,0,0,0,0,0,0,0,0,0,0,0,0,1,0,0,0,1,0,0,-71.45480346000,41.70325088000
1172,Kerri Lyn Playground,LP,Kerri Lyn,Warwick,MUN,EAS,FED,1,0,0,0,0,0,0,0,0,0,0,0,0,0,0,0,0,0,0,0,-71.42491149000,41.69889831000
1188,Matteson Pond,CA,Carlton,West Warwick,MUN,EAS,FED,0,0,0,0,0,0,0,0,0,0,0,0,0,1,0,0,0,0,0,0,-71.53156280000,41.69270706000
1200,Duchess St. Field,LP,Duchess,Warwick,MUN,EAS,FED,0,0,1,0,1,0,0,0,0,0,0,0,0,0,0,0,0,0,0,1,-71.47492218000,41.69241333000
1232,Sowams Playground,LP,Sweeney,Bristol,MUN,CIN,MUN,1,0,0,0,1,1,0,0,0,0,0,0,0,0,0,0,0,0,0,1,-71.25721740000,41.69073104000
1235,Bristol Town Farm,LP,Asylum,Bristol,MUN,EAS,FED,0,5,3,0,3,1,1,0,0,0,1,0,0,0,0,0,0,0,0,1,-71.29054260000,41.68762969000
1241,Leahy Pond,LP,Primrose,Bristol,MUN,CIN,MUN,0,0,0,0,0,0,0,0,0,0,0,0,0,1,0,0,0,0,0,0,-71.25858306000,41.68887710000
1260,Hopeworth Road Site,CA,Hopeworth,Bristol,MUN,EAS,FED,0,0,0,0,0,0,0,0,0,0,0,0,0,0,0,0,0,0,0,0,-71.24597167000,41.68365097000
1262,Hopeworth Playground,LP,Hopeworth,Bristol,MUN,CIN,MUN,1,0,0,0,0,1,1,0,0,0,0,0,0,0,0,0,0,0,0,1,-71.24149322000,41.68294525000
1269,Veterans' Field,LP,Wood,Bristol,MUN,EAS,FED,1,2,0,0,0,0,0,0,0,0,0,0,0,0,0,0,0,0,0,1,-71.27478790000,41.68007659000
1278,Guiteras Field,LP,Washington,Bristol,MUN,CIN,MUN,0,1,1,0,1,0,0,0,0,0,0,0,0,0,0,0,0,0,0,1,-71.27576446000,41.67765045000
1293,Bristol Town Common,LP,Church,Bristol,MUN,EAS,FED,1,1,0,0,0,1,3,0,0,0,0,0,0,0,0,0,0,0,0,1,-71.27207946000,41.67040252000
1302,Rockwell Park,LP,Thames,Bristol,MUN,CIN,MUN,0,0,0,0,0,0,0,0,0,0,0,0,0,0,0,0,0,0,0,0,-71.27777862000,41.66896057000
1317,Pocasset Field,LP,Main,Tiverton,MUN,CIN,MUN,1,1,0,0,2,0,4,0,0,0,0,0,0,0,0,0,0,0,0,1,-71.18440246000,41.66652679000
1314,West Street Tot Lot,LP,James,East Greenwich,MUN,CIN,MUN,1,0,0,0,0,0,0,0,0,0,0,0,0,0,0,0,0,0,0,0,-71.45594787000,41.66283798000
1319,Academy Field,LP,Church,East Greenwich,MUN,EAS,FED,0,1,0,0,1,2,0,0,0,0,0,0,0,0,0,0,0,0,0,1,-71.45298767000,41.66098403000
1324,Barbara Tufts Memorial Playground,LP,Crompton,East Greenwich,MUN,CIN,MUN,1,0,0,0,0,0,0,0,0,0,0,0,0,0,0,0,0,0,0,0,-71.44762420000,41.65855026000
1333,Eldredge Field,LP,Friendship,East Greenwich,MUN,EAS,FED,1,2,1,0,1,3,0,0,0,0,0,0,0,0,0,0,0,0,0,1,-71.45507049000,41.65678787000
1337,East Greenwich Town Boat Launch,LP,Crompton,East Greenwich,MUN,EAS,FED,0,0,0,0,0,0,0,0,0,0,0,0,0,1,1,0,0,0,0,1,-71.44894409000,41.65670776000
1344,Cole Middle School,LP,Cedar,East Greenwich,MUN,NON,NON,0,2,1,0,1,1,3,0,0,0,0,0,0,0,0,0,0,0,0,1,-71.46305847000,41.65115356000
1363,Fairfield St. Playground,LP,Fairfield,East Greenwich,MUN,DRS,MUN,1,0,0,0,0,0,0,0,0,0,0,0,0,0,0,0,0,0,0,0,-71.46596527000,41.64550781000
1428,Founder's Grove,LP,Boyds,Portsmouth,MUN,CIN,MUN,0,0,0,0,0,0,0,0,0,0,0,0,0,0,0,0,0,0,0,0,-71.24291229000,41.62847137000
1411,Signal Rock Playground,LP,Signal Rock,North Kingstown,MUN,CIN,MUN,1,2,0,0,0,2,0,0,0,0,0,0,0,0,0,0,0,0,0,1,-71.43647766000,41.63028335000
1449,Fort Barton Historic Site,CA,Highland,Tiverton,MUN,EAS,FED,0,0,0,0,0,0,0,0,0,0,0,0,0,0,0,0,0,0,0,0,-71.19644927000,41.62596511000
1430,Frenchtown School Playground,LP,Frenchtown,East Greenwich,MUN,CIN,MUN,1,3,3,0,3,0,0,0,0,0,0,0,0,0,0,0,0,0,0,1,-71.50445556000,41.62355804000
1466,McGinn Park,LP,School,North Kingstown,MUN,EAS,FED,1,4,1,1,1,4,6,0,0,0,0,1,0,0,0,0,0,0,0,2,-71.46224975000,41.61854553000
1506,Municipal Golf Course,AF,Lt James Brown,North Kingstown,MUN,DRS,MUN,0,0,0,0,0,0,0,0,0,0,0,0,1,0,0,0,0,0,0,1,-71.42327880000,41.60176849000
1500,Exeter / W.Greenwich L.L.. / Venon Oatley Field,LP,New London,Exeter,MUN,CIN,MUN,0,3,1,0,0,0,0,0,0,0,0,0,0,0,0,0,0,0,0,1,-71.62014770000,41.58550643000
1570,North Kingstown Town Boat Launch,LP,Flat Fish,North Kingstown,MUN,CIN,MUN,0,0,0,0,0,0,0,0,0,0,0,0,0,1,1,0,0,0,0,0,-71.45279693000,41.57787704000
1588,Bush Hill Marsh,CA,Newtown,North Kingstown,MUN,EAS,FED,0,0,0,0,0,0,0,0,0,0,0,0,0,0,0,0,0,0,0,0,-71.45290374000,41.57279968000
1606,Wickford Elementary School,SC,Phillips,North Kingstown,MUN,CIN,MUN,1,0,0,0,1,1,0,0,0,0,0,0,0,0,0,0,0,0,0,0,-71.45680999000,41.56856536000
1615,North Kingstown Town Beach,LP,Beach,North Kingstown,MUN,CIN,MUN,1,0,0,0,0,0,0,0,0,0,0,0,0,0,0,0,0,1,0,0,-71.44361114000,41.56615829000
1661,Fogland Beach,LP,Three Rod,Tiverton,MUN,CIN,MUN,0,0,0,0,0,0,0,0,0,0,0,0,0,1,1,0,0,1,0,0,-71.21317291000,41.55625534000
1659,Redwood Farms,LP,Redwood,Portsmouth,MUN,CIN,MUN,1,0,0,0,0,1,0,0,0,0,0,0,0,0,0,0,0,0,0,1,-71.29442596000,41.56242370000
1679,Sandy Point Beach,LP,Sandy Point,Portsmouth,MUN,EAS,FED,0,0,0,0,0,0,0,0,0,0,0,0,0,0,0,0,0,1,0,0,-71.23627471000,41.55332565000
1708,Jamestown Shores Beach,LP,Seaside,Jamestown,MUN,EAS,STA,0,0,0,0,0,0,0,0,0,0,0,0,0,1,0,0,0,1,0,0,-71.38578033000,41.53823471000
1815,Wilbour & Mcmahon School,LP,Meeting House,Little Compton,MUN,CIN,MUN,1,1,0,0,1,0,2,0,0,0,0,0,0,0,0,0,0,0,0,1,-71.17633819000,41.50856399000
1794,Eldridge Playground,LP,Miner,North Kingstown,MUN,CIN,MUN,1,0,0,0,1,0,0,0,0,0,0,0,0,0,0,0,0,0,0,0,-71.42795562000,41.50674438000
1850,Van Zandt Pier,LP,Van Zandt,Newport,MUN,EAS,MUN,0,0,0,0,0,0,0,0,0,0,0,0,0,1,0,0,0,0,0,0,-71.32250976000,41.49841308000
1822,Abbie Perry Park,LP,Sand Turn,South Kingstown,MUN,CIN,MUN,0,0,0,0,0,1,0,0,0,0,0,0,0,0,0,0,0,0,0,0,-71.57801055000,41.49799728000
1837,Pettaquamscutt Park,LP,Woodsia,Narragansett,MUN,CIN,MUN,0,0,0,0,0,0,0,0,0,0,0,0,0,1,0,0,0,0,0,0,-71.44699859000,41.49902725000
1844,Jamestown Library Playground,LP,Douglas,Jamestown,MUN,CIN,MUN,1,0,0,0,0,0,0,0,0,0,0,0,0,0,0,0,0,0,0,0,-71.37425994000,41.49805068000
1912,Little Compton Town Beach,LP,Shore,Little Compton,MUN,CIN,MUN,0,0,0,0,0,0,0,0,0,0,0,0,0,0,0,0,0,1,0,0,-71.13777923000,41.49385833000
1903,Admiral Luce Circle,LP,Kay,Newport,MUN,CIN,MUN,0,0,0,0,0,0,0,0,0,0,0,0,0,0,0,0,0,0,0,0,-71.30456542000,41.49379730000
1924,Sachuest Point Campground,LP,Sachuest Point,Middletown,MUN,EAS,FED,0,0,0,0,0,0,0,0,0,0,0,0,0,0,0,0,0,0,0,0,-71.25128936000,41.48707580000
1942,Second Beach,LP,Sachuest Point,Middletown,MUN,EAS,FED,0,0,0,0,0,0,0,0,0,0,0,0,0,0,0,0,0,1,0,0,-71.25745391000,41.48765182000
1933,Easton's Beach,LP,Memorial,Newport,MUN,EAS,FED,0,0,0,0,0,0,0,0,0,0,0,0,0,0,0,0,0,1,0,0,-71.29183197000,41.48795318000
1922,Jamestown Town Beach,LP,Beavertail,Jamestown,MUN,CIN,MUN,0,0,0,0,0,0,0,0,0,0,0,0,0,0,0,0,0,1,0,0,-71.38410949000,41.48891830000
1979,Cliff Walk,LP,Narragansett,Newport,MUN,CIN,MUN,0,0,0,0,0,0,0,0,0,0,0,0,0,0,0,0,0,0,0,0,-71.29730987000,41.47589492000
2027,Indian Lake Playground,LP,Indian,South Kingstown,MUN,CIN,MUN,0,0,0,0,0,1,0,0,0,0,0,0,0,0,0,0,0,0,0,1,-71.46517944000,41.47392654000
2045,Mettatuxet Minipark,LP,Tupelo,Narragansett,MUN,CIN,MUN,1,0,0,0,0,1,0,0,0,0,0,0,0,0,0,0,0,0,0,1,-71.44404602000,41.47089385000
2078,Sakonnet Harbor Beach,LP,Sakonnet Point,Little Compton,MUN,CIN,MUN,0,0,0,0,0,0,0,0,0,0,0,0,0,0,0,0,0,1,0,0,-71.19320678000,41.46371841000
2097,Frank Fagan Park,LP,Dam,South Kingstown,MUN,EAS,FED,1,0,0,0,0,1,0,0,0,0,0,0,0,0,0,0,0,0,0,1,-71.50685882000,41.45324707000
2107,South Kingstown Village Green,LP,Kingstown,South Kingstown,MUN,DRS,MUN,1,0,0,0,0,0,2,0,0,0,0,0,0,0,0,0,0,0,0,1,-71.49438476000,41.45002365000
763,Cooney-tate Field,LP,Gansett,Cranston,MUN,CIN,STA,0,2,0,0,0,0,0,0,0,0,0,0,0,0,0,0,0,0,0,1,-71.45267486000,41.78778457000
54,Dunn Park,LP,Mason,Woonsocket,MUN,EAS,FED,1,1,1,0,1,2,3,0,0,0,0,1,0,0,0,0,0,0,0,1,-71.53058624000,41.99774169000
789,Edgewood Park,LP,Narragansett,Cranston,MUN,EAS,FED,0,0,0,0,0,0,0,0,0,0,0,0,0,0,0,0,0,0,0,0,-71.39504241000,41.78184509000
2136,Canonchet Farm,CA,Anne Hoxsie,Narragansett,MUN,EAS,FED,0,0,0,0,0,0,0,0,0,0,0,0,0,0,0,0,0,0,0,0,-71.46091461000,41.43964767000
2142,Narragansett Town Beach,LP,Beach,Narragansett,MUN,CIN,MUN,0,0,0,0,0,0,0,0,0,0,0,0,0,0,0,0,0,1,0,0,-71.45525360000,41.43560791000
2152,Town Farm,LP,Dobson,South Kingstown,MUN,EAS,FED,1,1,0,0,0,0,0,0,0,0,0,0,0,0,0,0,0,0,0,1,-71.49521636000,41.42999649000
2144,Briggs Memorial Park,LP,High,Hopkinton,MUN,CIN,MUN,0,0,0,0,0,0,0,0,0,0,0,0,0,0,0,0,0,0,0,0,-71.78958892000,41.42932510000
2156,Marina Park,LP,Salt Pond,South Kingstown,MUN,CIN,MUN,0,0,0,0,1,0,0,0,0,0,0,0,0,1,0,0,0,0,0,0,-71.49726867000,41.42804336000
2178,Charlestown Town Hall Field,AF,County,Charlestown,MUN,CIN,MUN,0,1,1,0,1,0,0,0,0,0,0,0,0,0,0,0,0,0,0,1,-71.64531707000,41.41550064000
2197,Gingerella Sports Complex,LP,White Rock,Westerly,MUN,EAS,FED,1,0,5,0,1,1,1,0,0,1,0,0,0,0,0,0,0,0,0,1,-71.83715057000,41.39580535000
2361,Charlestown Town Beach,LP,Brown Hill,Charlestown,MUN,CIN,MUN,0,0,0,0,0,0,0,0,0,0,0,0,0,0,0,0,0,1,0,0,-71.62590026000,41.36083221000
2433,Westerly Town Beach,LP,Atlantic,Westerly,MUN,CIN,MUN,0,0,0,0,0,0,0,0,0,0,0,0,0,0,0,0,0,1,0,0,-71.79054260000,41.32500839000
2464,Settler's Rock,LP,Corn Neck,New Shoreham,MUN,CIN,MUN,0,0,0,0,0,0,0,0,0,0,0,0,0,0,0,0,0,0,0,0,-71.56745147000,41.22460174000
2472,Crescent Beach,LP,Corn Neck,New Shoreham,MUN,CIN,MUN,0,0,0,0,0,0,0,0,0,0,0,0,0,0,0,0,0,1,0,0,-71.56574249000,41.18125534000
2497,Pascone Conservation Area,CA,Burrati,Johnston,MUN,EAS,STA,0,0,0,0,0,0,0,0,0,0,0,0,0,0,0,0,0,0,0,0,-71.51138305000,41.83072280000
2487,Chepiwanoxet,LP,John Wickes,Warwick,MUN,CIN,MUN,0,0,0,0,0,0,0,0,0,0,0,0,0,1,0,0,0,0,0,0,-71.44210052000,41.67358398000
2489,Lincoln Park,LP,Kentucky,Warwick,MUN,CIN,MUN,1,0,0,0,0,0,0,0,0,0,0,0,0,0,0,0,0,0,0,0,-71.43691253000,41.73703002000
2492,Iris Ave Field,AF,Iris,Warwick,MUN,CIN,MUN,0,0,3,0,1,0,0,0,0,0,0,0,0,0,0,0,0,0,0,1,-71.43775177000,41.70772552000
2512,Coventry Focal Point,LP,Tiogue,Coventry,MUN,CIN,MUN,0,0,0,0,0,0,0,0,0,0,0,0,0,0,0,0,0,0,0,0,-71.56047058000,41.68325042000
2532,Phenix-harris Main Street Water,LP,Main,Coventry,MUN,CIN,MUN,0,0,0,0,0,0,0,0,0,0,0,0,0,0,0,0,0,0,0,0,-71.53434753000,41.72279357000
2544,Hanaford Field,LP,Lebaron,East Greenwich,MUN,NON,NON,1,2,1,0,1,0,0,0,0,0,0,0,0,0,0,0,0,0,0,1,-71.46824645000,41.64935684000
2572,North Smithfield Elementary Sch,LP,Providence Pike,North Smithfield,MUN,CIN,MUN,1,0,4,0,0,0,0,0,0,0,0,0,0,0,0,0,0,0,0,1,-71.53947448000,41.94132232000
2574,Alphonso St. Playground,LP,Alphonso,Providence,MUN,CIN,MUN,1,0,0,0,0,0,0,0,0,0,0,0,0,0,0,0,0,0,0,0,-71.40862274000,41.80817794000
2605,Waterplace Park,LP,Finance,Providence,MUN,EAS,STA,0,0,0,0,0,0,0,0,0,0,0,0,0,0,0,0,0,0,0,0,-71.41397094000,41.82719802000
2595,Woodmont Playground,LP,Woodmont,Providence,MUN,CIN,MUN,1,0,0,0,0,0,0,0,0,0,0,0,0,0,0,0,0,0,0,0,-71.42726898000,41.79180145000
2602,Springfield School Grounds,LP,Springfield,Providence,MUN,CIN,MUN,1,0,0,0,0,0,0,0,0,0,0,0,0,0,0,0,0,0,0,0,-71.46428680000,41.81609344000
2623,Kingston Street Playground,LP,Kingston,Newport,MUN,CIN,MUN,1,0,0,0,0,0,0,0,0,0,0,0,0,0,0,0,0,0,0,0,-71.31200408000,41.49508285000
2642,Eagle Nest/handy Pond,CA,Old River,Lincoln,MUN,EAS,FED,0,0,0,0,0,0,0,0,0,0,0,0,0,0,0,0,0,0,0,0,-71.47499847000,41.95441436000
2650,Kent Street,AF,Kent,Barrington,MUN,CIN,MUN,0,0,0,0,0,0,1,0,0,0,0,0,0,0,0,0,0,0,0,1,-71.29827880000,41.75379180000
2651,St. Andrew's Farm,AF,Middle,Barrington,MUN,CIN,MUN,0,0,1,0,1,0,0,0,0,0,0,0,0,0,0,0,0,0,0,1,-71.33137512000,41.74869537000
2658,Ball O'brien Park,LP,Side,New Shoreham,MUN,EAS,STA,1,0,0,0,0,1,2,0,0,1,0,0,0,0,0,0,0,0,0,1,-71.58007812000,41.18123245000
779,Atwood Ave. Field,LP,Randall,Cranston,MUN,EAS,FED,1,1,0,0,0,0,0,0,0,0,0,0,0,0,0,0,0,0,0,1,-71.47125244000,41.78388595000
734,Silver Spring Playground & Athletic Area,SC,Silver Spring,East Providence,MUN,CIN,MUN,1,1,0,0,1,2,0,0,0,0,0,0,0,0,0,0,0,0,0,1,-71.36901855000,41.79899597000
541,Glenlyon Park & Athletic Complex,LP,Kelly,East Providence,MUN,CIN,MUN,1,2,1,0,1,1,1,0,0,0,0,0,0,0,0,0,0,0,0,1,-71.36259460000,41.84048843000
1747,Anchorage Playground,LP,Main,Middletown,MUN,EAS,FED,0,1,0,0,1,1,0,0,0,0,0,0,0,0,0,0,0,0,0,1,-71.30011749000,41.52035522000
1899,Domenic Cristofaro Memorial Park,LP,Boston Neck,Narragansett,MUN,EAS,FED,1,1,2,0,0,2,4,0,0,1,0,0,0,0,0,0,0,0,0,1,-71.43885803000,41.48949813000
1589,Ryan Park,LP,Oak Hill,North Kingstown,MUN,EAS,FED,0,4,0,0,1,1,0,0,0,0,0,0,0,1,0,0,0,0,0,1,-71.47588348000,41.55818176000
415,Notte Memorial Park,LP,Douglas,North Providence,MUN,EAS,FED,0,1,0,0,0,0,2,0,0,0,0,0,0,1,0,0,0,0,0,1,-71.46276092000,41.87150192000
47,Pacheco Park,LP,Main,North Smithfield,MUN,EAS,FED,1,4,0,0,0,1,1,0,0,1,0,0,0,0,0,0,0,0,0,1,-71.58277130000,42.00008010000
333,Whipple Field,AF,Whipple,Smithfield,MUN,CIN,MUN,0,5,0,0,2,0,0,0,0,0,0,0,0,0,0,0,0,0,0,1,-71.50407409000,41.88507080000
941,Rubery Field,LP,Lyman,Warwick,MUN,EAS,FED,1,1,0,0,1,1,0,0,0,0,0,0,0,0,0,0,0,0,0,1,-71.42910003000,41.75034713000
865,Belmont Park,LP,1st,Warwick,MUN,CIN,MUN,0,3,2,0,1,0,0,0,0,0,0,0,0,0,0,0,0,0,0,1,-71.42223358000,41.76161193000
1048,Father Tirocchi Playground,LP,Pontiac,Warwick,MUN,EAS,FED,1,1,0,0,0,2,0,0,0,0,0,0,0,0,0,0,0,0,0,1,-71.48526000000,41.72366714000
16,Cold Spring Park,LP,Katherine,Woonsocket,MUN,EAS,FED,1,2,0,0,0,1,2,0,0,0,0,0,0,1,1,0,0,0,0,1,-71.52519989000,42.00914001000
2198,Bradford Elementary School,LP,Penny,Westerly,MUN,EAS,FED,1,1,0,0,0,1,2,0,0,0,0,0,0,0,0,0,0,0,0,1,-71.74535369000,41.39731216000
2661,Exeter / West Greenwich Soccer,AF,Victory,West Greenwich,MUN,CIN,MUN,0,0,7,0,1,0,0,0,0,0,0,0,0,0,0,0,0,0,0,1,-71.68421936000,41.63852691000
2674,Colonial Acres Recreation Area,LP,Monroe,Coventry,MUN,CIN,MUN,0,1,1,0,0,1,0,0,0,0,0,0,0,0,0,0,0,0,0,1,-71.57723999000,41.67241668000
2704,O'Brien Field,LP,Follett,Pawtucket,MUN,EAS,FED,0,0,1,0,1,0,0,0,0,0,0,0,0,0,0,0,0,0,0,1,-71.37190246000,41.87714004000
2703,McKinnon / Alves Soccer Complex,LP,Monticello,Pawtucket,MUN,EAS,FED,0,0,3,0,3,0,0,0,0,0,0,0,0,0,0,0,0,0,0,1,-71.36288452000,41.86877441000
2692,First Street Park,LP,1st,Cranston,MUN,CIN,MUN,1,0,0,0,0,2,0,0,0,0,0,0,0,0,0,0,0,0,0,1,-71.42170715000,41.76620101000
2728,Ravenwoods Field,LP,Victory,Coventry,MUN,CIN,MUN,0,1,0,0,0,0,0,0,0,0,0,0,0,0,0,0,0,0,0,1,-71.68898010000,41.68435668000
2720,Amvets Memorial Park,LP,Tiogue,Coventry,MUN,NON,MUN,0,0,0,0,0,0,0,0,0,0,0,0,0,0,0,0,0,0,0,0,-71.55948638000,41.68292617000
2732,Aaron Ave. Right-of-Way,LP,Aaron,Bristol,MUN,CIN,MUN,0,0,0,0,0,0,0,0,0,0,0,0,0,0,0,0,0,0,0,0,-71.29167938000,41.69844818000
2735,Mt. Hope Farm,LP,Metacom,Bristol,MUN,EAS,STA,0,0,0,0,0,0,0,0,0,0,0,0,0,0,0,0,0,0,0,0,-71.25493621000,41.66762542000
2740,Westerly Town Forest,CA,Havens,Westerly,MUN,EAS,STA,0,0,0,0,0,0,0,0,0,0,0,0,0,0,0,0,0,0,0,0,-71.81252288000,41.41342163000
2749,Blue Beach,LP,Quonset,North Kingstown,MUN,CIN,STA,0,0,0,0,0,0,0,0,0,0,0,0,0,0,0,0,0,1,0,0,-71.41568756000,41.58681106000
2759,Philips Farm,CA,Putnam,Glocester,MUN,EAS,FED,0,0,0,0,0,0,0,0,0,0,0,0,0,0,0,0,0,0,0,0,-71.60818481000,41.89082717000
2760,Scotstun Town Forest,CA,Chopmist Hill,Glocester,MUN,EAS,FED,0,0,0,0,0,0,0,0,0,0,0,0,0,0,0,0,0,0,0,1,-71.67073059000,41.89853286000
2762,Sprague Farm,CA,Pine Orchard,Glocester,MUN,EAS,STA,0,0,0,0,0,0,0,0,0,0,0,0,0,0,0,0,0,0,0,0,-71.70404815000,41.90882110000
2763,Mansion Park,LP,Sorrento,Providence,MUN,EAS,FED,0,0,0,0,0,0,0,0,0,0,0,0,0,0,0,0,0,0,0,0,-71.43536376000,41.80953216000
2764,Cragan Field,LP,Reilly,East Greenwich,MUN,CIN,MUN,0,1,0,0,0,0,0,0,0,0,0,0,0,0,0,0,0,0,0,1,-71.46131896000,41.65581512000
2765,Lincoln Avenue Park,LP,Lincoln,Barrington,MUN,EAS,FED,0,1,0,0,1,0,6,0,0,0,0,0,0,0,0,0,0,0,0,1,-71.32106781000,41.74538803000
2767,North Providence Little League West,AF,Woonasquatucket,North Providence,MUN,CIN,MUN,0,1,0,0,0,0,0,0,0,0,0,0,0,0,0,0,0,0,0,1,-71.47998809000,41.84868621000
2769,Town Landing,LP,Taft,Pawtucket,MUN,CIN,MUN,0,0,0,0,0,0,0,0,0,0,0,0,0,1,1,0,0,0,0,1,-71.38403320000,41.87176895000
2770,Crompton Veterans Field,LP,Hepburn,West Warwick,MUN,CIN,MUN,0,2,0,0,1,0,0,0,0,0,0,0,0,0,0,0,0,0,0,1,-71.52568054000,41.68905639000
2771,Franciscan Park,LP,Ridge,Providence,MUN,CIN,MUN,0,0,0,0,0,0,0,0,0,0,0,0,0,0,0,0,0,0,0,0,-71.43685913000,41.81907653000
2772,Thunder Mist Overlook,LP,River,Woonsocket,MUN,CIN,MUN,0,0,0,0,0,0,0,0,0,0,0,0,0,0,1,0,0,0,0,0,-71.51758575000,42.00001144000
2773,Blackstone River Park,LP,High,Central Falls,MUN,CIN,MUN,0,0,1,0,1,0,1,0,0,0,0,0,0,0,0,0,0,0,0,0,-71.38679504000,41.89863586000
2774,Public St. Basketball Court,AF,Public,Providence,MUN,CIN,MUN,0,0,0,0,0,2,0,0,0,0,0,0,0,0,0,0,0,0,0,1,-71.40977478000,41.80700302000
2776,Curtis Corner Playfields,AF,Curtis Corner,South Kingstown,MUN,CIN,MUN,1,2,1,0,2,0,0,0,0,0,0,0,0,0,0,0,0,0,0,1,-71.52194976000,41.46387481000
2777,Bouley Field,AF,Social,Woonsocket,MUN,CIN,MUN,0,1,0,0,0,0,0,0,0,0,0,0,0,0,0,0,0,0,0,1,-71.50582885000,42.00952148000
2786,Spring Lake Beach,LP,Hillside,Burrillville,MUN,EAS,STA,0,0,0,0,0,0,0,0,0,0,0,0,0,0,0,0,0,1,0,0,-71.65743255000,41.98682403000
2788,Globe Park,LP,Coe,Woonsocket,MUN,CIN,MUN,1,0,0,0,0,1,1,0,0,0,0,0,0,1,0,0,0,0,0,1,-71.52706909000,41.98944091000
2789,Manville Memorial Park,LP,High,Lincoln,MUN,CIN,MUN,1,2,0,0,1,1,0,0,0,0,0,0,0,1,0,0,0,0,0,1,-71.47804260000,41.96587753000
2791,Greatroad Gateway,LP,Front,Lincoln,MUN,CIN,MUN,0,0,0,0,0,0,0,0,0,0,0,0,0,0,0,0,0,0,0,0,-71.41950225000,41.90353775000
2795,Tasca Field,AF,Washington Highway,Scituate,MUN,EAS,NGO,0,0,4,0,1,0,0,0,0,0,0,0,0,0,0,0,0,0,0,1,-71.57127380000,41.83630371000
2806,Island Park Playground,LP,Highland,Portsmouth,MUN,EAS,FED,1,1,1,0,1,1,0,0,0,0,0,0,0,0,0,0,0,0,0,1,-71.23396301000,41.62577819000
2808,Howland Park,LP,Wapping,Middletown,MUN,CIN,MUN,1,0,0,0,1,1,0,0,0,0,0,0,0,0,0,0,0,0,0,1,-71.25585174000,41.51374053000
2809,Jamestown Town Pier,LP,Conanicus,Jamestown,MUN,EAS,FED,0,0,0,0,0,0,0,0,0,0,0,0,0,1,1,0,0,0,0,1,-71.36679077000,41.49643325000
2810,Jamestown Town Golf Course,AF,Conanicus,Jamestown,MUN,EAS,STA,0,0,0,0,0,0,0,0,0,0,0,0,0,0,0,0,0,0,0,1,-71.37047576000,41.50491333000
2811,Potter Cove Access,FB,Bayview,Jamestown,MUN,CIN,MUN,0,0,0,0,0,0,0,0,0,0,0,0,0,1,1,0,0,0,0,1,-71.35974884000,41.51020050000
2812,Roger Williams Square,LP,Gano,Providence,MUN,CIN,MUN,0,0,0,0,0,0,0,0,0,0,0,0,0,0,0,0,0,0,0,0,-71.39049530000,41.82350158000
2815,Warwick Continental Little League,AF,Greenwich,Warwick,MUN,CIN,MUN,0,2,0,0,0,0,0,0,0,0,0,0,0,0,0,0,0,0,0,1,-71.46933746000,41.71028518000
2819,Shovlin Park,LP,Middle,East Greenwich,MUN,CIN,MUN,1,0,1,0,1,0,0,0,0,0,0,1,0,0,0,0,0,0,0,1,-71.53432464000,41.64096069000
2820,Yorktown Park,LP,Yorktown,North Kingstown,MUN,CIN,MUN,1,1,1,0,1,1,0,0,0,0,0,0,0,0,0,0,0,0,0,1,-71.45997619000,41.61198425000
2821,Green Conservation Area,CA,Hamilton Allenton,North Kingstown,MUN,EAS,FED,0,0,0,0,0,0,0,0,0,0,0,0,0,0,0,0,0,0,0,0,-71.45036315000,41.55136871000
2855,Fanning Wilderness Area,CA,Jones,Cumberland,MUN,FEE,MUN,0,0,0,0,0,0,0,0,0,0,0,0,0,0,0,0,0,0,0,0,-71.39785766000,41.90224075000
2852,Freedom Green Park,LP,North Broadway,East Providence,MUN,CIN,MUN,0,0,0,0,0,0,0,0,0,0,0,0,0,1,0,0,0,0,0,0,-71.35998535000,41.83300781000
2851,Senior Center Soccer Field,AF,Payette,East Providence,MUN,CIN,MUN,0,0,1,0,1,0,0,0,0,0,0,0,0,0,0,0,0,0,0,1,-71.35655212000,41.81842041000
2850,Rose Garden Playground & Soccer Area,AF,Brown,East Providence,MUN,EAS,FED,1,0,1,0,1,0,0,0,0,0,0,0,0,0,0,0,0,0,0,1,-71.36764526000,41.80782318000
2849,Rose Larisa Memorial Park,LP,Bullocks Point,East Providence,MUN,NON,NON,0,0,0,0,0,0,0,0,0,0,0,0,0,1,0,0,0,0,0,0,-71.36093139000,41.75674057000
2848,Bullock Cove Access,LP,Carousel,East Providence,MUN,CIN,MUN,0,0,0,0,0,0,0,0,0,0,0,0,0,1,0,0,0,0,0,0,-71.35671997000,41.75397872000
2847,Riverside Square Park,LP,Bullocks Point,East Providence,MUN,CIN,MUN,0,0,0,0,0,0,0,0,0,0,0,0,0,0,0,0,0,0,0,0,-71.36202239000,41.77178573000
2846,County Road Boat Launch,LP,County,Barrington,MUN,CIN,MUN,0,0,0,0,0,0,0,0,0,0,0,0,0,1,1,0,0,0,0,1,-71.29730224000,41.73725891000
2845,Rovensky Park,LP,Bellevue,Newport,MUN,CIN,MUN,0,0,0,0,0,0,0,0,0,0,0,0,0,0,0,0,0,0,0,0,-71.30728149000,41.46006011000
2844,Hazard Memorial Garden,LP,Kingstown,South Kingstown,MUN,CIN,MUN,0,0,0,0,0,0,0,0,0,0,0,0,0,0,0,0,0,0,0,0,-71.49417877000,41.45069122000
2843,William C O'Neill Bike Path,LP,Na,South Kingstown,MUN,CIN,MUN,0,0,0,0,0,0,0,0,0,0,0,0,0,0,0,0,0,0,0,1,-71.54528808000,41.46051025000
2842,Parks And Recreation Complex,LP,Clarke,Narragansett,MUN,CIN,MUN,0,0,0,0,1,1,3,0,0,0,0,0,0,0,0,0,0,0,1,1,-71.47698211000,41.39974212000
2841,Allen Harbor,LP,Alllen,North Kingstown,MUN,CIN,MUN,0,0,0,0,0,0,0,0,0,0,0,0,0,1,1,0,0,0,0,1,-71.41185760000,41.62038421000
2840,Forest Park,LP,Lynn,North Kingstown,MUN,CIN,MUN,0,0,0,0,0,0,0,0,0,0,0,0,0,0,0,0,0,0,0,0,-71.44985961000,41.62131881000
1501,Town Dock Park,LP,Brown,North Kingstown,MUN,CIN,MUN,0,0,0,0,0,0,0,0,0,0,0,0,0,0,0,0,0,0,0,0,-71.45121765000,41.57016754000
2839,Town Hall Memorial Park,LP,Boston Neck,North Kingstown,MUN,EAS,FED,0,0,0,0,0,0,0,0,0,0,0,0,0,0,0,0,0,0,0,0,-71.45034027000,41.56654739000
2838,Town Wharf,LP,Main,North Kingstown,MUN,CIN,MUN,0,0,0,0,0,0,0,0,0,0,0,0,0,0,0,0,0,0,0,0,-71.44572448000,41.57219314000
2481,Mystic Woods,CA,South,East Greenwich,MUN,CIN,MUN,0,0,0,0,0,0,0,0,0,0,0,0,0,0,0,0,0,0,0,0,-71.52893066000,41.60704040000
1234,Municipal Cove Overlook,LP,Division,East Greenwich,MUN,CIN,MUN,0,0,0,0,0,0,0,0,0,0,0,0,0,0,0,0,0,0,0,0,-71.44493865000,41.66398239000
1310,Meadowbrook Field,LP,Chestnut,East Greenwich,MUN,CIN,MUN,1,1,0,0,0,0,0,0,0,0,0,0,0,0,0,0,0,0,0,1,-71.48092651000,41.63557052000
1453,Weetamo Woods,LP,Lake,Tiverton,MUN,EAS,FED,0,0,0,0,0,0,0,0,0,0,0,0,0,0,0,0,0,0,0,0,-71.17652893000,41.58378982000
1368,Grinnells Beach,LP,Main,Tiverton,MUN,CIN,MUN,0,0,0,0,0,0,0,0,0,0,0,0,0,0,0,0,0,1,0,0,-71.21371459000,41.62504959000
2837,South Field,AF,East,Tiverton,MUN,CIN,MUN,0,1,0,0,0,0,0,0,0,0,0,0,0,0,0,0,0,0,0,1,-71.17646789000,41.57108306000
2836,Bayview Playground,LP,Hooper,Tiverton,MUN,CIN,MUN,0,1,0,0,1,1,0,0,0,0,0,0,0,0,0,0,0,0,0,1,-71.19281005000,41.66965866000
2835,Rotary Park,LP,Airport,Westerly,MUN,CIN,MUN,1,0,0,0,0,0,4,4,0,0,0,0,0,0,0,0,0,0,0,1,-71.81475067000,41.34578704000
2238,Blue Shutters Beach,LP,Beach,Charlestown,MUN,EAS,STA,0,0,0,0,0,0,0,0,0,0,0,0,0,0,0,0,0,1,0,0,-71.69492340000,41.34166336000
2832,Tiogue Boat Launch,LP,Tiogue,Coventry,MUN,CIN,MUN,0,0,0,0,0,0,0,0,0,0,0,0,0,1,1,0,0,0,0,1,-71.54940032000,41.68517303000
2831,North Glen Boat Launch,LP,North Glen,Coventry,MUN,CIN,MUN,0,0,0,0,0,0,0,0,0,0,0,0,0,1,1,0,0,0,0,1,-71.54834747000,41.67012023000
2830,Hope Pond Recreation Area & Beach,LP,Ryefield,Scituate,MUN,CIN,MUN,0,0,0,0,1,0,1,0,0,0,0,0,0,1,0,0,0,1,0,1,-71.56555175000,41.73530578000
2829,Beaver River Road Playground,LP,Beaver River,Richmond,MUN,CIN,MUN,1,0,0,0,0,0,0,0,0,0,0,0,0,0,0,0,0,0,0,0,-71.62875366000,41.48749542000
2828,Apponaug Park,LP,Post,Warwick,MUN,CIN,MUN,0,0,0,0,0,0,0,0,0,0,0,0,0,0,0,0,0,0,0,0,-71.45743560000,41.69922637000
2827,Saul Tarlow Field,AF,High,Central Falls,MUN,CIN,MUN,0,1,0,0,0,0,0,0,0,0,0,0,0,0,0,0,0,0,0,1,-71.38294982000,41.89408111000
131,Nannaquaket Bridge,FB,Main,Tiverton,MUN,CIN,MUN,0,0,0,0,0,0,0,0,0,0,0,0,0,1,0,0,0,0,0,1,-71.20577239000,41.61816406000
133,St. Mary's Pond,FB,Union,Portsmouth,MUN,CIN,MUN,0,0,0,0,0,0,0,0,0,0,0,0,0,1,0,0,0,0,0,1,-71.27626800000,41.55856704000
144,Lampham Pond,FB,Victory,Burrillville,MUN,CIN,MUN,0,0,0,0,0,0,0,0,0,0,0,0,0,1,0,0,0,0,0,1,-71.64172363000,41.96570205000
159,Mowry Pond,FB,Killingly,Glocester,MUN,FEE,MUN,0,0,0,0,0,0,0,0,0,0,0,0,0,1,0,0,0,0,0,1,-71.79138183000,41.89685821000
171,Upper Rochambeau / Handy Pond,FB,Old River,Lincoln,MUN,CIN,MUN,0,0,0,0,0,0,0,0,0,0,0,0,0,1,0,0,0,0,0,1,-71.47154998000,41.95917510000
2886,AL Mowry,FB,Industrial,Smithfield,MUN,CIN,MUN,0,0,0,0,0,0,0,0,0,0,0,0,0,1,0,0,0,0,0,1,-71.54845428000,41.91466903000
213,Seidel Pond Fishing Access,FB,Hall,Cranston,MUN,CIN,MUN,0,0,0,0,0,0,0,0,0,0,0,0,0,1,0,0,0,0,0,1,-71.54782867000,41.73713302000
222,Old Sprague Bridge Fishing Access,FB,Boston Neck,Narragansett,MUN,CIN,MUN,0,0,0,0,0,0,0,0,0,0,0,0,0,1,0,0,0,0,0,1,-71.44992828000,41.44841766000
230,Cass Pond Fishing Access,FB,Cass,Woonsocket,MUN,EAS,FED,0,0,0,0,0,0,0,0,0,0,0,0,0,1,0,0,0,0,0,1,-71.48794555000,42.00532150000
232,Sylvester's Pond Fishing Access,FB,Woonsocket Hospital,Woonsocket,MUN,EAS,FED,0,0,0,0,0,0,0,0,0,0,0,0,0,1,0,0,0,0,0,1,-71.49575042000,42.00200653000
83,Tiverton Trout Pond,FB,Fish,Tiverton,MUN,CIN,MUN,0,0,0,0,0,0,0,0,0,0,0,0,0,1,0,0,0,0,0,1,-71.18638610000,41.62925338000
94,South Shore,FB,Shore,Little Compton,MUN,CIN,MUN,0,0,0,0,0,0,0,0,0,0,0,0,0,1,0,0,0,0,0,1,-71.13815307000,41.49360275000
95,Wilbour Woods,FB,Swamp,Little Compton,MUN,CIN,MUN,0,0,0,0,0,0,0,0,0,0,0,0,0,1,0,0,0,0,0,1,-71.17309570000,41.48880767000
102,Lower Melville Pond,FB,Unnamed,Portsmouth,MUN,CIN,MUN,0,0,0,0,0,0,0,0,0,0,0,0,0,1,0,0,0,0,0,1,-71.27776336000,41.59072875000
103,McCorey Lane,FB,Mccorrie,Portsmouth,MUN,CIN,MUN,0,0,0,0,0,0,0,0,0,0,0,0,0,1,0,0,0,0,0,1,-71.23482513000,41.57693481000
105,Upper Melville Pond Fishing Access,FB,Bradford,Portsmouth,MUN,CIN,MUN,0,0,0,0,0,0,0,0,0,0,0,0,0,1,0,0,0,0,0,1,-71.27156829000,41.58402633000
241,East Beach,LP,Beach,New Shoreham,MUN,CIN,MUN,0,0,0,0,0,0,0,0,0,0,0,0,0,1,0,0,0,1,0,1,-71.56667327000,41.18254470000
272,Korea-vietnam Vets Park,LP,Arnold,Coventry,MUN,CIN,MUN,0,0,0,0,0,0,0,0,0,0,0,0,0,1,0,0,0,0,0,1,-71.55643463000,41.67771911000
2880,Longmeadow Fishing And Boating Access,FB,Dorr,Warwick,MUN,EAS,FED,0,0,0,0,0,0,0,0,0,0,0,0,0,1,1,0,0,0,0,1,-71.36469268000,41.70441818000
134,Old State Pier,FB,Tim Healey,Pawtucket,MUN,CIN,MUN,0,0,0,0,0,0,0,0,0,0,0,0,0,1,1,0,0,0,0,1,-71.37985229000,41.86893844000
185,Asa Pond,LP,Galway,South Kingstown,MUN,CIN,MUN,0,0,0,0,0,0,0,0,0,0,0,0,0,1,1,0,0,0,0,1,-71.51522827000,41.45790481000
197,Chapman Pond,FB,Town Landfill,Westerly,MUN,CIN,MUN,0,0,0,0,0,0,0,0,0,0,0,0,0,1,1,0,0,0,0,1,-71.80036926000,41.38182067000
2885,White Rock,FB,State 78,Westerly,MUN,CIN,MUN,0,0,0,0,0,0,0,0,0,0,0,0,0,1,1,0,0,0,0,1,-71.84104156000,41.39451217000
215,Pleasant St Boat Launch,FB,Pleasant,North Kingstown,MUN,CIN,MUN,0,0,0,0,0,0,0,0,0,0,0,0,0,1,1,0,0,0,0,1,-71.44779205000,41.57684326000
217,Pond St Boat Launch,FB,Billington,South Kingstown,MUN,CIN,MUN,0,0,0,0,0,0,0,0,0,0,0,0,0,1,1,0,0,0,0,1,-71.50309753000,41.42250061000
218,Gooseberry Rd Boat Launch,FB,Gooseberry,South Kingstown,MUN,CIN,MUN,0,0,0,0,0,0,0,0,0,0,0,0,0,1,1,0,0,0,0,1,-71.51958465000,41.38589477000
221,South Ferry Rd,LP,Ferry,Narragansett,MUN,CIN,MUN,0,0,0,0,0,0,0,0,0,0,0,0,0,1,1,0,0,0,0,1,-71.42050933000,41.49255752000
2887,Brickyard Pond,FB,Legion,Barrington,MUN,CIN,MUN,0,0,0,0,0,0,0,0,0,0,0,0,0,1,1,0,0,0,0,1,-71.32526397000,41.73535919000
225,Sherman Ave,FB,Sherman,Bristol,MUN,CIN,MUN,0,0,0,0,0,0,0,0,0,0,0,0,0,1,0,0,0,0,0,1,-71.25372314000,41.70888900000
226,Smith Street,FB,Smith,Bristol,MUN,CIN,MUN,0,0,0,0,0,0,0,0,0,0,0,0,0,1,1,0,0,0,0,1,-71.24889373000,41.70349121000
231,Tarkiln Pond,FB,Mowry,Burrillville,MUN,CIN,MUN,0,0,0,0,0,0,0,0,0,0,0,0,0,1,1,0,0,0,0,1,-71.59770965000,41.96502304000
29,Switch Rd Canoe Access,FB,Hope Valley,Hopkinton,MUN,CIN,MUN,0,0,0,0,0,0,0,0,0,0,0,0,0,1,1,0,0,0,0,1,-71.71589660000,41.49346923000
2873,Pettaquamscutt Pond,FB,Gilbert Stuart,North Kingstown,MUN,CIN,MUN,0,0,0,0,0,0,0,0,0,0,0,0,0,1,1,0,0,0,0,1,-71.44407653000,41.51992034000
46,Indian Lake Boat Ramp,FB,Indian,South Kingstown,MUN,CIN,MUN,0,0,0,0,0,0,0,0,0,0,0,0,0,1,1,0,0,0,0,1,-71.46953582000,41.47410964000
74,Hopkins Mill Pond,FB,Winsor,Foster,MUN,FEE,UTL,0,0,0,0,0,0,0,0,0,0,0,0,0,1,1,0,0,0,0,1,-71.70736694000,41.82413101000
2878,Hope Valley,FB,Nooseneck Hill,Hopkinton,MUN,CIN,MUN,0,0,0,0,0,0,0,0,0,0,0,0,0,1,1,0,0,0,0,1,-71.70645904000,41.51210403000
82,Pawtuxet River,FB,Hope Furnace,Scituate,MUN,CIN,MUN,0,0,0,0,0,0,0,0,0,0,0,0,0,1,1,0,0,0,0,1,-71.56536102000,41.73108673000
100,Bellville Pond,FB,Oak Hill,North Kingstown,MUN,EAS,FED,0,0,0,0,0,0,0,0,0,0,0,0,0,1,1,0,0,0,0,1,-71.47568511000,41.56043624000
106,Weaver Cove,FB,Unnamed,Portsmouth,MUN,CIN,MUN,0,0,0,0,0,0,0,0,0,0,0,0,0,1,1,0,0,0,0,1,-71.28792572000,41.57381820000
2879,Fogland Boat Launch,FB,Fogland,Tiverton,MUN,CIN,MUN,0,0,0,0,0,0,0,0,0,0,0,0,0,1,1,0,0,0,0,1,-71.21348571000,41.55488204000
110,State Street Boat Launch,FB,State,Bristol,MUN,CIN,MUN,0,0,0,0,0,0,0,0,0,0,0,0,0,1,1,0,0,0,0,1,-71.27833557000,41.67000961000
113,Town Dock,FB,Water,Warren,MUN,CIN,MUN,0,0,0,0,0,0,0,0,0,0,0,0,0,1,1,0,0,0,0,1,-71.28568267000,41.72629165000
239,Manville,FB,New River,Lincoln,MUN,CIN,MUN,0,0,0,0,0,0,0,0,0,0,0,0,0,1,1,0,0,0,0,1,-71.46733856000,41.96964263000
248,Central Falls Landing,LP,Broad,Central Falls,MUN,CIN,,0,0,0,0,0,0,0,0,0,0,0,0,0,1,1,0,0,0,0,1,-71.39031982000,41.89884185000
251,Willet Pond,FB,Willett,East Providence,MUN,EAS,FED,0,0,0,0,0,0,0,0,0,0,0,0,0,1,1,0,0,0,0,1,-71.35593414000,41.77551269000
238,Homestead,FB,Narragansett,Portsmouth,MUN,CIN,MUN,0,0,0,0,0,0,0,0,0,0,0,0,0,1,1,0,0,0,0,1,-71.30502319000,41.61980438000
271,Charlestown,FB,Charlestown Beach,Charlestown,MUN,CIN,MUN,0,0,0,0,0,0,0,0,0,0,0,0,0,1,1,0,0,0,0,1,-71.62668609000,41.36371994000
264,Corliss Landing,LP,Water,Providence,MUN,CIN,MUN,0,0,0,0,0,0,0,0,0,0,0,0,0,1,1,0,0,0,0,1,-71.40550994000,41.82149887000
0,Queen Ann Park,LP,Church,Newport,MUN,CIN,MUN,0,0,0,0,0,0,0,0,0,0,0,0,0,0,0,0,0,0,0,0,-71.31445312000,41.48736572000
0,Peace & Plenty Park,LP,Peace Street,Providence,MUN,FEE,MUN,1,0,0,0,0,0,0,0,0,0,0,0,0,0,0,0,0,0,0,0,0.00000000000,0.00000000000
0,Rec Office Playground,LP,Frenchtown,East Greenwich,MUN,CIN,MUN,1,0,0,0,0,0,0,0,0,0,0,0,0,0,0,0,0,0,0,0,0.00000000000,0.00000000000
0,Sun Valley Playground,LP,Pequot,East Greenwich,MUN,CIN,MUN,1,0,0,0,0,0,0,0,0,0,0,0,0,0,0,0,0,0,0,0,0.00000000000,0.00000000000
0,Ten Mile River Greenway,LP,Ferris,East Providence,MUN,FEE,MUN,0,0,0,0,0,0,0,0,0,0,0,0,0,0,0,0,0,0,0,0,0.00000000000,0.00000000000
0,Demery Park,LP,Riverview,Middletown,MUN,EAS,NGO,0,0,0,0,0,0,0,0,0,0,0,0,0,0,0,0,0,0,0,0,0.00000000000,0.00000000000
0,Dunlap Wheeler Park,LP,Purgatory,Middletown,MUN,FEE,MUN,0,0,0,0,0,0,0,0,0,0,0,0,0,0,0,0,0,0,0,0,0.00000000000,0.00000000000
0,Wyatt Road Soccer Complex,AF,Wyatt,Middletown,MUN,EAS,NGO,0,0,5,0,0,0,0,0,0,0,0,0,0,0,0,0,0,0,0,1,0.00000000000,0.00000000000
0,Robert Douglas Field,AF,Wellington,Newport,MUN,CIN,MUN,0,1,0,0,0,0,0,0,0,0,0,0,0,0,0,0,0,0,0,1,0.00000000000,0.00000000000
0,Hogan Field,AF,Wellington,Newport,MUN,CIN,MUN,0,1,0,0,0,0,0,0,0,0,0,0,0,0,0,0,0,0,0,1,0.00000000000,0.00000000000
0,Pop Flack Courts,AF,King,Newport,MUN,FEE,MUN,0,0,0,0,0,0,4,0,0,0,0,0,0,0,0,0,0,0,0,1,0.00000000000,0.00000000000
0,Pleasant Street Boat Ramp,FB,Pleasant,North Kingstown,MUN,FEE,MUN,0,0,0,0,0,0,0,0,0,0,0,0,0,0,1,0,0,0,0,0,0.00000000000,0.00000000000
0,Lee Romano Field,AF,Greystone,North Providence,MUN,CIN,MUN,1,1,0,0,0,0,0,0,0,0,0,0,0,1,1,0,0,0,0,1,0.00000000000,0.00000000000
0,Bushee Playground,LP,Merrimac,North Smithfield,MUN,NON,MUN,1,0,0,0,0,0,0,0,0,0,0,0,0,0,0,0,0,0,0,0,0.00000000000,0.00000000000
0,Newell Ave Playground,LP,Newell,Pawtucket,MUN,CIN,MUN,1,0,0,0,0,0,0,0,0,0,0,0,0,0,0,0,0,0,0,0,0.00000000000,0.00000000000
0,Veterans Park Amphitheater,LP,Roosevelt,Pawtucket,MUN,CIN,MUN,0,0,0,0,0,0,0,0,0,0,0,0,0,0,0,0,0,0,0,0,0.00000000000,0.00000000000
0,Perez Park,LP,Pleasant,Pawtucket,MUN,CIN,MUN,0,0,0,0,0,0,0,0,0,0,0,0,0,0,0,0,0,0,0,0,0.00000000000,0.00000000000
0,Hodgson Rotary Park,LP,Roosevelt,Pawtucket,MUN,DRS,MUN,0,0,0,0,0,0,0,0,0,0,0,0,0,0,0,0,0,0,0,0,0.00000000000,0.00000000000
0,Bank of Americal City Center,LP,Kennedy Plaza,Providence,MUN,CIN,MUN,0,0,0,0,0,0,0,0,0,0,1,0,0,0,0,0,0,0,0,1,0.00000000000,0.00000000000
0,Biltmore Park,LP,Kennedy Plaza,Providence,MUN,CIN,MUN,0,0,0,0,0,0,0,0,0,0,0,0,0,0,0,0,0,0,0,0,0.00000000000,0.00000000000
0,Cathedral Square,LP,Jackson Walkway,Providence,MUN,CIN,MUN,0,0,0,0,0,0,0,0,0,0,0,0,0,0,0,0,0,0,0,0,0.00000000000,0.00000000000
0,Diamond St Playground,LP,Diamond,Providence,MUN,CIN,MUN,1,0,0,0,0,0,0,0,0,0,0,0,0,0,0,0,0,0,0,0,0.00000000000,0.00000000000
0,Freeman Park,LP,Westminster,Providence,MUN,CIN,MUN,0,0,0,0,0,0,0,0,0,0,0,0,0,0,0,0,0,0,0,0,0.00000000000,0.00000000000
0,Jacqueline Clements Park,LP,Dudley,Providence,MUN,CIN,MUN,0,0,0,0,0,0,0,0,0,0,0,0,0,0,0,0,0,0,0,0,0.00000000000,0.00000000000
0,Knight St. Park,LP,Knight,Providence,MUN,CIN,MUN,1,0,0,0,0,1,0,0,0,0,0,1,0,0,0,0,0,0,0,1,0.00000000000,0.00000000000
0,M.E. Sharpe Memorial Park,LP,Benefit St,Providence,MUN,CIN,MUN,0,0,0,0,0,0,0,0,0,0,0,0,0,0,0,0,0,0,0,0,0.00000000000,0.00000000000
0,Market Square,LP,North Main St,Providence,MUN,CIN,MUN,0,0,0,0,0,0,0,0,0,0,0,0,0,0,0,0,0,0,0,0,0.00000000000,0.00000000000
0,Mount Pleasant Little League,AF,Mount Pleasant,Providence,MUN,CIN,MUN,0,3,0,0,0,0,0,0,0,0,0,0,0,0,0,0,0,0,0,1,0.00000000000,0.00000000000
0,Pleasant St. Park,LP,Pleasant,Providence,MUN,CIN,MUN,1,0,0,0,0,0,0,0,0,0,0,0,0,0,0,0,0,0,0,0,0.00000000000,0.00000000000
0,Silver Lake Memorial Park,LP,Pocasset,Providence,MUN,CIN,MUN,0,0,0,0,0,0,0,0,0,0,0,0,0,0,0,0,0,0,0,0,0.00000000000,0.00000000000
0,St Ann's Plaza,LP,Charles,Providence,MUN,CIN,MUN,0,0,0,0,0,0,0,0,0,0,0,0,0,0,0,0,0,0,0,0,0.00000000000,0.00000000000
0,Trinity Mews,LP,Fountain,Providence,MUN,CIN,MUN,0,0,0,0,0,0,0,0,0,0,0,0,0,0,0,0,0,0,0,0,0.00000000000,0.00000000000
0,Tom Twitchell Greenway,LP,Oakland,Providence,MUN,CIN,MUN,0,0,0,0,0,0,0,0,0,0,0,0,0,0,0,0,0,0,0,0,0.00000000000,0.00000000000
0,Broad Rock Playfields,LP,Broad Rock,South Kingstown,MUN,CIN,MUN,0,3,0,0,0,0,0,0,0,0,0,0,0,0,0,0,0,0,0,1,0.00000000000,0.00000000000
0,South Kingstown Dog Park,LP,Broad Rock,South Kingstown,MUN,CIN,MUN,0,0,0,0,0,0,0,0,0,0,0,0,0,0,0,0,0,0,0,0,0.00000000000,0.00000000000
0,Factory St. Playground,LP,Factory,West Warwick,MUN,CIN,MUN,1,0,0,0,0,1,0,0,0,0,0,0,0,0,0,0,0,0,0,1,0.00000000000,0.00000000000
0,Carlson Circle Park,LP,Carlson,West Warwick,MUN,CIN,MUN,0,1,0,0,0,0,0,0,0,0,0,0,0,0,0,0,0,0,0,0,0.00000000000,0.00000000000
0,Brookside Ave Playground,LP,Brookside,West Warwick,MUN,CIN,MUN,1,0,0,0,0,0,0,0,0,0,0,0,0,0,0,0,0,0,0,0,0.00000000000,0.00000000000
0,Bradford Preserve,CA,Westerly-Bradford Rd,Westerly,MUN,FEE,MUN,0,0,0,0,2,0,0,0,0,0,0,0,0,0,0,0,0,0,0,1,0.00000000000,0.00000000000
2783,Putnam Pike Baseball Field,AF,Putnam,Glocester,Municipal,UNK,UNK,0,4,0,0,0,0,0,0,0,0,0,0,0,0,0,0,0,0,0,1,-71.66211700000,41.90771865000
2784,Casino Street Field,AF,Casino,Burrillville,Municipal,UNK,UNK,1,4,0,0,0,0,0,0,0,0,0,0,0,0,0,0,0,0,0,1,-71.64605712000,41.95081710000
2796,Westconnaug Meadows,AF,George Washington,Scituate,Municipal,UNK,UNK,0,2,0,0,1,0,0,0,0,0,0,0,0,0,0,0,0,0,0,1,-71.67129516000,41.76625442000
2799,Boston Road Field,AF,Boston,Coventry,Municipal,UNK,UNK,0,1,0,0,0,0,0,0,0,0,0,0,0,0,0,0,0,0,0,1,-71.55049133000,41.70503234000
2804,Jannitto Memorial Field,AF,0,Warren,Municipal,UNK,UNK,0,1,0,0,0,0,0,0,0,0,0,0,0,0,0,0,0,0,0,1,-71.28433990000,41.72551345000
2817,"St Gregory 
St Gregory Field",LP,Larchwood,Warwick,Municipal,UNK,UNK,0,2,0,0,0,1,0,0,0,0,0,0,0,0,0,0,0,0,0,1,-71.46806335000,41.68238067000
2818,Sleepy Hollow Tennis Courts,AF,Sleepy Hollow Farm,Warwick,Municipal,UNK,UNK,0,0,0,0,0,0,2,0,0,0,0,0,0,0,0,0,0,0,0,1,-71.47628021000,41.68181991000
1108,Hanley Farm Marsh,CA,Beach,Warren,NGO,FEE,NGO,0,0,0,0,0,0,0,0,0,0,0,0,0,1,0,0,0,0,0,0,-71.28863525000,41.71199798000
2469,Clay Head,CA,Clayhead,New Shoreham,NGO,EAS,STA,0,0,0,0,0,0,0,0,0,0,0,0,0,0,0,0,0,0,0,0,-71.56118011000,41.20758056000
2609,Hunt River Preserve,CA,South County,East Greenwich,NGO,EAS,STA,0,0,0,0,0,0,0,0,0,0,0,0,0,0,0,0,0,0,0,0,-71.48708343000,41.61244964000
2739,Waypoyset Preserve / Bristol Narrows,CA,Narrows,Bristol,NGO,EAS,STA,0,0,0,0,0,0,0,0,0,0,0,0,0,1,1,0,0,0,0,0,-71.24816131000,41.69705581000
2814,Kenney Field,AF,Jefferson,Warwick,NGO,NON,NON,0,1,0,0,0,0,0,0,0,0,0,0,0,0,0,0,0,0,0,1,-71.44581604000,41.71908187000
164,Long Pond,FB,North,Hopkinton,NGO,FEE,NGO,0,0,0,0,0,0,0,0,0,0,0,0,0,1,0,0,0,0,0,1,-71.77915954000,41.50866699000
120,Barberville Fishing And Boating Access,FB,Arcadia,Hopkinton,NGO,FEE,NGO,0,0,0,0,0,0,0,0,0,0,0,0,0,1,1,0,0,0,0,1,-71.69631195000,41.54090118000
2823,Oakland Forest,CA,Oakland Farm,Portsmouth,NGO,EAS,STA,0,0,0,0,0,0,0,0,0,0,0,0,0,0,0,0,1,0,0,0,-71.26146697000,41.55591583000
2741,Westerly Peewee Football,AF,Old Hopkinton,Westerly,PRV,NON,NON,0,0,1,1,1,0,0,0,0,0,0,0,0,0,0,0,0,0,0,1,-71.80600738000,41.38690185000
2782,Burrillville Glocester Youth Soccer,AF,Putnam,Glocester,PRV,NON,NON,0,0,5,0,3,0,0,0,0,0,0,0,0,0,0,0,0,0,0,1,-71.69031524000,41.92124938000
2866,Fatima Church Field,LP,High,Cumberland,PRV,NON,PRV,1,0,0,0,1,0,0,0,0,0,0,0,0,0,0,0,0,0,0,1,-71.38853454000,41.90652465000
2826,Chariho Athletic Association,LP,Nooseneck Hill,Hopkinton,PRV,NON,NON,0,3,0,0,0,0,0,0,0,0,0,0,0,1,1,0,0,0,0,1,-71.70585632000,41.51308059000
160,Alton Pond Landing,FB,Alton Bradford,Hopkinton,PRV,NON,PRV,0,0,0,0,0,0,0,0,0,0,0,0,0,1,1,0,0,0,0,1,-71.72243499000,41.43811035000
2892,Rose Nulman Memorial Park,LP,Ocean,Narragansett,PRV,NON,PRV,0,0,0,0,0,0,0,0,0,0,0,0,0,1,0,0,0,1,0,0,-71.48078155000,41.36204910000
1138,Little Pond Beach,LP,Albert,Warwick,SCH,NON,NON,0,0,0,0,0,0,0,0,0,0,0,0,0,0,0,0,0,1,0,0,-71.40768432000,41.70495223000
1902,Edward Street Playground,LP,Edward,Newport,SCH,EAS,FED,1,1,0,0,0,0,0,0,0,0,0,0,0,0,0,0,0,0,0,1,-71.31304168000,41.49255752000
101,Cumberland Hill School,SC,Manville Hill,Cumberland,SCH,NON,NON,1,1,1,0,1,0,0,0,0,0,0,0,0,0,0,0,0,0,0,1,-71.46141815000,41.97454071000
109,Burrillville High School,SC,Whipple,Burrillville,SCH,NON,NON,0,1,2,0,1,1,4,0,0,0,0,0,0,0,0,0,0,0,0,1,-71.66116333000,41.96744918000
108,Callahan School,SC,Callahan School,Burrillville,SCH,NON,NON,0,1,1,0,1,1,0,0,0,0,0,0,0,0,0,0,0,0,0,1,-71.68173217000,41.97035598000
138,Northern Lincoln Elementary,SC,New River,Lincoln,SCH,NON,NON,1,0,0,0,0,0,0,0,0,0,0,0,0,0,0,0,0,0,0,0,-71.46847534000,41.96329116000
207,Garvin Field,SC,Lonsdale Farm,Cumberland,SCH,NON,NON,1,1,0,0,0,0,0,0,0,0,0,0,0,0,0,0,0,0,0,1,-71.40279388000,41.92814636000
258,BF Norton School,SC,Broad,Cumberland,SCH,NON,MUN,1,1,0,0,0,0,0,0,0,0,0,0,0,0,0,0,0,0,0,1,-71.39501953000,41.90899276000
273,Raymond C. Laperche Elem. Sch.,SC,Limerock,Smithfield,SCH,NON,NON,1,1,0,0,0,0,0,0,0,0,0,0,0,0,0,0,0,0,0,1,-71.50394439000,41.89886093000
322,Gallagher Junior High School,SC,Indian Run,Smithfield,SCH,NON,NON,0,1,0,0,0,0,0,0,0,0,0,0,0,0,0,0,0,0,0,1,-71.54341125000,41.88348007000
342,Old County Elementary School,SC,Old County,Smithfield,SCH,NON,NON,1,0,0,0,0,1,0,0,0,0,0,0,0,0,0,0,0,0,0,1,-71.51172637000,41.88234329000
341,McCabe Elementry School,SC,Pleasant View,Smithfield,SCH,NON,NON,1,1,0,0,0,2,0,0,0,0,0,0,0,0,0,0,0,0,0,1,-71.54109954000,41.88148117000
399,Jenks Jr High School,SC,Division,Pawtucket,SCH,NON,NON,0,0,0,0,0,1,2,0,0,1,0,0,0,0,0,0,0,0,0,1,-71.37182617000,41.87530136000
395,Slater School Playground,SC,Mineral Spring,Pawtucket,SCH,NON,NON,0,0,1,0,1,1,0,0,0,0,0,0,0,0,0,0,0,0,0,1,-71.40139007000,41.87454605000
417,Birchwood School,SC,Patricia,North Providence,SCH,NON,NON,0,1,0,0,0,0,0,0,0,0,0,0,0,0,0,0,0,0,0,1,-71.45070648000,41.86898422000
432,Baldwin School,SC,Randall,Pawtucket,SCH,NON,NON,1,0,0,0,0,0,0,0,0,0,0,0,0,0,0,0,0,0,0,1,-71.39620208000,41.86891937000
455,North Providence High School,SC,Jackson,North Providence,SCH,NON,NON,0,1,0,1,2,0,0,0,0,0,0,0,0,0,0,0,0,0,0,1,-71.45812225000,41.85905838000
462,Centerdale School,SC,Brookside,North Providence,SCH,NON,NON,0,2,0,0,0,0,0,0,0,0,0,0,0,0,0,0,0,0,0,1,-71.47685241000,41.85730361000
537,Mount Pleasant H. S. Fields,SC,Rialto,Providence,SCH,NON,NON,0,1,2,1,2,1,2,0,1,0,0,0,0,0,0,0,0,0,0,1,-71.45356750000,41.83821868000
548,Nathan Bishop School,SC,Elmgrove,Providence,SCH,NON,NON,0,0,0,0,0,1,6,0,0,0,0,0,0,0,0,0,0,0,0,1,-71.39337158000,41.84058761000
546,Barnes School,SC,Barnes,Johnston,SCH,NON,NON,1,1,0,0,0,1,0,0,0,0,0,0,0,0,0,0,0,0,0,1,-71.48765563000,41.83846282000
558,Johnston Sr High School,SC,Cherry Hill,Johnston,SCH,NON,NON,0,0,1,1,2,0,0,0,1,0,0,0,0,0,0,0,0,0,0,1,-71.49881744000,41.83306884000
553,Brown Ave. School,SC,Brown,Johnston,SCH,NON,NON,1,0,0,0,0,0,0,0,0,0,0,0,0,0,0,0,0,0,0,1,-71.54750823000,41.83452606000
591,Scituate Jr.-Sr.high School,SC,Rockland,Scituate,SCH,NON,NON,0,0,1,1,1,0,4,0,1,0,0,0,0,0,0,0,0,0,0,1,-71.61898040000,41.82462310000
651,Central / Classical  High Schools,SC,Broad,Providence,SCH,NON,NON,0,1,1,1,1,0,0,0,1,0,0,0,0,0,0,0,0,0,0,1,-71.41934967000,41.81695938000
654,Windsor Hills School,SC,Valley View,Johnston,SCH,NON,NON,0,1,0,0,0,0,0,0,0,0,0,0,0,0,0,0,0,0,0,0,-71.47737121000,41.81727218000
660,Laurel Hill Playground,SC,Grover,Providence,SCH,NON,NON,0,0,1,0,1,0,0,0,0,0,0,0,0,0,0,0,0,0,0,1,-71.45627593000,41.81672668000
664,Bridgham School Playfield,SC,Broadway,Providence,SCH,NON,NON,0,1,0,0,0,0,0,0,0,0,0,0,0,0,0,0,0,0,0,1,-71.43763732000,41.81743240000
636,Captain Issac Paine School,SC,Danielson Pike,Foster,SCH,NON,NON,1,0,0,0,0,0,0,0,0,0,0,0,0,0,0,0,0,0,0,0,-71.73156738000,41.81411361000
815,Western Hills Middle School,SC,Phenix,Cranston,SCH,NON,NON,0,2,1,0,1,0,3,0,0,0,0,0,0,0,0,0,0,0,0,1,-71.47874450000,41.77529144000
871,Garden City School,SC,Magazine,Cranston,SCH,NON,NON,1,1,0,0,0,0,0,0,0,0,0,0,0,0,0,0,0,0,0,1,-71.45024108000,41.76180648000
902,Sowams School,SC,Sowams,Barrington,SCH,NON,NON,1,2,0,0,0,0,0,0,0,0,0,0,0,0,0,0,0,0,0,1,-71.29434204000,41.75711822000
901,Aldrich Junior High School,SC,Post,Warwick,SCH,EAS,FED,0,1,2,0,2,0,2,0,0,0,0,0,0,0,0,0,0,0,0,0,-71.41495513000,41.75586318000
931,Wyman School,SC,Columbia,Warwick,SCH,EAS,FED,0,0,0,0,1,1,0,0,0,0,0,0,0,0,0,0,0,0,0,1,-71.38999176000,41.75265884000
944,Holliman School,SC,Black,Warwick,SCH,EAS,FED,0,2,1,0,1,0,4,0,0,0,0,0,0,0,0,0,0,0,0,1,-71.41301727000,41.74768066000
975,Barrington Middle School,SC,Middle,Barrington,SCH,NON,NON,0,1,3,0,3,2,4,0,0,0,0,0,0,0,0,0,0,0,0,1,-71.33242797000,41.74534606000
976,John Brown School,SC,Miantonomo,Warwick,SCH,EAS,FED,1,1,0,0,0,0,0,0,0,0,0,0,0,0,0,0,0,0,0,1,-71.40443420000,41.74388122000
996,Spring Green School,SC,Balsam,Warwick,SCH,NON,NON,1,0,0,0,0,1,0,0,0,0,0,0,0,0,0,0,0,0,0,1,-71.40663909000,41.73954010000
1052,Child St. School,SC,Moonbeam,Warren,SCH,NON,NON,1,1,0,0,1,0,0,0,0,0,0,0,0,0,0,0,0,0,0,0,-71.26663970000,41.73001480000
1034,Hoxsie School,SC,Glenwood,Warwick,SCH,EAS,FED,1,0,0,0,0,0,0,0,0,0,0,0,0,0,0,0,0,0,0,0,-71.39866638000,41.72867965000
1046,Nayatt School,SC,Nayatt,Barrington,SCH,NON,NON,1,2,0,0,0,0,0,0,0,0,0,0,0,0,0,0,0,0,0,1,-71.30706787000,41.73025512000
1091,Sherman School,SC,Killey,Warwick,SCH,EAS,FED,1,0,0,0,1,0,0,0,0,0,0,0,0,0,0,0,0,0,0,0,-71.39683532000,41.71786880000
1109,Greenwood School,SC,Trinity,Warwick,SCH,NON,NON,1,0,0,0,0,1,0,0,0,0,0,0,0,0,0,0,0,0,0,1,-71.45539093000,41.71108627000
1117,Tollgate  School Complex,SC,Toll Gate,Warwick,SCH,NON,NON,0,2,2,1,4,0,5,0,0,0,0,0,0,0,0,0,0,0,0,1,-71.48661804000,41.70531463000
1129,Lippitt School,SC,Almy,Warwick,SCH,NON,NON,1,0,0,0,1,1,0,0,0,0,0,0,0,0,0,0,0,0,0,1,-71.42202758000,41.70706558000
1137,Veterans' High School,SC,West Shore,Warwick,SCH,NON,NON,0,2,1,1,2,0,6,0,0,0,0,0,0,0,0,0,0,0,0,1,-71.41106414000,41.70613479000
1136,Washington Oak School,SC,Walker,Coventry,SCH,NON,NON,0,4,0,0,1,0,0,0,0,0,0,0,0,0,0,0,0,0,0,1,-71.59170532000,41.70385360000
1156,Scott Elementary School,SC,Centerville,Warwick,SCH,EAS,FED,1,0,0,0,1,1,0,0,0,0,0,0,0,0,0,0,0,0,0,0,-71.49099731000,41.69957733000
1162,Robertson School,SC,Nausauket,Warwick,SCH,EAS,FED,1,0,0,0,0,1,0,0,0,0,0,0,0,0,0,0,0,0,0,1,-71.43920898000,41.69889831000
1186,Rockwell School,SC,Hope,Bristol,SCH,NON,NON,1,0,0,0,0,0,0,0,0,0,0,0,0,0,0,0,0,0,0,0,-71.28095245000,41.69816589000
1149,Western Coventry School,SC,Flat River,Coventry,SCH,NON,NON,1,0,0,0,0,1,0,0,0,0,0,0,0,0,0,0,0,0,0,1,-71.68848419000,41.69654464000
1216,Warwick Neck School,SC,Warwick Neck,Warwick,SCH,EAS,FED,1,0,0,0,0,0,0,0,0,0,0,0,0,0,0,0,0,0,0,0,-71.37711334000,41.69006347000
1236,Bristol Junior-Senior High Sch.,SC,Chestnut,Bristol,SCH,NON,NON,0,1,2,1,2,0,6,0,1,0,0,0,0,0,0,0,0,0,0,1,-71.27165985000,41.68800735000
1214,Wood Street Field,LP,Wood,Coventry,SCH,NON,NON,0,1,0,0,0,0,0,0,0,0,0,0,0,0,0,0,0,0,0,1,-71.56259155000,41.68597412000
1257,Tiogue School,SC,Shore,Coventry,SCH,NON,NON,1,0,0,0,0,0,0,0,0,0,0,0,0,0,0,0,0,0,0,0,-71.54225158000,41.67655563000
1267,Hopkins Hill School,SC,Johnson,Coventry,SCH,NON,NON,1,0,0,0,0,0,0,0,0,0,0,0,0,0,0,0,0,0,0,0,-71.56107330000,41.67387390000
1377,Potowomut School,SC,Potowomut,Warwick,SCH,NON,NON,1,0,0,0,0,0,0,0,0,0,0,0,0,0,0,0,0,0,0,0,-71.45531463000,41.64053344000
1436,Tiverton Middle School,SC,Quintal,Tiverton,SCH,NON,NON,0,1,1,1,1,0,0,0,0,0,0,0,0,0,0,0,0,0,0,1,-71.15909576000,41.62908935000
1440,Tiverton High School,SC,Brayton,Tiverton,SCH,NON,NON,0,1,2,1,2,0,4,0,0,0,0,0,0,0,0,0,0,0,0,1,-71.16397857000,41.63021087000
1477,Hutchinson School,SC,Brownell,Portsmouth,SCH,NON,NON,0,1,0,0,0,0,0,0,0,0,0,0,0,0,0,0,0,0,0,1,-71.25832366000,41.61851501000
1484,Hathaway School,SC,Main,Portsmouth,SCH,EAS,FED,1,0,0,0,0,2,0,0,0,0,0,0,0,0,0,0,0,0,0,1,-71.24502563000,41.61639404000
1476,Quidnesset School,SC,Edmond,North Kingstown,SCH,NON,NON,1,0,0,0,1,1,0,0,0,0,0,0,0,0,0,0,0,0,0,1,-71.43831634000,41.61502838000
1488,Portsmouth High School,SC,Memorial,Portsmouth,SCH,NON,NON,0,4,2,1,4,3,8,0,1,0,0,0,0,0,0,0,0,0,0,1,-71.25101470000,41.61082458000
1481,Davisville Elementary School,SC,East,North Kingstown,SCH,NON,NON,1,0,0,0,1,1,0,0,0,0,0,0,0,0,0,0,0,0,0,0,-71.46742248000,41.61243820000
1479,Lineham School,SC,Nooseneck Hill,West Greenwich,SCH,NON,NON,0,4,0,0,0,0,0,0,0,0,0,0,0,0,0,0,0,0,0,1,-71.63883972000,41.61312103000
1525,Stony Lane School,SC,Iron Horse,North Kingstown,SCH,NON,NON,1,0,0,0,1,1,0,0,0,0,0,0,0,0,0,0,0,0,0,1,-71.48599243000,41.59396362000
1562,Melville School,SC,Bradford,Portsmouth,SCH,EAS,FED,1,0,0,0,0,1,0,0,0,0,0,0,0,0,0,0,0,0,0,1,-71.27086639000,41.58343124000
1610,Wickford Middle School,SC,Tower Hill,North Kingstown,SCH,NON,NON,0,2,1,0,1,0,2,0,0,0,0,0,0,0,0,0,0,0,0,1,-71.46163177000,41.56729888000
1658,North Kingstown High School,SC,Fairway,North Kingstown,SCH,NON,NON,0,2,3,1,3,0,6,0,1,0,0,0,0,0,0,0,0,0,0,1,-71.44660949000,41.55709075000
1676,Portsmouth Middle School,SC,Jepson,Portsmouth,SCH,NON,NON,0,2,2,0,2,0,0,0,0,0,0,0,0,0,0,0,0,0,0,1,-71.28697967000,41.55553817000
1685,Hamilton School,SC,Boston Neck,North Kingstown,SCH,NON,NON,1,0,0,0,0,1,0,0,0,0,0,0,0,0,0,0,0,0,0,1,-71.44120788000,41.54689025000
1695,Pennfield School,SC,Main,Portsmouth,SCH,NON,NON,1,2,0,0,0,0,0,0,0,0,0,0,0,0,0,0,0,0,0,1,-71.25842285000,41.54598236000
1709,Oliphant School,SC,Oliphant,Middletown,SCH,NON,NON,1,2,0,0,0,0,0,0,0,0,0,0,0,0,0,0,0,0,0,1,-71.29088592000,41.54006195000
1742,Kennedy School,SC,Lake Erie,Middletown,SCH,NON,NON,1,0,0,0,0,0,0,0,0,0,0,0,0,0,0,0,0,0,0,0,-71.29987335000,41.52320098000
1748,Middletown Middle School,SC,Turner,Middletown,SCH,NON,NON,0,2,1,1,2,0,5,0,0,0,0,0,0,0,0,0,0,0,0,1,-71.27790832000,41.52029037000
1788,Linden School,SC,Linden,Middletown,SCH,NON,NON,1,0,0,0,1,0,0,0,0,0,0,0,0,0,0,0,0,0,0,1,-71.30053710000,41.51072311000
1801,Sullivan School,SC,Dexter,Newport,SCH,NON,NON,1,0,0,0,1,0,0,0,0,0,0,0,0,0,0,0,0,0,0,0,-71.30486297000,41.50843811000
1802,Richmond Elementary School,SC,Kingstown,Richmond,SCH,EAS,FED,1,1,0,0,1,1,2,0,0,0,0,0,0,0,0,0,0,0,0,1,-71.66181182000,41.50089645000
1838,Coggeshall School,SC,Evarts,Newport,SCH,NON,NON,1,0,0,0,1,0,0,0,0,0,0,0,0,0,0,0,0,0,0,0,-71.31037139000,41.50075149000
1860,Aquidneck School,SC,Reservoir,Middletown,SCH,NON,NON,1,3,0,0,0,0,0,0,0,0,0,0,0,0,0,0,0,0,0,0,-71.28116607000,41.49660491000
1884,Cranston / Calvert School,SC,Cranston,Newport,SCH,NON,NON,1,0,0,0,0,0,0,0,0,0,0,0,0,0,0,0,0,0,0,0,-71.30818939000,41.49470138000
1907,West Kingston School,SC,Ministerial,South Kingstown,SCH,NON,NON,1,0,0,0,0,0,0,0,0,0,0,0,0,0,0,0,0,0,0,0,-71.55046844000,41.47817611000
2048,Rogers High School,SC,Wickham,Newport,SCH,NON,NON,0,0,1,0,0,0,6,0,1,0,0,0,0,0,0,0,0,0,0,1,-71.32054138000,41.46977996000
2086,Chariho High School,SC,Switch,Richmond,SCH,NON,NON,0,4,2,1,2,0,4,0,1,0,0,0,0,0,0,0,0,0,0,1,-71.69665527000,41.44982147000
2095,Charlestown School,SC,Old Shannock,Charlestown,SCH,NON,NON,1,1,0,0,0,0,0,0,0,0,0,0,0,0,0,0,0,0,0,0,-71.65536499000,41.44958114000
2121,Hazard Field,SC,School,South Kingstown,SCH,EAS,FED,0,0,2,0,2,0,0,0,0,0,0,0,0,0,0,0,0,0,0,1,-71.49368286000,41.44556808000
2128,Hazard School,SC,School,South Kingstown,SCH,NON,NON,1,0,0,0,0,0,0,0,0,0,0,0,0,0,0,0,0,0,0,0,-71.49520111000,41.44526290000
2138,Peacedale Elementary School,SC,Emmett,South Kingstown,SCH,NON,NON,1,0,0,0,1,0,0,0,0,0,0,0,0,0,0,0,0,0,0,0,-71.49983215000,41.45405197000
2162,Narragansett High School,SC,Pier,Narragansett,SCH,NON,NON,0,2,3,1,3,0,0,0,1,0,0,0,0,0,0,0,0,0,0,1,-71.47056579000,41.42977523000
2165,Ashaway School,SC,Hillside,Hopkinton,SCH,NON,NON,1,0,0,0,0,0,0,0,0,0,0,0,0,0,0,0,0,0,0,1,-71.79157257000,41.41998291000
2241,Tower St. School,LP,Narragansett,Westerly,SCH,NON,SCH,1,0,0,0,0,1,1,0,0,0,0,0,0,0,0,0,0,0,0,0,-71.81366729000,41.37926101000
2256,Babcock Hall,LP,Ward,Westerly,SCH,NON,SCH,0,1,0,1,1,0,0,0,1,0,0,0,0,0,0,0,0,0,0,1,-71.82043457000,41.37632751000
2328,State St. School,SC,State,Westerly,SCH,NON,SCH,1,0,0,0,1,0,0,0,0,0,0,0,0,0,0,0,0,0,0,0,-71.82421875000,41.36603164000
2394,Dunn's Corner School,SC,Plateau,Westerly,SCH,NON,SCH,1,0,0,0,0,1,0,0,0,0,0,0,0,0,0,0,0,0,0,1,-71.77528381000,41.34708404000
2480,Block Island School,SC,Pilot Hill,New Shoreham,SCH,NON,NON,1,1,0,0,0,0,0,0,0,0,0,0,0,0,0,0,0,0,0,1,-71.56102752000,41.16488647000
2490,Oakland Beach School,SC,Gordon,Warwick,SCH,NON,NON,1,0,0,0,0,0,0,0,0,0,0,0,0,0,0,0,0,0,0,0,-71.40063476000,41.69863128000
2633,Potter-Burns School,SC,Carter,Pawtucket,SCH,NON,NON,1,0,1,0,1,0,0,0,0,0,0,0,0,0,0,0,0,0,0,1,-71.35214233000,41.88180923000
963,Barrington High School,SC,Lincoln,Barrington,SCH,NON,NON,0,3,3,1,4,0,0,0,1,0,0,0,0,0,0,0,0,0,0,1,-71.32001495000,41.74769592000
1245,Coventry High School,SC,Club House,Coventry,SCH,NON,NON,0,1,1,1,2,0,6,0,1,0,0,0,0,0,0,0,0,0,0,1,-71.59456634000,41.68457031000
820,Cranston High School West,SC,Phoenix,Cranston,SCH,NON,NON,0,1,1,1,1,0,6,0,1,0,0,0,0,0,0,0,0,0,0,1,-71.47899627000,41.77336883000
646,East Providence High School,SC,Pawtucket,East Providence,SCH,NON,NON,0,3,6,1,6,0,4,0,1,0,0,0,0,0,0,0,0,0,0,1,-71.35266113000,41.81922912000
396,Ponagansett School,SC,Anan Wade,Glocester,SCH,EAS,FED,0,2,2,1,2,0,4,0,1,0,0,0,0,0,0,0,0,0,0,1,-71.71450042000,41.86730957000
1835,Jamestown School,SC,Melrose,Jamestown,SCH,EAS,FED,1,4,1,0,1,1,6,0,0,1,0,0,0,0,0,0,0,0,0,1,-71.37955474000,41.49968719000
183,Lincoln Junior / Seniro High,SC,Old River,Lincoln,SCH,EAS,FED,0,2,2,1,2,0,8,0,1,0,0,0,0,0,0,0,0,0,0,1,-71.45273590000,41.93682479000
1759,Middletown High School,SC,Reardon,Middletown,SCH,NON,NON,0,1,0,0,1,0,0,0,0,0,0,0,0,0,0,0,0,0,0,1,-71.28821563000,41.51676940000
151,North Smithfield High School,SC,Greenville,North Smithfield,SCH,NON,NON,0,2,1,1,1,2,4,0,1,0,0,0,0,0,0,0,0,0,0,1,-71.54447174000,41.95165634000
569,Hope High School,SC,Brown,Providence,SCH,NON,NON,1,2,1,1,2,1,8,0,1,0,0,0,0,0,0,0,0,0,0,1,-71.40379333000,41.83429718000
2068,Curtis Corner Middle School,SC,Curtis Corner,South Kingstown,SCH,NON,NON,0,0,1,1,0,0,5,0,0,0,0,0,0,0,0,0,0,0,0,1,-71.52038574000,41.46087265000
331,Smithfield High School,SC,Rosewood,Smithfield,SCH,NON,NON,0,2,1,1,1,0,4,0,1,0,0,0,0,0,0,0,0,0,0,1,-71.54400634000,41.87980651000
1238,Cedar Hill School,SC,Unnamed,Warwick,SCH,EAS,FED,1,1,0,0,1,0,0,0,0,0,0,0,0,0,0,0,0,0,0,1,-71.46411895000,41.68419265000
1122,Gorton School,SC,Draper,Warwick,SCH,EAS,FED,0,0,2,0,2,0,2,0,1,0,0,0,0,0,0,0,0,0,0,1,-71.37778472000,41.70618820000
953,Pilgrim High School,SC,Pilgrim,Warwick,SCH,NON,NON,0,1,2,1,2,0,0,0,1,0,0,0,0,0,0,0,0,0,0,1,-71.40910339000,41.74608230000
1198,Quinn School,SC,Brown,West Warwick,SCH,NON,NON,1,1,0,0,0,1,0,0,0,0,0,0,0,0,0,0,0,0,0,0,-71.52410125000,41.69050216000
1102,West Warwick School Complex,SC,Webster Knight,West Warwick,SCH,NON,NON,0,1,3,1,3,0,3,0,1,0,0,0,0,0,0,0,0,0,0,1,-71.51573181000,41.70882034000
2668,Exeter / West Greenwich Jr-sr High,SC,Nooseneck Hill,West Greenwich,SCH,NON,NON,0,2,2,1,3,0,4,0,1,0,0,0,0,0,0,0,0,0,0,1,-71.63713073000,41.60582733000
2684,Broad Rock Middle School,SC,Broad Rock,South Kingstown,SCH,NON,NON,0,0,2,0,2,0,6,0,1,0,0,0,0,0,0,0,0,0,0,1,-71.48425292000,41.45588302000
2702,Agnes Little School Playground,SC,Ashton,Pawtucket,SCH,NON,NON,1,0,0,0,0,0,0,0,0,0,0,0,0,0,0,0,0,0,0,0,-71.37074279000,41.87694168000
2707,Burrillville Middle School,SC,Broncos,Burrillville,SCH,NON,NON,1,2,1,0,1,2,2,0,1,0,0,0,0,0,0,0,0,0,0,1,-71.62338256000,41.98054504000
2710,Steere Farm Elementary School,SC,Steere Farm,Burrillville,SCH,NON,NON,1,0,1,0,1,0,0,0,0,0,0,0,0,0,0,0,0,0,0,1,-71.67575836000,41.93865585000
2694,Stadium School,SC,Crescent,Cranston,SCH,NON,NON,1,0,0,0,0,0,0,0,0,0,0,0,0,0,0,0,0,0,0,0,-71.44802856000,41.78921508000
2695,Waterman School,SC,Mapleton,Cranston,SCH,NON,NON,1,0,0,0,0,0,0,0,0,0,0,0,0,0,0,0,0,0,0,0,-71.43938446000,41.76633071000
2690,Rhodes School,SC,Shaw,Cranston,SCH,NON,NON,1,0,0,0,0,0,0,0,0,0,0,0,0,0,0,0,0,0,0,0,-71.39628601000,41.77446365000
837,Rhodes School,SC,Putnam,Warwick,SCH,EAS,FED,1,0,0,0,1,0,0,0,0,0,0,0,0,0,0,0,0,0,0,0,-71.41590881000,41.75757217000
2775,Manning Field,AF,Danielson,Scituate,SCH,NON,SCH,0,2,1,0,1,0,0,0,0,0,0,0,0,0,0,0,0,0,0,1,-71.61120605000,41.83071517000
2854,Davies Middle School,AF,Jenckes Hill,Lincoln,SCH,NON,NON,0,2,0,0,1,0,0,0,0,0,0,0,0,0,0,0,0,0,0,1,-71.45738220000,41.90116500000
2834,Springbrook School,SC,Springbrook,Westerly,SCH,NON,SCH,1,0,0,0,1,0,0,0,0,0,0,0,0,0,0,0,0,0,0,0,-71.82847595000,41.40149688000
0,Coventry Middle School,SC,Foster Dr,Coventry,SCH,NON,SCH,0,2,0,0,0,2,0,0,0,0,0,0,0,0,0,0,0,0,0,1,0.00000000000,0.00000000000
0,Halliwell School Playground,SC,Victory Highway,North Smithfield,SCH,NON,SCH,1,0,0,0,0,0,0,0,0,0,0,0,0,0,0,0,0,0,0,0,0.00000000000,0.00000000000
0,Cunningham Elementary School Playground,SC,Baldwin,Pawtucket,SCH,NON,NON,1,0,0,0,0,0,0,0,0,0,0,0,0,0,0,0,0,0,0,0,0.00000000000,0.00000000000
0,Curtis Elementary School,SC,Benefit,Pawtucket,SCH,NON,NON,1,0,0,0,0,0,0,0,0,0,0,0,0,0,0,0,0,0,0,0,0.00000000000,0.00000000000
828,Stillhouse Cove,LP,Narragansett,Cranston,STA,EAS,STA,0,0,0,0,0,0,0,0,0,0,0,0,0,1,0,0,0,0,0,0,-71.38991546000,41.77013778000
2634,Doreen Tomlinson Complex,AF,Daggett,Pawtucket,STA,EAS,FED,0,5,1,0,1,0,0,0,0,0,0,0,0,0,0,0,0,0,0,1,-71.34529113000,41.88639068000
2706,Black Hut Management Area,MA,Glen Meadow,Burrillville,STA,FEE,STA,0,0,0,0,0,0,0,0,0,0,0,0,0,0,0,1,1,0,0,1,-71.64867401000,41.98720932000
10,Carl's Pond,FB,Jencks,Cumberland,STA,FEE,STA,0,0,0,0,0,0,0,0,0,0,0,0,0,1,1,0,0,0,0,1,-71.44660186000,42.01313018000
2,Buck Hill Management Area,MA,Benson Mountain,Burrillville,STA,FEE,STA,0,0,0,0,0,0,0,0,0,0,0,0,0,1,0,1,1,0,0,1,-71.78728485000,41.99706268000
178,Blackstone Bikeway,SP,Farnworth,Lincoln,STA,FEE,STA,0,0,0,0,0,0,0,0,0,0,0,0,0,0,0,0,0,0,0,1,-71.40835571000,41.91162490000
182,George Washington Management Area,MA,Richardson,Burrillville,STA,FEE,STA,0,0,0,0,0,0,0,0,0,0,0,0,0,1,0,1,1,0,0,1,-71.76850891000,41.94266128000
234,Washington Grove,SP,Washington,Smithfield,STA,EAS,FED,0,0,0,0,0,0,0,0,0,0,0,0,0,0,0,0,0,0,0,0,-71.53817749000,41.91281127000
242,Woonasquatucket Reservoir,FB,Farnum Pike,Smithfield,STA,FEE,STA,0,0,0,0,0,0,0,0,0,0,0,0,0,1,0,0,0,0,0,0,-71.54101562000,41.90761184000
236,Durfee Hill Management Area,MA,Willie Woodhead,Glocester,STA,FEE,STA,0,0,0,0,0,0,0,0,0,0,0,0,0,0,0,1,1,0,0,0,-71.74745178000,41.90439605000
324,Lincoln Woods,SP,Lincoln Woods,Lincoln,STA,FEE,STA,0,1,0,0,1,0,0,0,0,0,0,0,0,1,1,0,0,0,0,1,-71.43139648000,41.89726257000
461,Snake Den State Park,CA,Hartford,Johnston,STA,EAS,FED,0,0,0,0,0,0,0,0,0,0,0,0,0,0,0,0,0,0,0,0,-71.53470611000,41.84130096000
534,Shippee Sawmill Pond,FB,Willoughby Young,Foster,STA,FEE,STA,0,0,0,0,0,0,0,0,0,0,0,0,0,1,1,0,0,0,0,1,-71.75236511000,41.83379364000
565,Dean Andrews Memorial Field,LP,Battey Meetinghouse,Scituate,STA,FEE,STA,1,1,0,0,1,0,0,0,0,0,0,0,0,1,0,0,0,0,0,1,-71.60561370000,41.82970046000
746,JT Owens Park,LP,Niantic,Providence,STA,EAS,FED,1,3,0,0,0,0,2,0,0,0,0,0,0,1,1,0,0,0,0,1,-71.43684387000,41.79338836000
832,Fay Memorial Field,LP,Dallas,Cranston,STA,FEE,STA,0,3,0,0,0,0,0,0,0,0,0,0,0,0,0,0,1,0,0,1,-71.40030670000,41.77082443000
830,Meshanticut Park,SP,Lakeview,Cranston,STA,FEE,STA,0,0,0,0,0,0,0,0,0,0,0,0,0,1,0,0,0,0,0,0,-71.47604370000,41.76870346000
855,Dean Parkway,SP,Dean,Cranston,STA,FEE,STA,0,0,0,0,0,0,0,0,0,0,0,0,0,0,0,0,0,0,0,0,-71.46330261000,41.76323318000
922,Haines Park,SP,Haines Park,Barrington,STA,FEE,STA,0,3,1,0,1,0,0,0,0,0,0,0,0,1,1,0,0,0,0,1,-71.34613800000,41.75232315000
919,Salter Grove,LP,Narragansett,Warwick,STA,FEE,STA,1,0,0,0,0,0,0,0,0,0,0,0,0,1,1,0,0,0,0,0,-71.38346099000,41.75286102000
1106,Nicholas Farm,MA,Plainfield Pike,Coventry,STA,FEE,STA,0,0,0,0,0,0,0,0,0,0,0,0,0,1,0,1,1,0,0,0,-71.77273559000,41.69342422000
1125,Trestle Trail West',SP,Bramble Bush,Coventry,STA,FEE,STA,0,0,0,0,0,0,0,0,0,0,0,0,0,0,0,0,0,0,0,0,-71.64464569000,41.69669342000
1261,Colt State Park,SP,Asylum,Bristol,STA,EAS,FED,0,0,0,0,4,0,0,0,0,0,0,0,0,1,1,0,0,0,0,1,-71.29747009000,41.67708969000
1378,Big River Reservoir,MA,Burnt Sawmill,West Greenwich,STA,FEE,STA,0,0,0,0,0,0,0,0,0,0,0,0,0,0,0,1,1,0,0,1,-71.60385131000,41.63472366000
1285,Goddard Park,SP,Ives,Warwick,STA,FEE,STA,0,0,0,0,0,0,0,0,0,0,0,0,1,1,1,0,0,0,0,1,-71.43722534000,41.65924835000
1305,North Prudence Island,MA,Neck Farm,Portsmouth,STA,FEE,STA,0,0,0,0,0,0,0,0,0,0,0,0,0,0,0,1,1,0,0,0,-71.34316253000,41.65590667000
1326,Patience Island,MA,Neck Farm,Portsmouth,STA,FEE,STA,0,0,0,0,0,0,0,0,0,0,0,0,0,0,0,1,1,0,0,0,-71.36003112000,41.65565872000
1392,Boyds Marsh,MA,Bay View,Portsmouth,STA,FEE,STA,0,0,0,0,0,0,0,0,0,0,0,0,0,0,0,0,0,0,0,0,-71.24364471000,41.63571929000
1467,Teddy's Beach,SP,Point,Portsmouth,STA,FEE,STA,0,0,0,0,0,0,0,0,0,0,0,0,0,1,1,0,0,1,0,0,-71.21983337000,41.62541580000
1491,Lehigh Hill Grove,SP,Main,Portsmouth,STA,FEE,STA,0,0,0,0,0,0,0,0,0,0,0,0,0,0,0,0,0,0,0,0,-71.26029968000,41.61138534000
1501,Hope Island,MA,Bay,Portsmouth,STA,FEE,STA,0,0,0,0,0,0,0,0,0,0,0,0,0,0,0,1,1,0,0,0,-71.36820983000,41.60221862000
1521,Black Regiment Memorial Park,SP,Musselbed Shoal,Portsmouth,STA,FEE,STA,0,0,0,0,0,0,0,0,0,0,0,0,0,0,0,0,0,0,0,0,-71.25514221000,41.63357925000
1512,Devil's Foot Rock,CA,Post,North Kingstown,STA,FEE,STA,0,0,0,0,0,0,0,0,0,0,0,0,0,0,0,0,0,0,0,0,-71.45646667000,41.60262680000
1520,South Prudence Island,MA,Bunker,Portsmouth,STA,FEE,STA,0,0,0,0,0,0,0,0,0,0,0,0,0,0,0,1,1,0,0,0,-71.32357788000,41.58792495000
1528,Queen's Fort Historic Site,SP,Lantern,Exeter,STA,FEE,STA,0,0,0,0,0,0,0,0,0,0,0,0,0,0,0,0,0,0,0,0,-71.52201080000,41.59032821000
1535,Cocumscussoc Park,CA,Post Road,North Kingstown,STA,EAS,FED,0,0,0,0,0,0,0,0,0,0,0,0,0,0,0,1,1,0,0,0,-71.47315216000,41.58142089000
1560,Seapowet Marsh,FB,Seapowet,Tiverton,STA,FEE,STA,0,0,0,0,0,0,0,0,0,0,0,0,0,1,1,0,0,0,0,0,-71.20941162000,41.58218383000
1532,Beach Pond State Park,FB,Ten Rod,Exeter,STA,EAS,FED,0,0,0,0,0,0,0,0,0,0,0,0,0,0,0,1,0,1,0,1,-71.78637695000,41.57405853000
1644,Arcadia Management Area,MA,Ten Rod,Exeter,STA,EAS,FED,0,0,0,0,0,0,0,0,0,0,0,0,0,0,0,1,1,0,0,2,-71.72419738000,41.58083343000
1678,John H Chaffee Rome Point Preserve,SP,Terre Mar,North Kingstown,STA,FEE,STA,0,0,0,0,0,0,0,0,0,0,0,0,0,1,0,0,0,0,0,0,-71.43125152000,41.54018783000
1694,May C. Donovan Marsh,CA,Francis,Little Compton,STA,FEE,STA,0,0,0,0,0,0,0,0,0,0,0,0,0,0,0,0,0,0,0,0,-71.20301818000,41.54493713000
1700,Shady Lea,CA,Colonel Rodman,North Kingstown,STA,FEE,STA,0,0,0,0,0,0,0,0,0,0,0,0,0,1,1,0,0,0,0,1,-71.47031402000,41.54067611000
1704,Silver Spring Lake Fishing Area,FB,Silver Spring,North Kingstown,STA,FEE,STA,0,0,0,0,0,0,0,0,0,0,0,0,0,1,1,0,0,0,0,1,-71.47007751000,41.53821182000
1715,Gould Island,MA,Shore,Jamestown,STA,FEE,STA,0,0,0,0,0,0,0,0,0,0,0,0,0,0,0,1,1,0,0,0,-71.34436798000,41.53399276000
1723,Rockville Management,MA,Canonchet,Hopkinton,STA,FEE,STA,0,0,0,0,0,0,0,0,0,0,0,0,0,1,0,1,1,0,0,0,-71.75704956000,41.50593948000
1807,Bay Is. Park-Dutch Island,MA,Fort Getty,Jamestown,STA,FEE,STA,0,0,0,0,0,0,0,0,0,0,0,0,0,0,0,1,1,0,0,0,-71.40055084000,41.50149154000
1846,Hannah Robinson Tower,SP,Bridgetown,South Kingstown,STA,FEE,STA,0,0,0,0,0,0,0,0,0,0,0,0,0,0,0,0,0,0,0,0,-71.45588684000,41.49504852000
1854,Carolina Management  Area,MA,Meadowbrook,Richmond,STA,FEE,STA,0,0,0,0,0,0,0,0,0,0,0,0,0,0,0,1,1,0,0,1,-71.68852233000,41.46908187000
1949,Purgatory Chasm,SP,Tuckerman,Middletown,STA,FEE,STA,0,0,0,0,0,0,0,0,0,0,0,0,0,0,0,0,0,0,0,0,-71.26841735000,41.48681259000
1911,Great Swamp Management Area,MA,Great Neck,South Kingstown,STA,FEE,STA,0,0,0,0,0,0,0,0,0,0,0,0,0,0,0,1,1,0,0,0,-71.57805633000,41.46467208000
1997,Fort Adams State Park,SP,Fort Adams,Newport,STA,FEE,STA,0,0,3,0,3,0,0,0,0,0,0,0,0,1,1,0,0,0,0,1,-71.33828735000,41.47532653000
2002,Fort Wetherill,SP,Fort Wetherill,Jamestown,STA,EAS,FED,0,0,0,0,0,0,0,0,0,0,0,0,0,1,1,0,0,0,0,0,-71.36210632000,41.47934722000
2070,Beavertail State Park,SP,Beavertail,Jamestown,STA,FEE,STA,0,0,0,0,0,0,0,0,0,0,0,0,0,1,0,0,0,0,0,0,-71.39702606000,41.45677566000
2088,Brenton Point Park,SP,Atlantic,Newport,STA,FEE,STA,0,0,0,0,1,0,0,0,0,0,0,0,0,1,0,0,0,0,0,0,-71.35443115000,41.45196533000
2099,Kings Beach,FB,Price's Neck,Newport,STA,FEE,STA,0,0,0,0,0,0,0,0,0,0,0,0,0,1,0,0,0,1,0,0,-71.34235382000,41.45436096000
17,World War II Park,SP,School,Woonsocket,STA,EAS,FED,1,0,0,0,0,0,4,0,0,0,0,0,0,0,0,0,0,0,1,1,-71.50952911000,42.01003646000
2132,Meadow Brook Pond,FB,Church,Richmond,STA,FEE,STA,0,0,0,0,0,0,0,0,0,0,0,0,0,1,0,0,0,0,0,1,-71.69017028000,41.43840026000
2220,Scarborough State Beach,SP,Ocean,Narragansett,STA,EAS,FED,0,0,0,0,0,0,0,0,0,0,0,0,0,0,0,0,0,1,0,0,-71.47267913000,41.38970184000
2206,Woody Hill Area,MA,Woody Hillension,Westerly,STA,FEE,STA,0,0,0,0,0,0,0,0,0,0,0,0,0,0,0,1,1,0,0,1,-71.74580383000,41.37737655000
2217,Newton Swamp,MA,Westerly-Bradford,Westerly,STA,FEE,STA,0,0,0,0,0,0,0,0,0,0,0,0,0,0,0,1,1,0,0,0,-71.77534484000,41.38155364000
2254,Succotash Marsh,CA,Succotash,South Kingstown,STA,EAS,FED,0,0,0,0,0,0,0,0,0,0,0,0,0,0,0,0,0,0,0,0,-71.52602386000,41.37991714000
2258,Galilee Bird Sanctuary,MA,Galilee Escape,Narragansett,STA,FEE,STA,0,0,0,0,0,0,0,0,0,0,0,0,0,0,0,0,0,0,0,0,-71.49902343000,41.37820434000
2251,Fort Ninigret,SP,Fort Ninigret,Charlestown,STA,FEE,STA,0,0,0,0,0,0,0,0,0,0,0,0,0,0,0,0,0,0,0,0,-71.64786529000,41.38111114000
2253,Burlingame Management Area,MA,Unnamed,Charlestown,STA,EAS,STA,0,0,0,0,0,0,0,0,0,0,0,0,0,0,0,1,1,0,0,1,-71.70753479000,41.40476989000
2284,Fishermen's Memorial State Campground,SP,Point Judith,Narragansett,STA,EAS,FED,0,0,0,0,0,2,2,0,0,0,0,0,0,0,0,0,0,0,0,1,-71.49288177000,41.38025283000
2300,East Matunuck State Beach,SP,Succotash,South Kingstown,STA,EAS,FED,0,0,0,0,0,0,0,0,0,0,0,0,0,0,0,0,0,1,0,0,-71.52599334000,41.37781143000
2326,Roger Wheeler State Beach,SP,Sand Hill Cove,Narragansett,STA,EAS,FED,1,0,0,0,0,0,0,0,0,0,0,0,0,0,0,0,0,1,0,0,-71.49946594000,41.37331390000
2336,Green Hill / Goose Island,FB,Charlestown Beach,South Kingstown,STA,FEE,STA,0,0,0,0,0,0,0,0,0,0,0,0,0,1,0,0,0,0,0,0,-71.60766601000,41.36441802000
2364,Camp Cronin,FB,Ocean,Narragansett,STA,FEE,STA,0,0,0,0,0,0,0,0,0,0,0,0,0,1,0,0,0,0,0,0,-71.48472595000,41.36273956000
2365,Charlestown Breachway Campground,SP,Charlestown Beach,Charlestown,STA,FEE,STA,0,0,0,0,0,0,0,0,0,0,0,0,0,1,1,0,0,0,0,1,-71.63808441000,41.35821533000
2397,Ninigret Conservation Area,CA,Beach,Charlestown,STA,EAS,FED,0,0,0,0,0,0,0,0,0,0,0,0,0,0,0,0,0,0,0,0,-71.67544555000,41.34807205000
2399,Quonochontaug Fishing Area,FB,Beach,Charlestown,STA,FEE,STA,0,0,0,0,0,0,0,0,0,0,0,0,0,1,1,0,0,0,0,1,-71.72224426000,41.33657455000
2420,Misquamicut State Beach,SP,Atlantic,Westerly,STA,FEE,STA,1,0,0,0,0,0,0,0,0,0,0,0,0,0,0,0,0,1,0,0,-71.80358123000,41.32316589000
2465,Clay Head / Risom,CA,Corn Neck,New Shoreham,STA,FEE,STA,0,0,0,0,0,0,0,0,0,0,0,0,0,0,0,0,0,0,0,0,-71.56066894000,41.22084045000
2481,Rodman's Hollow,CA,Black Rock,New Shoreham,STA,EAS,FED,0,0,0,0,0,0,0,0,0,0,0,0,0,0,0,0,0,0,0,0,-71.59078979000,41.15256881000
2528,Merrill S. Whipple Conservation,MA,Sandy Bottom,Coventry,STA,FEE,STA,0,0,0,0,0,0,0,0,0,0,0,0,0,1,0,1,1,0,0,0,-71.55630493000,41.68816757000
2555,East Bay Bike Path,SP,Market,Warren,STA,FEE,STA,0,0,0,0,0,0,0,0,0,0,0,0,0,0,0,0,0,0,0,1,-71.28073883000,41.73088455000
2578,Buttonhole Golf Course,LP,King Philip,Johnston,STA,EAS,FED,0,0,0,0,0,0,0,0,0,0,0,0,1,0,0,0,0,0,0,1,-71.46350860000,41.82532119000
2654,Salty Brine State Beach,SP,Sand Hill Cove,Narragansett,STA,EAS,FED,0,0,0,0,0,0,0,0,0,0,0,0,0,0,0,0,0,1,0,0,-71.51280212000,41.37543487000
2657,Washington Secondary Bike Path,LP,Howard,Cranston,STA,FEE,STA,0,0,0,0,0,0,0,0,0,0,0,0,0,0,0,0,0,0,0,1,-71.44989013000,41.79179382000
2758,Killingly Pond,MA,Cook Estate,Glocester,STA,FEE,STA,0,0,0,0,0,0,0,0,0,0,0,0,0,0,0,1,1,0,0,0,-71.78054809000,41.86515808000
2785,Union Pond Fishing Access,FB,Reservoir,Burrillville,STA,FEE,STA,0,0,0,0,0,0,0,0,0,0,0,0,0,1,1,0,0,0,0,1,-71.70395660000,41.95180892000
2787,Slatersville Pond Fishing Access,FB,Victory Highway,North Smithfield,STA,FEE,STA,0,0,0,0,0,0,0,0,0,0,0,0,0,0,1,0,0,0,0,1,-71.60088348000,41.98708724000
2816,Rocky Point Park,LP,Rocky Point,Warwick,STA,EAS,STA,0,0,0,0,0,0,0,0,0,0,0,0,0,1,0,0,0,0,0,0,-71.36405181000,41.69140243000
2346,Fish Hill Ball Fields,AF,Fish Hill,Coventry,STA,FEE,STA,0,2,3,0,1,0,0,0,0,0,0,0,0,0,0,0,0,0,0,1,-71.62533569000,41.66588211000
121,Big River / Nooseneck Hill Road Fishing Access,FB,Nooseneck Hill,West Greenwich,STA,FEE,STA,0,0,0,0,0,0,0,0,0,0,0,0,0,1,0,1,0,0,0,1,-71.61373138000,41.64443588000
146,Round Top,MA,Round Top,Burrillville,STA,FEE,STA,0,0,0,0,0,0,0,0,0,0,0,0,0,1,0,1,1,0,0,1,-71.69934844000,42.00394058000
162,Blue Pond,FB,Canonchet,Hopkinton,STA,FEE,STA,0,0,0,0,0,0,0,0,0,0,0,0,0,1,0,0,0,0,0,1,-71.75287628000,41.50233840000
196,Carr Pond,FB,Hopkins Hill,West Greenwich,STA,FEE,STA,0,0,0,0,0,0,0,0,0,0,0,0,0,1,0,0,0,0,0,1,-71.57110595000,41.63113403000
219,State Pier # 4,FB,Succotash,Narragansett,STA,FEE,STA,0,0,0,0,0,0,0,0,0,0,0,0,0,1,0,0,0,0,0,1,-71.51499938000,41.37882995000
220,Saugatucket River,FB,Broad Rock,South Kingstown,STA,FEE,STA,0,0,0,0,0,0,0,0,0,0,0,0,0,1,0,0,0,0,0,1,-71.48456573000,41.47925949000
229,Peck Pond / Pulaski Park,SP,Unnamed,Burrillville,STA,FEE,STA,0,0,0,0,0,0,0,0,0,0,0,0,0,1,0,0,0,0,0,1,-71.79640197000,41.93287277000
2888,Olney Pond Fishing Access,FB,Stump Hill,Lincoln,STA,EAS,FED,0,0,0,0,0,0,0,0,0,0,0,0,0,1,0,0,0,0,0,1,-71.42659759000,41.89469528000
6,Bucks Horn Brook,FB,Lewis Farm,Coventry,STA,FEE,STA,0,0,0,0,0,0,0,0,0,0,0,0,0,1,0,0,0,0,0,1,-71.75682830000,41.69536209000
8,Trestle Trail East,SP,Lewis Farm,Coventry,STA,FEE,STA,0,0,0,0,0,0,0,0,0,0,0,0,0,1,0,0,0,0,0,1,-71.76157379000,41.69030380000
2870,Deep Pond,FB,Deep Pond,Exeter,STA,FEE,STA,0,0,0,0,0,0,0,0,0,0,0,0,0,1,0,0,0,0,0,1,-71.71777343000,41.56175613000
11,Falls River - Austin Farm,FB,Plain,Exeter,STA,FEE,STA,0,0,0,0,0,0,0,0,0,0,0,0,0,1,0,0,0,0,0,1,-71.74579620000,41.59833526000
12,Lower Fall River,FB,Midway Rail,Exeter,STA,FEE,STA,0,0,0,0,0,0,0,0,0,0,0,0,0,1,0,0,0,0,0,1,-71.72078704000,41.58025741000
13,Simon Jordan Fishing Access,FB,Brookie,Exeter,STA,FEE,STA,0,0,0,0,0,0,0,0,0,0,0,0,0,1,0,0,0,0,0,1,-71.73101043000,41.58738327000
14,Upper Flat River,FB,Plain,Exeter,STA,FEE,STA,0,0,0,0,0,0,0,0,0,0,0,0,0,1,0,0,0,0,0,1,-71.72031402000,41.59562683000
15,Lower Flat River,FB,Arcadia Man Area,Exeter,STA,FEE,STA,0,0,0,0,0,0,0,0,0,0,0,0,0,1,0,0,0,0,0,1,-71.71899414000,41.57950592000
2871,Frosty Hollow Pond,FB,Camp E-hun-tee,Exeter,STA,FEE,STA,0,0,0,0,0,0,0,0,0,0,0,0,0,1,0,0,0,0,0,1,-71.70903015000,41.58768844000
18,Paris Brook,FB,Mount Tom,Exeter,STA,FEE,STA,0,0,0,0,0,0,0,0,0,0,0,0,0,1,0,0,0,0,0,1,-71.72914123000,41.56467056000
20,Step Stone Falls,FB,Falls River,West Greenwich,STA,FEE,STA,0,0,0,0,0,0,0,0,0,0,0,0,0,1,0,0,0,0,0,1,-71.76062774000,41.61254882000
24,Ponagansett,FB,Pine Tree,Foster,STA,FEE,STA,0,0,0,0,0,0,0,0,0,0,0,0,0,1,0,0,0,0,0,1,-71.74320220000,41.84536743000
28,Mechanic St,FB,Mechanic,Hopkinton,STA,FEE,STA,0,0,0,0,0,0,0,0,0,0,0,0,0,1,0,0,0,0,0,1,-71.71673583000,41.50318527000
2872,Simmons Mill Pond,MA,Colebrook,Little Compton,STA,FEE,STA,0,0,0,0,0,0,0,0,0,0,0,0,0,1,0,1,1,0,0,1,-71.15438079000,41.53970336000
42,Carolina Trout Pond,FB,Coondog,Richmond,STA,FEE,STA,0,0,0,0,0,0,0,0,0,0,0,0,0,1,0,0,0,0,0,1,-71.70184326000,41.48576736000
43,Meadow Brook At Carolina,FB,Pine Hill,Richmond,STA,FEE,STA,0,0,0,0,0,0,0,0,0,0,0,0,0,1,0,0,0,0,0,1,-71.69020080000,41.46635818000
49,Deep Hole,FB,Matunuck Beach,South Kingstown,STA,FEE,STA,0,0,0,0,0,0,0,0,0,0,0,0,0,1,0,0,0,0,0,1,-71.53833007000,41.37350082000
57,Weekapaug Breachway,FB,Wawaloam,Westerly,STA,FEE,STA,0,0,0,0,0,0,0,0,0,0,0,0,0,1,0,0,0,0,0,1,-71.76261901000,41.33062362000
61,East Beach,FB,Beach,Charlestown,STA,FEE,STA,0,0,0,0,0,0,0,0,0,0,0,0,0,1,0,0,0,1,0,1,-71.69007873000,41.34448623000
66,Black Point,FB,Ocean,Narragansett,STA,FEE,STA,0,0,0,0,0,0,0,0,0,0,0,0,0,1,0,0,0,0,0,1,-71.46450042000,41.40003585000
240,Old Harbor Breakwater,FB,Water,New Shoreham,STA,FEE,STA,0,0,0,0,0,0,0,0,0,0,0,0,0,1,0,0,0,0,0,1,-71.55462646000,41.17415618000
245,Mohegan Bluffs / South East Light Stairway,SP,Spring,New Shoreham,STA,FEE,STA,0,0,0,0,0,0,0,0,0,0,0,0,0,1,0,0,0,0,0,1,-71.55507659000,41.15242004000
254,Burlingame Reservoir,FB,Elbow Rock,Glocester,STA,FEE,STA,0,0,0,0,0,0,0,0,0,0,0,0,0,1,0,0,0,0,0,1,-71.74253082000,41.91448211000
255,Eight Rod Farm,MA,Eight Rod,Tiverton,STA,FEE,STA,0,0,0,0,0,0,0,0,0,0,0,0,0,1,0,1,1,0,0,1,-71.17129516000,41.55895614000
118,Annawanscutt,FB,Viking,Bristol,STA,FEE,STA,0,0,0,0,0,0,0,0,0,0,0,0,0,1,1,0,0,0,0,1,-71.24240875000,41.68758010000
123,Gaspee Point,FB,Bay Shore,Warwick,STA,FEE,STA,0,0,0,0,0,0,0,0,0,0,0,0,0,1,1,0,0,0,0,1,-71.38306427000,41.74860763000
125,Locustville Pond,FB,Unnamed,Hopkinton,STA,FEE,STA,0,0,0,0,0,0,0,0,0,0,0,0,0,1,1,0,0,0,0,1,-71.71715545000,41.51567840000
129,Stump Pond,FB,Log,Smithfield,STA,FEE,STA,0,0,0,0,0,0,0,0,0,0,0,0,0,1,1,0,0,0,0,1,-71.54636383000,41.90090179000
132,Gull Cove Fishing & Boating Access,FB,State 138,Portsmouth,STA,FEE,STA,0,0,0,0,0,0,0,0,0,0,0,0,0,1,1,0,0,0,0,1,-71.23081207000,41.63385009000
2881,Zeke's Bridge,FB,Harkney Hill,Coventry,STA,FEE,STA,0,0,0,0,0,0,0,0,0,0,0,0,0,1,1,0,0,0,0,1,-71.61888122000,41.66522979000
136,George Washington Campground,SP,George Washington,Glocester,STA,FEE,STA,0,0,0,0,0,0,0,0,0,0,0,0,0,1,1,0,0,0,0,1,-71.75794219000,41.92362594000
137,Clarkville Pond,FB,Shepard,Glocester,STA,FEE,STA,0,0,0,0,0,0,0,0,0,0,0,0,0,1,1,0,0,0,0,1,-71.78780364000,41.92452239000
2882,Pascoag Reservoir Fishing Access,FB,Brandy Brook,Glocester,STA,FEE,STA,0,0,0,0,0,0,0,0,0,0,0,0,0,1,1,0,0,0,0,1,-71.71816253000,41.92723464000
139,Lake Washington,FB,Lake Washington,Glocester,STA,FEE,STA,0,0,0,0,0,0,0,0,0,0,0,0,0,1,1,0,0,0,0,1,-71.75835418000,41.91730117000
140,Moscow Pond,FB,Woody Hill,Hopkinton,STA,FEE,STA,0,0,0,0,0,0,0,0,0,0,0,0,0,1,1,0,0,0,0,1,-71.74182891000,41.52329635000
141,Olney Pond,FB,Les Pawson Loop,Lincoln,STA,FEE,STA,0,0,0,0,0,0,0,0,0,0,0,0,0,1,1,0,0,0,0,1,-71.42773437000,41.88948059000
143,Carbuncle Pond,FB,Plainfield Pike,Coventry,STA,FEE,STA,0,0,0,0,0,0,0,0,0,0,0,0,0,1,1,0,0,0,0,1,-71.77004241000,41.69744110000
2883,JL Curran,SP,Seven Mile,Cranston,STA,FEE,STA,0,0,0,0,0,0,0,0,0,0,0,0,0,1,1,1,1,0,0,1,-71.55120086000,41.75072860000
161,Ashville Pond,FB,Canonchet,Hopkinton,STA,FEE,STA,0,0,0,0,0,0,0,0,0,0,0,0,0,1,1,0,0,0,0,1,-71.75140380000,41.49929809000
168,Tefft River Access,FB,Mechanic,Hopkinton,STA,FEE,STA,0,0,0,0,0,0,0,0,0,0,0,0,0,1,1,0,0,0,0,1,-71.71663665000,41.49842453000
179,Beaver River,FB,Kingstown,Richmond,STA,FEE,STA,0,0,0,0,0,0,0,0,0,0,0,0,0,1,1,0,0,0,0,1,-71.62826538000,41.49234008000
2884,Richmond Landing,FB,Church,Richmond,STA,FEE,STA,0,0,0,0,0,0,0,0,0,0,0,0,0,1,1,0,0,0,0,1,-71.68135070000,41.44525146000
186,Barber Pond,FB,Barber's Pond,South Kingstown,STA,FEE,STA,0,0,0,0,0,0,0,0,0,0,0,0,0,1,1,0,0,0,0,1,-71.56439971000,41.49913787000
189,Narrow River,FB,Pollock,South Kingstown,STA,FEE,STA,0,0,0,0,0,0,0,0,0,0,0,0,0,1,1,0,0,0,0,1,-71.45019531000,41.46699523000
194,Potowomut Pond,FB,Potowomut,Warwick,STA,FEE,STA,0,0,0,0,0,0,0,0,0,0,0,0,0,1,1,0,0,0,0,1,-71.45379638000,41.63094711000
201,Breakhart Pond,FB,Austin Farm,Exeter,STA,FEE,STA,0,0,0,0,0,0,0,0,0,0,0,0,0,1,1,0,0,0,0,1,-71.70377349000,41.59572219000
203,Bradford Landing,FB,Main,Westerly,STA,FEE,STA,0,0,0,0,0,0,0,0,0,0,0,0,0,1,1,0,0,0,0,1,-71.74828338000,41.40629577000
235,Wallum Lake,FB,Shore,Burrillville,STA,CIN,STA,0,0,0,0,0,0,0,0,0,0,0,0,0,1,1,0,0,0,0,1,-71.76179504000,42.00080108000
2868,Spring Lake,FB,Black Hut,Burrillville,STA,FEE,STA,0,0,0,0,0,0,0,0,0,0,0,0,0,1,1,0,0,0,0,1,-71.66511535000,41.97899246000
2869,Wakefield Pond,FB,Lee,Burrillville,STA,FEE,STA,0,0,0,0,0,0,0,0,0,0,0,0,0,1,1,0,0,0,0,1,-71.78852844000,41.96621322000
3,Wilson Reservoir,FB,Wallum Lake,Burrillville,STA,FEE,STA,0,0,0,0,0,0,0,0,0,0,0,0,0,1,1,0,0,0,0,1,-71.72329711000,41.97000122000
5,Barton C. Hurley Landing,FB,Sanctuary,Charlestown,STA,FEE,STA,0,0,0,0,0,0,0,0,0,0,0,0,0,1,1,0,0,0,0,1,-71.67979431000,41.37857437000
19,Roaring Brook Pond,FB,Teft Hill,Exeter,STA,FEE,STA,0,0,0,0,0,0,0,0,0,0,0,0,0,1,1,0,0,0,0,1,-71.68050384000,41.56042098000
22,Wood River @rte 165,FB,Ten Rod,Exeter,STA,FEE,STA,0,0,0,0,0,0,0,0,0,0,0,0,0,1,1,0,0,0,0,1,-71.72106933000,41.57295989000
26,Keech Pond,FB,Indian,Glocester,STA,FEE,STA,0,0,0,0,0,0,0,0,0,0,0,0,0,1,1,0,0,0,0,1,-71.69072723000,41.87563323000
27,Smith & Sayles Reservoir,FB,Point,Glocester,STA,FEE,STA,0,0,0,0,0,0,0,0,0,0,0,0,0,1,1,0,0,0,0,1,-71.67769622000,41.89692687000
30,Sakonnet Point,FB,Sakonnet Point,Little Compton,STA,FEE,STA,0,0,0,0,0,0,0,0,0,0,0,0,0,1,1,0,0,0,0,1,-71.19313049000,41.46338272000
33,Galilee,FB,Great Island,Narragansett,STA,FEE,STA,0,0,0,0,0,0,0,0,0,0,0,0,0,1,1,0,0,0,0,1,-71.50748443000,41.38319778000
45,Wyoming Dam,FB,Bridge,Richmond,STA,FEE,STA,0,0,0,0,0,0,0,0,0,0,0,0,0,1,1,0,0,0,0,1,-71.70283508000,41.51565170000
2874,Biscuit City,FB,Biscuit City,Richmond,STA,FEE,STA,0,0,0,0,0,0,0,0,0,0,0,0,0,1,1,0,0,0,0,1,-71.61579895000,41.45082473000
48,Taylors Landing,FB,Kingstown,South Kingstown,STA,FEE,STA,0,0,0,0,0,0,0,0,0,0,0,0,0,1,1,0,0,0,0,1,-71.55126953000,41.48254776000
50,Tucker Pond,FB,Tuckertown,South Kingstown,STA,FEE,STA,0,0,0,0,0,0,0,0,0,0,0,0,0,1,1,0,0,0,0,1,-71.54908752000,41.42608642000
51,Worden Pond Boat Launch,FB,Worden's Pond,South Kingstown,STA,FEE,STA,0,0,0,0,0,0,0,0,0,0,0,0,0,1,1,0,0,0,0,1,-71.56781768000,41.42951965000
2875,Stafford Pond,FB,Oldafford,Tiverton,STA,FEE,STA,0,0,0,0,0,0,0,0,0,0,0,0,0,1,1,0,0,0,0,1,-71.14877319000,41.63361358000
56,Main Street Boat Ramp,FB,Main,Westerly,STA,FEE,STA,0,0,0,0,0,0,0,0,0,0,0,0,0,1,1,0,0,0,0,1,-71.83213806000,41.37498474000
58,Haines Park,FB,Beach Point,East Providence,STA,FEE,STA,0,0,0,0,0,0,0,0,0,0,0,0,0,1,1,0,0,0,0,1,-71.35272979000,41.75379562000
62,Browning Mill Pond,FB,K And G Ranch,Richmond,STA,FEE,STA,0,0,0,0,0,0,0,0,0,0,0,0,0,1,1,0,0,0,0,1,-71.68527221000,41.55602645000
67,Monahan's Dock Fishing And Boating Access,FB,Ocean,Narragansett,STA,FEE,STA,0,0,0,0,0,0,0,0,0,0,0,0,0,1,1,0,0,0,0,1,-71.45535278000,41.42215347000
2876,Big River @burnt Saw Mill Rd,FB,Burnt Sawmill,West Greenwich,STA,FEE,STA,0,0,0,0,0,0,0,0,0,0,0,0,0,1,1,0,0,0,0,1,-71.60775756000,41.64326858000
72,Big River Fishing Access,FB,I 95,West Greenwich,STA,FEE,STA,0,0,0,0,0,0,0,0,0,0,0,0,0,1,1,0,0,0,0,1,-71.61434936000,41.64941406000
2877,Tarbox Pond,FB,Hopkins Hill,West Greenwich,STA,FEE,STA,0,0,0,0,0,0,0,0,0,0,0,0,0,1,1,0,0,0,0,1,-71.57354736000,41.63637924000
87,Bristol Narrows,FB,Narrows,Bristol,STA,FEE,STA,0,0,0,0,0,0,0,0,0,0,0,0,0,1,1,0,0,0,0,1,-71.24626159000,41.69729232000
89,Harrisville Pond,FB,Sherman Farm,Burrillville,STA,FEE,STA,0,0,0,0,0,0,0,0,0,0,0,0,0,1,1,0,0,0,0,1,-71.67879486000,41.97085571000
2890,Lonsdale Drive-in,FB,John,Lincoln,STA,FEE,STA,0,0,0,0,0,0,0,0,0,0,0,0,0,1,1,0,0,0,0,1,-71.40005493000,41.90730285000
2891,High Banks,FB,Summit,Exeter,STA,FEE,STA,0,0,0,0,0,0,0,0,0,0,0,0,0,1,1,0,0,0,0,1,-71.71535491000,41.56528854000
256,Simmons Mill Pond,FB,Colebrook,Little Compton,STA,FEE,STA,0,0,0,0,0,0,0,0,0,0,0,0,0,1,1,0,0,0,0,1,-71.15054321000,41.54354095000
2825,Tillinghast Pond,FB,Plain,West Greenwich,STA,FEE,STA,0,0,0,0,0,0,0,0,0,0,0,0,0,1,1,0,0,0,0,1,-71.75569152000,41.64473724000
2824,High Rocks Gorge,CA,Harkness,North Smithfield,STA,FEE,STA,0,0,0,0,0,0,0,0,0,0,0,0,0,1,0,0,0,0,0,0,-71.55272674000,42.01098632000
796,Friendly Community,LP,Doric,Cranston,UNK,NON,UNK,1,0,0,0,0,0,0,0,0,0,0,0,0,0,0,0,0,0,0,0,-71.42370605000,41.78446960000
2801,Leina Rose Street Playground,LP,Leina Rose,Coventry,UNK,CIN,UNK,1,0,0,0,0,1,1,0,0,0,0,0,0,0,0,0,0,0,0,1,-71.58681488000,41.68621826000
2867,Boys And Girls Club,LP,Martin,Cumberland,UNK,UNK,UNK,1,1,0,0,0,2,0,0,0,0,0,1,0,0,0,0,0,0,0,1,-71.42350769000,41.92908859000
2778,Bentley Field,AF,Diamond Hill,Cumberland,UTL,FEE,UTL,0,3,0,0,0,0,0,0,0,0,0,0,0,0,0,0,0,0,0,1,-71.40878295000,41.98506927000
2779,Razee Field,AF,Nate Whipple,Cumberland,UTL,FEE,UTL,0,1,0,0,0,0,0,0,0,0,0,0,0,0,0,0,0,0,0,1,-71.39871978000,41.98176574000
52,Nonquit Pond Fishing Access,FB,Pond Bridge,Tiverton,UTL,FEE,UTL,0,0,0,0,0,0,0,0,0,0,0,0,0,1,0,0,0,0,0,1,-71.19737243000,41.55335617000
76,Adamsville Brook,CA,Crandall,Tiverton,UTL,FEE,UTL,0,0,0,0,0,0,0,0,0,0,0,0,0,1,0,0,0,0,0,1,-71.13352966000,41.56231307000
274,Collier Park Ramp,FB,Henderson,Providence,UTL,NON,NON,0,0,0,0,0,0,0,0,0,0,0,0,0,1,1,0,0,0,0,1,-71.40175628000,41.81210708000
